<?xml version="1.0" encoding="UTF-8"?>
<kml xmlns="http://www.opengis.net/kml/2.2">
  <Document>
    <name>2026 東京單車騎旅 19 天行程</name>
    <description>所有每日目的地與停靠站</description>

    <Placemark>
      <name>Day 1: 高尾/八王子</name>
      <description>Day 1 目的地</description>
      <Point>
        <coordinates>139.27,35.628,0</coordinates>
      </Point>
    </Placemark>

    <Placemark>
      <name>Day 2: 上野原/相模湖</name>
      <description>Day 2 目的地</description>
      <Point>
        <coordinates>139.119,35.626,0</coordinates>
      </Point>
    </Placemark>

    <Placemark>
      <name>Day 3: 富士河口湖</name>
      <description>Day 3 目的地</description>
      <Point>
        <coordinates>138.769,35.498,0</coordinates>
      </Point>
    </Placemark>

    <Placemark>
      <name>Day 4: 山中湖</name>
      <description>Day 4 目的地</description>
      <Point>
        <coordinates>138.868,35.418,0</coordinates>
      </Point>
    </Placemark>

    <Placemark>
      <name>Day 5: 御殿場</name>
      <description>Day 5 目的地</description>
      <Point>
        <coordinates>138.934,35.308,0</coordinates>
      </Point>
    </Placemark>

    <Placemark>
      <name>Day 6: 箱根</name>
      <description>Day 6 目的地</description>
      <Point>
        <coordinates>139.106,35.232,0</coordinates>
      </Point>
    </Placemark>

    <Placemark>
      <name>Day 7: 小田原</name>
      <description>Day 7 目的地</description>
      <Point>
        <coordinates>139.155,35.257,0</coordinates>
      </Point>
    </Placemark>

    <Placemark>
      <name>Day 8: 熱海</name>
      <description>Day 8 目的地</description>
      <Point>
        <coordinates>139.073,35.095,0</coordinates>
      </Point>
    </Placemark>

    <Placemark>
      <name>Day 9: 伊東</name>
      <description>Day 9 目的地</description>
      <Point>
        <coordinates>139.098,34.971,0</coordinates>
      </Point>
    </Placemark>

    <Placemark>
      <name>Day 10: 下田</name>
      <description>Day 10 目的地</description>
      <Point>
        <coordinates>138.945,34.679,0</coordinates>
      </Point>
    </Placemark>

    <Placemark>
      <name>Day 11: 伊豆</name>
      <description>Day 11 目的地</description>
      <Point>
        <coordinates>138.932,34.976,0</coordinates>
      </Point>
    </Placemark>

    <Placemark>
      <name>Day 12: 沼津</name>
      <description>Day 12 目的地</description>
      <Point>
        <coordinates>138.859,35.101,0</coordinates>
      </Point>
    </Placemark>

    <Placemark>
      <name>Day 13: 富士</name>
      <description>Day 13 目的地</description>
      <Point>
        <coordinates>138.676,35.161,0</coordinates>
      </Point>
    </Placemark>

    <Placemark>
      <name>Day 14: 靜岡</name>
      <description>Day 14 目的地</description>
      <Point>
        <coordinates>138.382,34.975,0</coordinates>
      </Point>
    </Placemark>

    <Placemark>
      <name>Day 15: 鎌倉</name>
      <description>Day 15 目的地</description>
      <Point>
        <coordinates>139.55,35.319,0</coordinates>
      </Point>
    </Placemark>

    <Placemark>
      <name>Day 16: 橫濱</name>
      <description>Day 16 目的地</description>
      <Point>
        <coordinates>139.638,35.443,0</coordinates>
      </Point>
    </Placemark>

    <Placemark>
      <name>Day 17: 東京</name>
      <description>Day 17 目的地</description>
      <Point>
        <coordinates>139.691,35.689,0</coordinates>
      </Point>
    </Placemark>

    <Placemark>
      <name>Day 19: 成田</name>
      <description>Day 19 目的地</description>
      <Point>
        <coordinates>140.318,35.776,0</coordinates>
      </Point>
    </Placemark>

  </Document>
</kml>
