<?xml version="1.0" encoding="UTF-8"?>
<gpx version="1.1" creator="TokyoCycling2026" xmlns="http://www.topografix.com/GPX/1/1">
  <metadata>
    <name>Day 18: 金秋篇：淺草 ➔ 東大本鄉銀杏 ➔ 皇居 ➔ 明治神宮外苑銀杏大道 ➔ 秋葉原</name>
    <desc>23.7 km | +49m / -46m</desc>
  </metadata>
  <trk>
    <name>Day 18: 金秋篇：淺草 ➔ 東大本鄉銀杏 ➔ 皇居 ➔ 明治神宮外苑銀杏大道 ➔ 秋葉原</name>
    <trkseg>
      <trkpt lat="35.713008" lon="139.797949"></trkpt>
      <trkpt lat="35.712789" lon="139.797895"></trkpt>
      <trkpt lat="35.712731" lon="139.797886"></trkpt>
      <trkpt lat="35.712668" lon="139.797878"></trkpt>
      <trkpt lat="35.712595" lon="139.797873"></trkpt>
      <trkpt lat="35.712306" lon="139.797857"></trkpt>
      <trkpt lat="35.711821" lon="139.797841"></trkpt>
      <trkpt lat="35.711724" lon="139.797833"></trkpt>
      <trkpt lat="35.711679" lon="139.79783"></trkpt>
      <trkpt lat="35.711207" lon="139.797794"></trkpt>
      <trkpt lat="35.711121" lon="139.797788"></trkpt>
      <trkpt lat="35.710872" lon="139.797768"></trkpt>
      <trkpt lat="35.7107" lon="139.797744"></trkpt>
      <trkpt lat="35.710542" lon="139.797646"></trkpt>
      <trkpt lat="35.709901" lon="139.797205"></trkpt>
      <trkpt lat="35.709754" lon="139.797102"></trkpt>
      <trkpt lat="35.709672" lon="139.79704"></trkpt>
      <trkpt lat="35.709617" lon="139.796999"></trkpt>
      <trkpt lat="35.709555" lon="139.796953"></trkpt>
      <trkpt lat="35.709381" lon="139.796804"></trkpt>
      <trkpt lat="35.709008" lon="139.796444"></trkpt>
      <trkpt lat="35.708962" lon="139.796402"></trkpt>
      <trkpt lat="35.708826" lon="139.796254"></trkpt>
      <trkpt lat="35.708788" lon="139.79622"></trkpt>
      <trkpt lat="35.708772" lon="139.796206"></trkpt>
      <trkpt lat="35.70878" lon="139.796132"></trkpt>
      <trkpt lat="35.708786" lon="139.796078"></trkpt>
      <trkpt lat="35.708796" lon="139.795981"></trkpt>
      <trkpt lat="35.708806" lon="139.795868"></trkpt>
      <trkpt lat="35.708811" lon="139.79582"></trkpt>
      <trkpt lat="35.708903" lon="139.7952"></trkpt>
      <trkpt lat="35.708949" lon="139.794886"></trkpt>
      <trkpt lat="35.709011" lon="139.794467"></trkpt>
      <trkpt lat="35.709019" lon="139.794412"></trkpt>
      <trkpt lat="35.709036" lon="139.794302"></trkpt>
      <trkpt lat="35.709057" lon="139.794156"></trkpt>
      <trkpt lat="35.709174" lon="139.793481"></trkpt>
      <trkpt lat="35.709244" lon="139.793134"></trkpt>
      <trkpt lat="35.709295" lon="139.792888"></trkpt>
      <trkpt lat="35.709313" lon="139.792799"></trkpt>
      <trkpt lat="35.709406" lon="139.792379"></trkpt>
      <trkpt lat="35.709437" lon="139.792238"></trkpt>
      <trkpt lat="35.709584" lon="139.791584"></trkpt>
      <trkpt lat="35.709609" lon="139.79147"></trkpt>
      <trkpt lat="35.709625" lon="139.791397"></trkpt>
      <trkpt lat="35.70964" lon="139.791333"></trkpt>
      <trkpt lat="35.709668" lon="139.79119"></trkpt>
      <trkpt lat="35.709816" lon="139.790459"></trkpt>
      <trkpt lat="35.709953" lon="139.789802"></trkpt>
      <trkpt lat="35.709972" lon="139.78971"></trkpt>
      <trkpt lat="35.70999" lon="139.789622"></trkpt>
      <trkpt lat="35.710104" lon="139.789041"></trkpt>
      <trkpt lat="35.710226" lon="139.788412"></trkpt>
      <trkpt lat="35.710262" lon="139.788223"></trkpt>
      <trkpt lat="35.710288" lon="139.788093"></trkpt>
      <trkpt lat="35.710349" lon="139.787764"></trkpt>
      <trkpt lat="35.710457" lon="139.787185"></trkpt>
      <trkpt lat="35.710498" lon="139.786971"></trkpt>
      <trkpt lat="35.710518" lon="139.786867"></trkpt>
      <trkpt lat="35.710544" lon="139.786724"></trkpt>
      <trkpt lat="35.710618" lon="139.786299"></trkpt>
      <trkpt lat="35.710805" lon="139.785224"></trkpt>
      <trkpt lat="35.71083" lon="139.78507"></trkpt>
      <trkpt lat="35.710874" lon="139.784842"></trkpt>
      <trkpt lat="35.711031" lon="139.783924"></trkpt>
      <trkpt lat="35.711167" lon="139.783167"></trkpt>
      <trkpt lat="35.711185" lon="139.783062"></trkpt>
      <trkpt lat="35.711204" lon="139.782965"></trkpt>
      <trkpt lat="35.711231" lon="139.782825"></trkpt>
      <trkpt lat="35.711383" lon="139.782037"></trkpt>
      <trkpt lat="35.711459" lon="139.781592"></trkpt>
      <trkpt lat="35.711477" lon="139.781484"></trkpt>
      <trkpt lat="35.711501" lon="139.781359"></trkpt>
      <trkpt lat="35.71162" lon="139.780759"></trkpt>
      <trkpt lat="35.711639" lon="139.780652"></trkpt>
      <trkpt lat="35.711658" lon="139.780547"></trkpt>
      <trkpt lat="35.711741" lon="139.780098"></trkpt>
      <trkpt lat="35.711889" lon="139.779247"></trkpt>
      <trkpt lat="35.711901" lon="139.779171"></trkpt>
      <trkpt lat="35.711955" lon="139.778845"></trkpt>
      <trkpt lat="35.712022" lon="139.778455"></trkpt>
      <trkpt lat="35.712046" lon="139.778318"></trkpt>
      <trkpt lat="35.712062" lon="139.778238"></trkpt>
      <trkpt lat="35.712071" lon="139.778171"></trkpt>
      <trkpt lat="35.712065" lon="139.7781"></trkpt>
      <trkpt lat="35.712049" lon="139.778042"></trkpt>
      <trkpt lat="35.712008" lon="139.777958"></trkpt>
      <trkpt lat="35.711602" lon="139.777397"></trkpt>
      <trkpt lat="35.711471" lon="139.777215"></trkpt>
      <trkpt lat="35.711313" lon="139.777024"></trkpt>
      <trkpt lat="35.711229" lon="139.776933"></trkpt>
      <trkpt lat="35.71114" lon="139.776854"></trkpt>
      <trkpt lat="35.711072" lon="139.776813"></trkpt>
      <trkpt lat="35.710943" lon="139.776775"></trkpt>
      <trkpt lat="35.710814" lon="139.776747"></trkpt>
      <trkpt lat="35.710672" lon="139.776725"></trkpt>
      <trkpt lat="35.709926" lon="139.776651"></trkpt>
      <trkpt lat="35.709794" lon="139.77664"></trkpt>
      <trkpt lat="35.70934" lon="139.776597"></trkpt>
      <trkpt lat="35.709253" lon="139.776592"></trkpt>
      <trkpt lat="35.708905" lon="139.776559"></trkpt>
      <trkpt lat="35.70869" lon="139.776539"></trkpt>
      <trkpt lat="35.708655" lon="139.776536"></trkpt>
      <trkpt lat="35.708375" lon="139.77651"></trkpt>
      <trkpt lat="35.707775" lon="139.776456"></trkpt>
      <trkpt lat="35.707638" lon="139.776444"></trkpt>
      <trkpt lat="35.707669" lon="139.776159"></trkpt>
      <trkpt lat="35.707681" lon="139.776035"></trkpt>
      <trkpt lat="35.707712" lon="139.775719"></trkpt>
      <trkpt lat="35.707752" lon="139.775362"></trkpt>
      <trkpt lat="35.707768" lon="139.775195"></trkpt>
      <trkpt lat="35.707776" lon="139.775112"></trkpt>
      <trkpt lat="35.707782" lon="139.775048"></trkpt>
      <trkpt lat="35.707822" lon="139.774637"></trkpt>
      <trkpt lat="35.707825" lon="139.774598"></trkpt>
      <trkpt lat="35.707837" lon="139.77449"></trkpt>
      <trkpt lat="35.707866" lon="139.774176"></trkpt>
      <trkpt lat="35.707871" lon="139.774122"></trkpt>
      <trkpt lat="35.707902" lon="139.773831"></trkpt>
      <trkpt lat="35.70791" lon="139.773751"></trkpt>
      <trkpt lat="35.707965" lon="139.773267"></trkpt>
      <trkpt lat="35.707981" lon="139.773147"></trkpt>
      <trkpt lat="35.707995" lon="139.773034"></trkpt>
      <trkpt lat="35.708012" lon="139.772874"></trkpt>
      <trkpt lat="35.708061" lon="139.772432"></trkpt>
      <trkpt lat="35.708089" lon="139.772133"></trkpt>
      <trkpt lat="35.708135" lon="139.771658"></trkpt>
      <trkpt lat="35.708143" lon="139.77156"></trkpt>
      <trkpt lat="35.708163" lon="139.771293"></trkpt>
      <trkpt lat="35.708174" lon="139.771158"></trkpt>
      <trkpt lat="35.708199" lon="139.770845"></trkpt>
      <trkpt lat="35.708203" lon="139.770788"></trkpt>
      <trkpt lat="35.708208" lon="139.770722"></trkpt>
      <trkpt lat="35.70823" lon="139.770431"></trkpt>
      <trkpt lat="35.708234" lon="139.770374"></trkpt>
      <trkpt lat="35.708251" lon="139.77012"></trkpt>
      <trkpt lat="35.708264" lon="139.769906"></trkpt>
      <trkpt lat="35.708247" lon="139.769706"></trkpt>
      <trkpt lat="35.70826" lon="139.769454"></trkpt>
      <trkpt lat="35.708263" lon="139.769377"></trkpt>
      <trkpt lat="35.708275" lon="139.769229"></trkpt>
      <trkpt lat="35.708278" lon="139.769155"></trkpt>
      <trkpt lat="35.708279" lon="139.769043"></trkpt>
      <trkpt lat="35.708272" lon="139.768544"></trkpt>
      <trkpt lat="35.708271" lon="139.768484"></trkpt>
      <trkpt lat="35.708251" lon="139.768353"></trkpt>
      <trkpt lat="35.70823" lon="139.768262"></trkpt>
      <trkpt lat="35.708202" lon="139.768168"></trkpt>
      <trkpt lat="35.70816" lon="139.768068"></trkpt>
      <trkpt lat="35.708106" lon="139.767964"></trkpt>
      <trkpt lat="35.707802" lon="139.76737"></trkpt>
      <trkpt lat="35.707803" lon="139.767289"></trkpt>
      <trkpt lat="35.707791" lon="139.767266"></trkpt>
      <trkpt lat="35.707706" lon="139.767101"></trkpt>
      <trkpt lat="35.707685" lon="139.76706"></trkpt>
      <trkpt lat="35.707666" lon="139.767023"></trkpt>
      <trkpt lat="35.70764" lon="139.766972"></trkpt>
      <trkpt lat="35.707601" lon="139.766898"></trkpt>
      <trkpt lat="35.70758" lon="139.766853"></trkpt>
      <trkpt lat="35.707557" lon="139.766808"></trkpt>
      <trkpt lat="35.707533" lon="139.766747"></trkpt>
      <trkpt lat="35.707499" lon="139.766641"></trkpt>
      <trkpt lat="35.707345" lon="139.765984"></trkpt>
      <trkpt lat="35.707332" lon="139.765913"></trkpt>
      <trkpt lat="35.707328" lon="139.765835"></trkpt>
      <trkpt lat="35.707332" lon="139.765748"></trkpt>
      <trkpt lat="35.707359" lon="139.765497"></trkpt>
      <trkpt lat="35.707391" lon="139.765138"></trkpt>
      <trkpt lat="35.707402" lon="139.765039"></trkpt>
      <trkpt lat="35.707411" lon="139.764949"></trkpt>
      <trkpt lat="35.707417" lon="139.76488"></trkpt>
      <trkpt lat="35.707429" lon="139.764755"></trkpt>
      <trkpt lat="35.707491" lon="139.764103"></trkpt>
      <trkpt lat="35.707507" lon="139.76391"></trkpt>
      <trkpt lat="35.707514" lon="139.763749"></trkpt>
      <trkpt lat="35.707625" lon="139.763748"></trkpt>
      <trkpt lat="35.708202" lon="139.763731"></trkpt>
      <trkpt lat="35.708311" lon="139.763729"></trkpt>
      <trkpt lat="35.708748" lon="139.763725"></trkpt>
      <trkpt lat="35.708796" lon="139.763725"></trkpt>
      <trkpt lat="35.708839" lon="139.763725"></trkpt>
      <trkpt lat="35.708861" lon="139.763726"></trkpt>
      <trkpt lat="35.708882" lon="139.763731"></trkpt>
      <trkpt lat="35.708914" lon="139.76374"></trkpt>
      <trkpt lat="35.709238" lon="139.76385"></trkpt>
      <trkpt lat="35.709272" lon="139.763858"></trkpt>
      <trkpt lat="35.709408" lon="139.76388"></trkpt>
      <trkpt lat="35.709518" lon="139.763891"></trkpt>
      <trkpt lat="35.709584" lon="139.763894"></trkpt>
      <trkpt lat="35.710371" lon="139.763938"></trkpt>
      <trkpt lat="35.710519" lon="139.763941"></trkpt>
      <trkpt lat="35.710519" lon="139.763827"></trkpt>
      <trkpt lat="35.710518" lon="139.763779"></trkpt>
      <trkpt lat="35.71049" lon="139.763736"></trkpt>
      <trkpt lat="35.710489" lon="139.763696"></trkpt>
      <trkpt lat="35.710472" lon="139.763325"></trkpt>
      <trkpt lat="35.710445" lon="139.763212"></trkpt>
      <trkpt lat="35.710434" lon="139.763048"></trkpt>
      <trkpt lat="35.71043" lon="139.762998"></trkpt>
      <trkpt lat="35.710427" lon="139.762947"></trkpt>
      <trkpt lat="35.710423" lon="139.762891"></trkpt>
      <trkpt lat="35.710395" lon="139.762479"></trkpt>
      <trkpt lat="35.710387" lon="139.762364"></trkpt>
      <trkpt lat="35.710347" lon="139.762139"></trkpt>
      <trkpt lat="35.710276" lon="139.761737"></trkpt>
      <trkpt lat="35.710471" lon="139.761685"></trkpt>
      <trkpt lat="35.710801" lon="139.761598"></trkpt>
      <trkpt lat="35.710888" lon="139.761575"></trkpt>
      <trkpt lat="35.71113" lon="139.761508"></trkpt>
      <trkpt lat="35.711697" lon="139.761352"></trkpt>
      <trkpt lat="35.712072" lon="139.761249"></trkpt>
      <trkpt lat="35.711874" lon="139.761303"></trkpt>
      <trkpt lat="35.711697" lon="139.761352"></trkpt>
      <trkpt lat="35.71113" lon="139.761508"></trkpt>
      <trkpt lat="35.710888" lon="139.761575"></trkpt>
      <trkpt lat="35.710801" lon="139.761598"></trkpt>
      <trkpt lat="35.710471" lon="139.761685"></trkpt>
      <trkpt lat="35.710485" lon="139.762024"></trkpt>
      <trkpt lat="35.710488" lon="139.762099"></trkpt>
      <trkpt lat="35.710503" lon="139.76247"></trkpt>
      <trkpt lat="35.710518" lon="139.76284"></trkpt>
      <trkpt lat="35.71052" lon="139.762881"></trkpt>
      <trkpt lat="35.710522" lon="139.762931"></trkpt>
      <trkpt lat="35.710525" lon="139.762991"></trkpt>
      <trkpt lat="35.710532" lon="139.763179"></trkpt>
      <trkpt lat="35.710522" lon="139.763361"></trkpt>
      <trkpt lat="35.71054" lon="139.763694"></trkpt>
      <trkpt lat="35.710542" lon="139.763732"></trkpt>
      <trkpt lat="35.710518" lon="139.763779"></trkpt>
      <trkpt lat="35.710519" lon="139.763827"></trkpt>
      <trkpt lat="35.710519" lon="139.763941"></trkpt>
      <trkpt lat="35.710371" lon="139.763938"></trkpt>
      <trkpt lat="35.709584" lon="139.763894"></trkpt>
      <trkpt lat="35.709518" lon="139.763891"></trkpt>
      <trkpt lat="35.709408" lon="139.76388"></trkpt>
      <trkpt lat="35.709272" lon="139.763858"></trkpt>
      <trkpt lat="35.709238" lon="139.76385"></trkpt>
      <trkpt lat="35.708914" lon="139.76374"></trkpt>
      <trkpt lat="35.708882" lon="139.763731"></trkpt>
      <trkpt lat="35.708861" lon="139.763726"></trkpt>
      <trkpt lat="35.708839" lon="139.763725"></trkpt>
      <trkpt lat="35.708796" lon="139.763725"></trkpt>
      <trkpt lat="35.708748" lon="139.763725"></trkpt>
      <trkpt lat="35.708311" lon="139.763729"></trkpt>
      <trkpt lat="35.708202" lon="139.763731"></trkpt>
      <trkpt lat="35.707625" lon="139.763748"></trkpt>
      <trkpt lat="35.707514" lon="139.763749"></trkpt>
      <trkpt lat="35.707516" lon="139.763577"></trkpt>
      <trkpt lat="35.707524" lon="139.763075"></trkpt>
      <trkpt lat="35.707432" lon="139.763052"></trkpt>
      <trkpt lat="35.706652" lon="139.76275"></trkpt>
      <trkpt lat="35.706599" lon="139.762729"></trkpt>
      <trkpt lat="35.705935" lon="139.762484"></trkpt>
      <trkpt lat="35.705859" lon="139.762456"></trkpt>
      <trkpt lat="35.705778" lon="139.762428"></trkpt>
      <trkpt lat="35.705413" lon="139.762301"></trkpt>
      <trkpt lat="35.705001" lon="139.762151"></trkpt>
      <trkpt lat="35.704952" lon="139.762133"></trkpt>
      <trkpt lat="35.704903" lon="139.762115"></trkpt>
      <trkpt lat="35.704635" lon="139.762005"></trkpt>
      <trkpt lat="35.704473" lon="139.761942"></trkpt>
      <trkpt lat="35.704424" lon="139.761919"></trkpt>
      <trkpt lat="35.704294" lon="139.761872"></trkpt>
      <trkpt lat="35.704179" lon="139.762029"></trkpt>
      <trkpt lat="35.703777" lon="139.762622"></trkpt>
      <trkpt lat="35.703326" lon="139.763295"></trkpt>
      <trkpt lat="35.703277" lon="139.763344"></trkpt>
      <trkpt lat="35.703113" lon="139.763579"></trkpt>
      <trkpt lat="35.703027" lon="139.76371"></trkpt>
      <trkpt lat="35.702705" lon="139.764218"></trkpt>
      <trkpt lat="35.702594" lon="139.764391"></trkpt>
      <trkpt lat="35.702358" lon="139.764757"></trkpt>
      <trkpt lat="35.702275" lon="139.764886"></trkpt>
      <trkpt lat="35.702245" lon="139.764932"></trkpt>
      <trkpt lat="35.702215" lon="139.764978"></trkpt>
      <trkpt lat="35.701831" lon="139.765576"></trkpt>
      <trkpt lat="35.701631" lon="139.765894"></trkpt>
      <trkpt lat="35.701602" lon="139.765941"></trkpt>
      <trkpt lat="35.701473" lon="139.766095"></trkpt>
      <trkpt lat="35.701373" lon="139.766106"></trkpt>
      <trkpt lat="35.701277" lon="139.766089"></trkpt>
      <trkpt lat="35.700253" lon="139.765629"></trkpt>
      <trkpt lat="35.700217" lon="139.765618"></trkpt>
      <trkpt lat="35.700175" lon="139.765613"></trkpt>
      <trkpt lat="35.699297" lon="139.76555"></trkpt>
      <trkpt lat="35.699276" lon="139.765552"></trkpt>
      <trkpt lat="35.699254" lon="139.765558"></trkpt>
      <trkpt lat="35.699211" lon="139.765575"></trkpt>
      <trkpt lat="35.699113" lon="139.765613"></trkpt>
      <trkpt lat="35.698247" lon="139.765939"></trkpt>
      <trkpt lat="35.698076" lon="139.766005"></trkpt>
      <trkpt lat="35.698024" lon="139.766013"></trkpt>
      <trkpt lat="35.697967" lon="139.766006"></trkpt>
      <trkpt lat="35.697937" lon="139.765996"></trkpt>
      <trkpt lat="35.697897" lon="139.765978"></trkpt>
      <trkpt lat="35.69748" lon="139.765772"></trkpt>
      <trkpt lat="35.697416" lon="139.76574"></trkpt>
      <trkpt lat="35.696758" lon="139.765405"></trkpt>
      <trkpt lat="35.69669" lon="139.765371"></trkpt>
      <trkpt lat="35.696632" lon="139.765343"></trkpt>
      <trkpt lat="35.696219" lon="139.765144"></trkpt>
      <trkpt lat="35.696196" lon="139.765133"></trkpt>
      <trkpt lat="35.696103" lon="139.765085"></trkpt>
      <trkpt lat="35.696024" lon="139.765077"></trkpt>
      <trkpt lat="35.695978" lon="139.765085"></trkpt>
      <trkpt lat="35.695965" lon="139.765087"></trkpt>
      <trkpt lat="35.695639" lon="139.765146"></trkpt>
      <trkpt lat="35.695056" lon="139.765247"></trkpt>
      <trkpt lat="35.694843" lon="139.765289"></trkpt>
      <trkpt lat="35.694774" lon="139.765303"></trkpt>
      <trkpt lat="35.694643" lon="139.765334"></trkpt>
      <trkpt lat="35.694538" lon="139.765358"></trkpt>
      <trkpt lat="35.694433" lon="139.765379"></trkpt>
      <trkpt lat="35.694362" lon="139.765383"></trkpt>
      <trkpt lat="35.694121" lon="139.765334"></trkpt>
      <trkpt lat="35.694041" lon="139.765319"></trkpt>
      <trkpt lat="35.693829" lon="139.765277"></trkpt>
      <trkpt lat="35.693682" lon="139.765244"></trkpt>
      <trkpt lat="35.693572" lon="139.76522"></trkpt>
      <trkpt lat="35.69347" lon="139.765198"></trkpt>
      <trkpt lat="35.69329" lon="139.765159"></trkpt>
      <trkpt lat="35.693023" lon="139.765114"></trkpt>
      <trkpt lat="35.692584" lon="139.76502"></trkpt>
      <trkpt lat="35.692447" lon="139.764991"></trkpt>
      <trkpt lat="35.692305" lon="139.764957"></trkpt>
      <trkpt lat="35.691643" lon="139.764802"></trkpt>
      <trkpt lat="35.691587" lon="139.764791"></trkpt>
      <trkpt lat="35.690994" lon="139.764675"></trkpt>
      <trkpt lat="35.69091" lon="139.764658"></trkpt>
      <trkpt lat="35.690799" lon="139.764638"></trkpt>
      <trkpt lat="35.690195" lon="139.764529"></trkpt>
      <trkpt lat="35.690074" lon="139.764509"></trkpt>
      <trkpt lat="35.689915" lon="139.764476"></trkpt>
      <trkpt lat="35.689673" lon="139.764425"></trkpt>
      <trkpt lat="35.689495" lon="139.764378"></trkpt>
      <trkpt lat="35.689166" lon="139.764291"></trkpt>
      <trkpt lat="35.689021" lon="139.764253"></trkpt>
      <trkpt lat="35.688779" lon="139.764189"></trkpt>
      <trkpt lat="35.688385" lon="139.764086"></trkpt>
      <trkpt lat="35.688311" lon="139.764067"></trkpt>
      <trkpt lat="35.688197" lon="139.764037"></trkpt>
      <trkpt lat="35.688131" lon="139.764019"></trkpt>
      <trkpt lat="35.687555" lon="139.763883"></trkpt>
      <trkpt lat="35.687068" lon="139.763759"></trkpt>
      <trkpt lat="35.68703" lon="139.763749"></trkpt>
      <trkpt lat="35.68694" lon="139.763726"></trkpt>
      <trkpt lat="35.68688" lon="139.763709"></trkpt>
      <trkpt lat="35.686794" lon="139.763682"></trkpt>
      <trkpt lat="35.686384" lon="139.763556"></trkpt>
      <trkpt lat="35.686259" lon="139.763517"></trkpt>
      <trkpt lat="35.685534" lon="139.763294"></trkpt>
      <trkpt lat="35.685494" lon="139.763282"></trkpt>
      <trkpt lat="35.68534" lon="139.763233"></trkpt>
      <trkpt lat="35.685231" lon="139.763203"></trkpt>
      <trkpt lat="35.685111" lon="139.763171"></trkpt>
      <trkpt lat="35.683699" lon="139.762766"></trkpt>
      <trkpt lat="35.683657" lon="139.762754"></trkpt>
      <trkpt lat="35.683527" lon="139.762714"></trkpt>
      <trkpt lat="35.683395" lon="139.762674"></trkpt>
      <trkpt lat="35.68262" lon="139.762423"></trkpt>
      <trkpt lat="35.682565" lon="139.762405"></trkpt>
      <trkpt lat="35.682392" lon="139.762351"></trkpt>
      <trkpt lat="35.682" lon="139.762223"></trkpt>
      <trkpt lat="35.682032" lon="139.762082"></trkpt>
      <trkpt lat="35.682075" lon="139.761899"></trkpt>
      <trkpt lat="35.682517" lon="139.759927"></trkpt>
      <trkpt lat="35.682535" lon="139.759845"></trkpt>
      <trkpt lat="35.682566" lon="139.759709"></trkpt>
      <trkpt lat="35.682657" lon="139.759658"></trkpt>
      <trkpt lat="35.68271" lon="139.759656"></trkpt>
      <trkpt lat="35.682747" lon="139.759655"></trkpt>
      <trkpt lat="35.682888" lon="139.759751"></trkpt>
      <trkpt lat="35.683138" lon="139.759906"></trkpt>
      <trkpt lat="35.683184" lon="139.759926"></trkpt>
      <trkpt lat="35.683238" lon="139.759947"></trkpt>
      <trkpt lat="35.683821" lon="139.760149"></trkpt>
      <trkpt lat="35.684561" lon="139.760406"></trkpt>
      <trkpt lat="35.684651" lon="139.760443"></trkpt>
      <trkpt lat="35.684727" lon="139.760479"></trkpt>
      <trkpt lat="35.684826" lon="139.76054"></trkpt>
      <trkpt lat="35.685207" lon="139.760832"></trkpt>
      <trkpt lat="35.685331" lon="139.760936"></trkpt>
      <trkpt lat="35.685506" lon="139.761047"></trkpt>
      <trkpt lat="35.685563" lon="139.761078"></trkpt>
      <trkpt lat="35.685656" lon="139.761109"></trkpt>
      <trkpt lat="35.68577" lon="139.761145"></trkpt>
      <trkpt lat="35.685735" lon="139.761315"></trkpt>
      <trkpt lat="35.685621" lon="139.761283"></trkpt>
      <trkpt lat="35.68554" lon="139.76125"></trkpt>
      <trkpt lat="35.685523" lon="139.761242"></trkpt>
      <trkpt lat="35.685424" lon="139.761177"></trkpt>
      <trkpt lat="35.685302" lon="139.761091"></trkpt>
      <trkpt lat="35.685276" lon="139.761073"></trkpt>
      <trkpt lat="35.684893" lon="139.76076"></trkpt>
      <trkpt lat="35.684888" lon="139.760756"></trkpt>
      <trkpt lat="35.684705" lon="139.760623"></trkpt>
      <trkpt lat="35.684588" lon="139.760568"></trkpt>
      <trkpt lat="35.684211" lon="139.760437"></trkpt>
      <trkpt lat="35.683584" lon="139.760223"></trkpt>
      <trkpt lat="35.683203" lon="139.760087"></trkpt>
      <trkpt lat="35.683141" lon="139.760061"></trkpt>
      <trkpt lat="35.683011" lon="139.760007"></trkpt>
      <trkpt lat="35.682934" lon="139.759963"></trkpt>
      <trkpt lat="35.682566" lon="139.759709"></trkpt>
      <trkpt lat="35.682442" lon="139.759627"></trkpt>
      <trkpt lat="35.681939" lon="139.759295"></trkpt>
      <trkpt lat="35.681625" lon="139.759088"></trkpt>
      <trkpt lat="35.679629" lon="139.757805"></trkpt>
      <trkpt lat="35.679531" lon="139.757742"></trkpt>
      <trkpt lat="35.679432" lon="139.75768"></trkpt>
      <trkpt lat="35.679218" lon="139.757542"></trkpt>
      <trkpt lat="35.678176" lon="139.756874"></trkpt>
      <trkpt lat="35.677858" lon="139.75668"></trkpt>
      <trkpt lat="35.677764" lon="139.75662"></trkpt>
      <trkpt lat="35.677606" lon="139.756518"></trkpt>
      <trkpt lat="35.677341" lon="139.756351"></trkpt>
      <trkpt lat="35.676986" lon="139.756125"></trkpt>
      <trkpt lat="35.676919" lon="139.756088"></trkpt>
      <trkpt lat="35.676906" lon="139.756081"></trkpt>
      <trkpt lat="35.676882" lon="139.756068"></trkpt>
      <trkpt lat="35.676755" lon="139.755993"></trkpt>
      <trkpt lat="35.676677" lon="139.755951"></trkpt>
      <trkpt lat="35.676618" lon="139.755918"></trkpt>
      <trkpt lat="35.676636" lon="139.755874"></trkpt>
      <trkpt lat="35.676666" lon="139.755803"></trkpt>
      <trkpt lat="35.676942" lon="139.755197"></trkpt>
      <trkpt lat="35.677413" lon="139.754087"></trkpt>
      <trkpt lat="35.677547" lon="139.753739"></trkpt>
      <trkpt lat="35.677621" lon="139.753547"></trkpt>
      <trkpt lat="35.67768" lon="139.753376"></trkpt>
      <trkpt lat="35.677697" lon="139.753252"></trkpt>
      <trkpt lat="35.677697" lon="139.753137"></trkpt>
      <trkpt lat="35.677684" lon="139.753061"></trkpt>
      <trkpt lat="35.677671" lon="139.752989"></trkpt>
      <trkpt lat="35.677564" lon="139.752635"></trkpt>
      <trkpt lat="35.677415" lon="139.752162"></trkpt>
      <trkpt lat="35.677262" lon="139.751623"></trkpt>
      <trkpt lat="35.677187" lon="139.751287"></trkpt>
      <trkpt lat="35.677116" lon="139.750935"></trkpt>
      <trkpt lat="35.677082" lon="139.750624"></trkpt>
      <trkpt lat="35.677066" lon="139.75009"></trkpt>
      <trkpt lat="35.677066" lon="139.749794"></trkpt>
      <trkpt lat="35.677067" lon="139.749673"></trkpt>
      <trkpt lat="35.677074" lon="139.749563"></trkpt>
      <trkpt lat="35.677076" lon="139.74954"></trkpt>
      <trkpt lat="35.677083" lon="139.749499"></trkpt>
      <trkpt lat="35.677094" lon="139.749466"></trkpt>
      <trkpt lat="35.677107" lon="139.749433"></trkpt>
      <trkpt lat="35.677128" lon="139.749404"></trkpt>
      <trkpt lat="35.677346" lon="139.749093"></trkpt>
      <trkpt lat="35.677843" lon="139.748608"></trkpt>
      <trkpt lat="35.678237" lon="139.748272"></trkpt>
      <trkpt lat="35.678509" lon="139.748063"></trkpt>
      <trkpt lat="35.678659" lon="139.747924"></trkpt>
      <trkpt lat="35.678956" lon="139.747617"></trkpt>
      <trkpt lat="35.67905" lon="139.747513"></trkpt>
      <trkpt lat="35.679188" lon="139.747352"></trkpt>
      <trkpt lat="35.67925" lon="139.747261"></trkpt>
      <trkpt lat="35.679299" lon="139.74718"></trkpt>
      <trkpt lat="35.679341" lon="139.747095"></trkpt>
      <trkpt lat="35.679388" lon="139.746979"></trkpt>
      <trkpt lat="35.679432" lon="139.74686"></trkpt>
      <trkpt lat="35.679574" lon="139.746414"></trkpt>
      <trkpt lat="35.679616" lon="139.746261"></trkpt>
      <trkpt lat="35.67963" lon="139.746196"></trkpt>
      <trkpt lat="35.679643" lon="139.746112"></trkpt>
      <trkpt lat="35.67965" lon="139.746044"></trkpt>
      <trkpt lat="35.679657" lon="139.745985"></trkpt>
      <trkpt lat="35.679694" lon="139.745668"></trkpt>
      <trkpt lat="35.679699" lon="139.745599"></trkpt>
      <trkpt lat="35.679699" lon="139.745527"></trkpt>
      <trkpt lat="35.679694" lon="139.745438"></trkpt>
      <trkpt lat="35.679686" lon="139.745352"></trkpt>
      <trkpt lat="35.679674" lon="139.745265"></trkpt>
      <trkpt lat="35.679654" lon="139.745154"></trkpt>
      <trkpt lat="35.679618" lon="139.744975"></trkpt>
      <trkpt lat="35.679316" lon="139.743385"></trkpt>
      <trkpt lat="35.679301" lon="139.743304"></trkpt>
      <trkpt lat="35.679271" lon="139.743147"></trkpt>
      <trkpt lat="35.679221" lon="139.742869"></trkpt>
      <trkpt lat="35.678822" lon="139.740738"></trkpt>
      <trkpt lat="35.678807" lon="139.740657"></trkpt>
      <trkpt lat="35.678749" lon="139.740347"></trkpt>
      <trkpt lat="35.678718" lon="139.740188"></trkpt>
      <trkpt lat="35.678696" lon="139.740065"></trkpt>
      <trkpt lat="35.67859" lon="139.73919"></trkpt>
      <trkpt lat="35.678526" lon="139.738396"></trkpt>
      <trkpt lat="35.678527" lon="139.738033"></trkpt>
      <trkpt lat="35.678469" lon="139.737322"></trkpt>
      <trkpt lat="35.678455" lon="139.737205"></trkpt>
      <trkpt lat="35.678436" lon="139.737096"></trkpt>
      <trkpt lat="35.67841" lon="139.737002"></trkpt>
      <trkpt lat="35.678383" lon="139.736931"></trkpt>
      <trkpt lat="35.678348" lon="139.736858"></trkpt>
      <trkpt lat="35.678302" lon="139.736777"></trkpt>
      <trkpt lat="35.678241" lon="139.736688"></trkpt>
      <trkpt lat="35.677857" lon="139.736227"></trkpt>
      <trkpt lat="35.677735" lon="139.736056"></trkpt>
      <trkpt lat="35.677644" lon="139.735905"></trkpt>
      <trkpt lat="35.677248" lon="139.735202"></trkpt>
      <trkpt lat="35.676964" lon="139.734775"></trkpt>
      <trkpt lat="35.676556" lon="139.734104"></trkpt>
      <trkpt lat="35.675796" lon="139.732829"></trkpt>
      <trkpt lat="35.675747" lon="139.732744"></trkpt>
      <trkpt lat="35.675718" lon="139.732695"></trkpt>
      <trkpt lat="35.675531" lon="139.732409"></trkpt>
      <trkpt lat="35.675468" lon="139.732307"></trkpt>
      <trkpt lat="35.674983" lon="139.731491"></trkpt>
      <trkpt lat="35.674903" lon="139.731335"></trkpt>
      <trkpt lat="35.674803" lon="139.731118"></trkpt>
      <trkpt lat="35.674759" lon="139.730987"></trkpt>
      <trkpt lat="35.674727" lon="139.73088"></trkpt>
      <trkpt lat="35.674674" lon="139.730665"></trkpt>
      <trkpt lat="35.674527" lon="139.729894"></trkpt>
      <trkpt lat="35.674487" lon="139.729684"></trkpt>
      <trkpt lat="35.674446" lon="139.729503"></trkpt>
      <trkpt lat="35.674403" lon="139.729343"></trkpt>
      <trkpt lat="35.674358" lon="139.729203"></trkpt>
      <trkpt lat="35.674277" lon="139.72898"></trkpt>
      <trkpt lat="35.673822" lon="139.727724"></trkpt>
      <trkpt lat="35.673587" lon="139.726962"></trkpt>
      <trkpt lat="35.673224" lon="139.725784"></trkpt>
      <trkpt lat="35.673195" lon="139.725692"></trkpt>
      <trkpt lat="35.673178" lon="139.725638"></trkpt>
      <trkpt lat="35.672783" lon="139.72431"></trkpt>
      <trkpt lat="35.672727" lon="139.724119"></trkpt>
      <trkpt lat="35.672687" lon="139.724006"></trkpt>
      <trkpt lat="35.672621" lon="139.723813"></trkpt>
      <trkpt lat="35.672473" lon="139.723394"></trkpt>
      <trkpt lat="35.672427" lon="139.72326"></trkpt>
      <trkpt lat="35.672148" lon="139.722463"></trkpt>
      <trkpt lat="35.671877" lon="139.721669"></trkpt>
      <trkpt lat="35.671738" lon="139.721264"></trkpt>
      <trkpt lat="35.671676" lon="139.721084"></trkpt>
      <trkpt lat="35.671807" lon="139.721019"></trkpt>
      <trkpt lat="35.671894" lon="139.720976"></trkpt>
      <trkpt lat="35.672362" lon="139.720749"></trkpt>
      <trkpt lat="35.673268" lon="139.720308"></trkpt>
      <trkpt lat="35.674588" lon="139.719666"></trkpt>
      <trkpt lat="35.674989" lon="139.719471"></trkpt>
      <trkpt lat="35.675136" lon="139.7194"></trkpt>
      <trkpt lat="35.675087" lon="139.719213"></trkpt>
      <trkpt lat="35.675064" lon="139.719051"></trkpt>
      <trkpt lat="35.675061" lon="139.718857"></trkpt>
      <trkpt lat="35.675074" lon="139.718679"></trkpt>
      <trkpt lat="35.675112" lon="139.718495"></trkpt>
      <trkpt lat="35.675116" lon="139.71848"></trkpt>
      <trkpt lat="35.67516" lon="139.718326"></trkpt>
      <trkpt lat="35.675232" lon="139.718164"></trkpt>
      <trkpt lat="35.675331" lon="139.717991"></trkpt>
      <trkpt lat="35.675457" lon="139.717849"></trkpt>
      <trkpt lat="35.675608" lon="139.717718"></trkpt>
      <trkpt lat="35.676066" lon="139.717472"></trkpt>
      <trkpt lat="35.67622" lon="139.71739"></trkpt>
      <trkpt lat="35.676344" lon="139.717192"></trkpt>
      <trkpt lat="35.676412" lon="139.717084"></trkpt>
      <trkpt lat="35.676498" lon="139.716927"></trkpt>
      <trkpt lat="35.676555" lon="139.716793"></trkpt>
      <trkpt lat="35.67661" lon="139.716637"></trkpt>
      <trkpt lat="35.676643" lon="139.716509"></trkpt>
      <trkpt lat="35.676676" lon="139.716364"></trkpt>
      <trkpt lat="35.676696" lon="139.716195"></trkpt>
      <trkpt lat="35.676702" lon="139.716097"></trkpt>
      <trkpt lat="35.676704" lon="139.715952"></trkpt>
      <trkpt lat="35.6767" lon="139.715854"></trkpt>
      <trkpt lat="35.676682" lon="139.715773"></trkpt>
      <trkpt lat="35.676647" lon="139.715671"></trkpt>
      <trkpt lat="35.67657" lon="139.715519"></trkpt>
      <trkpt lat="35.676515" lon="139.715405"></trkpt>
      <trkpt lat="35.675654" lon="139.715234"></trkpt>
      <trkpt lat="35.675524" lon="139.715207"></trkpt>
      <trkpt lat="35.675416" lon="139.715262"></trkpt>
      <trkpt lat="35.675009" lon="139.715468"></trkpt>
      <trkpt lat="35.673596" lon="139.716184"></trkpt>
      <trkpt lat="35.673414" lon="139.716276"></trkpt>
      <trkpt lat="35.672492" lon="139.716767"></trkpt>
      <trkpt lat="35.672441" lon="139.716788"></trkpt>
      <trkpt lat="35.672181" lon="139.716878"></trkpt>
      <trkpt lat="35.671989" lon="139.716896"></trkpt>
      <trkpt lat="35.671809" lon="139.716896"></trkpt>
      <trkpt lat="35.671551" lon="139.716885"></trkpt>
      <trkpt lat="35.671131" lon="139.716854"></trkpt>
      <trkpt lat="35.671021" lon="139.716835"></trkpt>
      <trkpt lat="35.670809" lon="139.716807"></trkpt>
      <trkpt lat="35.670537" lon="139.716812"></trkpt>
      <trkpt lat="35.670353" lon="139.716834"></trkpt>
      <trkpt lat="35.670195" lon="139.716927"></trkpt>
      <trkpt lat="35.670227" lon="139.716999"></trkpt>
      <trkpt lat="35.67026" lon="139.717095"></trkpt>
      <trkpt lat="35.670272" lon="139.717129"></trkpt>
      <trkpt lat="35.670776" lon="139.718554"></trkpt>
      <trkpt lat="35.671005" lon="139.71908"></trkpt>
      <trkpt lat="35.671264" lon="139.719679"></trkpt>
      <trkpt lat="35.671308" lon="139.719781"></trkpt>
      <trkpt lat="35.671612" lon="139.720489"></trkpt>
      <trkpt lat="35.671743" lon="139.720845"></trkpt>
      <trkpt lat="35.671807" lon="139.721019"></trkpt>
      <trkpt lat="35.671873" lon="139.721201"></trkpt>
      <trkpt lat="35.67196" lon="139.721477"></trkpt>
      <trkpt lat="35.672232" lon="139.722264"></trkpt>
      <trkpt lat="35.672399" lon="139.722744"></trkpt>
      <trkpt lat="35.672747" lon="139.723759"></trkpt>
      <trkpt lat="35.672812" lon="139.723954"></trkpt>
      <trkpt lat="35.67285" lon="139.724065"></trkpt>
      <trkpt lat="35.672908" lon="139.724251"></trkpt>
      <trkpt lat="35.673282" lon="139.725463"></trkpt>
      <trkpt lat="35.673319" lon="139.72558"></trkpt>
      <trkpt lat="35.673334" lon="139.725635"></trkpt>
      <trkpt lat="35.673921" lon="139.727563"></trkpt>
      <trkpt lat="35.673965" lon="139.727696"></trkpt>
      <trkpt lat="35.674487" lon="139.729127"></trkpt>
      <trkpt lat="35.674524" lon="139.729245"></trkpt>
      <trkpt lat="35.67456" lon="139.7294"></trkpt>
      <trkpt lat="35.674723" lon="139.730217"></trkpt>
      <trkpt lat="35.67479" lon="139.730517"></trkpt>
      <trkpt lat="35.674874" lon="139.73082"></trkpt>
      <trkpt lat="35.674917" lon="139.730943"></trkpt>
      <trkpt lat="35.674964" lon="139.731069"></trkpt>
      <trkpt lat="35.675048" lon="139.731267"></trkpt>
      <trkpt lat="35.675139" lon="139.731447"></trkpt>
      <trkpt lat="35.675592" lon="139.732222"></trkpt>
      <trkpt lat="35.675713" lon="139.732417"></trkpt>
      <trkpt lat="35.675831" lon="139.732608"></trkpt>
      <trkpt lat="35.676404" lon="139.733563"></trkpt>
      <trkpt lat="35.677192" lon="139.73491"></trkpt>
      <trkpt lat="35.677421" lon="139.735376"></trkpt>
      <trkpt lat="35.677694" lon="139.73586"></trkpt>
      <trkpt lat="35.677781" lon="139.736003"></trkpt>
      <trkpt lat="35.677905" lon="139.736176"></trkpt>
      <trkpt lat="35.678288" lon="139.736632"></trkpt>
      <trkpt lat="35.678369" lon="139.736736"></trkpt>
      <trkpt lat="35.678417" lon="139.736804"></trkpt>
      <trkpt lat="35.678451" lon="139.736867"></trkpt>
      <trkpt lat="35.678486" lon="139.736947"></trkpt>
      <trkpt lat="35.678513" lon="139.737038"></trkpt>
      <trkpt lat="35.678535" lon="139.737149"></trkpt>
      <trkpt lat="35.678547" lon="139.737252"></trkpt>
      <trkpt lat="35.678597" lon="139.737889"></trkpt>
      <trkpt lat="35.678661" lon="139.73824"></trkpt>
      <trkpt lat="35.678689" lon="139.738552"></trkpt>
      <trkpt lat="35.678735" lon="139.73907"></trkpt>
      <trkpt lat="35.678801" lon="139.739589"></trkpt>
      <trkpt lat="35.678873" lon="139.740037"></trkpt>
      <trkpt lat="35.678889" lon="139.740124"></trkpt>
      <trkpt lat="35.678986" lon="139.740608"></trkpt>
      <trkpt lat="35.67936" lon="139.742671"></trkpt>
      <trkpt lat="35.679382" lon="139.742789"></trkpt>
      <trkpt lat="35.67943" lon="139.743042"></trkpt>
      <trkpt lat="35.679467" lon="139.743255"></trkpt>
      <trkpt lat="35.679756" lon="139.744928"></trkpt>
      <trkpt lat="35.679844" lon="139.74545"></trkpt>
      <trkpt lat="35.679854" lon="139.745518"></trkpt>
      <trkpt lat="35.679862" lon="139.745591"></trkpt>
      <trkpt lat="35.679866" lon="139.745668"></trkpt>
      <trkpt lat="35.679865" lon="139.745743"></trkpt>
      <trkpt lat="35.679858" lon="139.745824"></trkpt>
      <trkpt lat="35.679842" lon="139.745931"></trkpt>
      <trkpt lat="35.679805" lon="139.746095"></trkpt>
      <trkpt lat="35.679759" lon="139.746244"></trkpt>
      <trkpt lat="35.679551" lon="139.746915"></trkpt>
      <trkpt lat="35.679515" lon="139.747023"></trkpt>
      <trkpt lat="35.679477" lon="139.747129"></trkpt>
      <trkpt lat="35.679432" lon="139.747227"></trkpt>
      <trkpt lat="35.679383" lon="139.747325"></trkpt>
      <trkpt lat="35.679331" lon="139.747409"></trkpt>
      <trkpt lat="35.679264" lon="139.747499"></trkpt>
      <trkpt lat="35.679132" lon="139.747655"></trkpt>
      <trkpt lat="35.678992" lon="139.747809"></trkpt>
      <trkpt lat="35.678739" lon="139.748066"></trkpt>
      <trkpt lat="35.678558" lon="139.748228"></trkpt>
      <trkpt lat="35.678287" lon="139.748435"></trkpt>
      <trkpt lat="35.67792" lon="139.748745"></trkpt>
      <trkpt lat="35.677754" lon="139.748916"></trkpt>
      <trkpt lat="35.677714" lon="139.748963"></trkpt>
      <trkpt lat="35.677645" lon="139.749045"></trkpt>
      <trkpt lat="35.677548" lon="139.749185"></trkpt>
      <trkpt lat="35.677484" lon="139.749305"></trkpt>
      <trkpt lat="35.677438" lon="139.749417"></trkpt>
      <trkpt lat="35.677411" lon="139.749503"></trkpt>
      <trkpt lat="35.677388" lon="139.749591"></trkpt>
      <trkpt lat="35.677372" lon="139.74969"></trkpt>
      <trkpt lat="35.677352" lon="139.74984"></trkpt>
      <trkpt lat="35.677343" lon="139.749916"></trkpt>
      <trkpt lat="35.677318" lon="139.750186"></trkpt>
      <trkpt lat="35.677265" lon="139.750573"></trkpt>
      <trkpt lat="35.67726" lon="139.75072"></trkpt>
      <trkpt lat="35.677263" lon="139.750852"></trkpt>
      <trkpt lat="35.677285" lon="139.751111"></trkpt>
      <trkpt lat="35.677318" lon="139.751342"></trkpt>
      <trkpt lat="35.677381" lon="139.751634"></trkpt>
      <trkpt lat="35.677523" lon="139.752133"></trkpt>
      <trkpt lat="35.677669" lon="139.752556"></trkpt>
      <trkpt lat="35.67778" lon="139.752954"></trkpt>
      <trkpt lat="35.677797" lon="139.753016"></trkpt>
      <trkpt lat="35.677805" lon="139.753049"></trkpt>
      <trkpt lat="35.677812" lon="139.753083"></trkpt>
      <trkpt lat="35.677817" lon="139.753116"></trkpt>
      <trkpt lat="35.67782" lon="139.753152"></trkpt>
      <trkpt lat="35.677823" lon="139.753191"></trkpt>
      <trkpt lat="35.677824" lon="139.753232"></trkpt>
      <trkpt lat="35.677823" lon="139.75331"></trkpt>
      <trkpt lat="35.677823" lon="139.753349"></trkpt>
      <trkpt lat="35.677821" lon="139.753379"></trkpt>
      <trkpt lat="35.677818" lon="139.753401"></trkpt>
      <trkpt lat="35.677814" lon="139.753427"></trkpt>
      <trkpt lat="35.67778" lon="139.753551"></trkpt>
      <trkpt lat="35.677727" lon="139.753686"></trkpt>
      <trkpt lat="35.677064" lon="139.755258"></trkpt>
      <trkpt lat="35.676902" lon="139.755637"></trkpt>
      <trkpt lat="35.676801" lon="139.755875"></trkpt>
      <trkpt lat="35.676776" lon="139.75594"></trkpt>
      <trkpt lat="35.676755" lon="139.755993"></trkpt>
      <trkpt lat="35.676701" lon="139.756119"></trkpt>
      <trkpt lat="35.675723" lon="139.75856"></trkpt>
      <trkpt lat="35.675603" lon="139.758925"></trkpt>
      <trkpt lat="35.675536" lon="139.759102"></trkpt>
      <trkpt lat="35.675395" lon="139.759487"></trkpt>
      <trkpt lat="35.675375" lon="139.759556"></trkpt>
      <trkpt lat="35.675367" lon="139.759626"></trkpt>
      <trkpt lat="35.675363" lon="139.759667"></trkpt>
      <trkpt lat="35.675365" lon="139.75969"></trkpt>
      <trkpt lat="35.675377" lon="139.759721"></trkpt>
      <trkpt lat="35.675394" lon="139.759749"></trkpt>
      <trkpt lat="35.675442" lon="139.759804"></trkpt>
      <trkpt lat="35.675472" lon="139.759825"></trkpt>
      <trkpt lat="35.675591" lon="139.759879"></trkpt>
      <trkpt lat="35.67598" lon="139.760015"></trkpt>
      <trkpt lat="35.676747" lon="139.760289"></trkpt>
      <trkpt lat="35.678279" lon="139.760826"></trkpt>
      <trkpt lat="35.678341" lon="139.760847"></trkpt>
      <trkpt lat="35.678484" lon="139.760886"></trkpt>
      <trkpt lat="35.678606" lon="139.76092"></trkpt>
      <trkpt lat="35.678712" lon="139.760953"></trkpt>
      <trkpt lat="35.680929" lon="139.761708"></trkpt>
      <trkpt lat="35.681854" lon="139.762023"></trkpt>
      <trkpt lat="35.681887" lon="139.762034"></trkpt>
      <trkpt lat="35.682032" lon="139.762082"></trkpt>
      <trkpt lat="35.682424" lon="139.762211"></trkpt>
      <trkpt lat="35.682594" lon="139.762269"></trkpt>
      <trkpt lat="35.683388" lon="139.762522"></trkpt>
      <trkpt lat="35.683425" lon="139.762533"></trkpt>
      <trkpt lat="35.683556" lon="139.762571"></trkpt>
      <trkpt lat="35.683686" lon="139.762611"></trkpt>
      <trkpt lat="35.684304" lon="139.76278"></trkpt>
      <trkpt lat="35.684537" lon="139.762846"></trkpt>
      <trkpt lat="35.684643" lon="139.762876"></trkpt>
      <trkpt lat="35.685102" lon="139.763006"></trkpt>
      <trkpt lat="35.68514" lon="139.763016"></trkpt>
      <trkpt lat="35.685264" lon="139.763053"></trkpt>
      <trkpt lat="35.685367" lon="139.763083"></trkpt>
      <trkpt lat="35.68534" lon="139.763233"></trkpt>
      <trkpt lat="35.685313" lon="139.763369"></trkpt>
      <trkpt lat="35.685093" lon="139.764456"></trkpt>
      <trkpt lat="35.685077" lon="139.764532"></trkpt>
      <trkpt lat="35.685057" lon="139.764632"></trkpt>
      <trkpt lat="35.684875" lon="139.765512"></trkpt>
      <trkpt lat="35.68486" lon="139.765585"></trkpt>
      <trkpt lat="35.684826" lon="139.765743"></trkpt>
      <trkpt lat="35.684788" lon="139.765914"></trkpt>
      <trkpt lat="35.684702" lon="139.766282"></trkpt>
      <trkpt lat="35.684469" lon="139.767337"></trkpt>
      <trkpt lat="35.684455" lon="139.767398"></trkpt>
      <trkpt lat="35.684397" lon="139.767679"></trkpt>
      <trkpt lat="35.684291" lon="139.768185"></trkpt>
      <trkpt lat="35.684268" lon="139.768294"></trkpt>
      <trkpt lat="35.684355" lon="139.768326"></trkpt>
      <trkpt lat="35.686079" lon="139.768949"></trkpt>
      <trkpt lat="35.686181" lon="139.768986"></trkpt>
      <trkpt lat="35.68628" lon="139.769024"></trkpt>
      <trkpt lat="35.686644" lon="139.769164"></trkpt>
      <trkpt lat="35.687024" lon="139.769482"></trkpt>
      <trkpt lat="35.687337" lon="139.769743"></trkpt>
      <trkpt lat="35.687422" lon="139.769817"></trkpt>
      <trkpt lat="35.687477" lon="139.769868"></trkpt>
      <trkpt lat="35.687568" lon="139.769961"></trkpt>
      <trkpt lat="35.687592" lon="139.769993"></trkpt>
      <trkpt lat="35.68767" lon="139.770122"></trkpt>
      <trkpt lat="35.687696" lon="139.770175"></trkpt>
      <trkpt lat="35.687803" lon="139.770477"></trkpt>
      <trkpt lat="35.687902" lon="139.77078"></trkpt>
      <trkpt lat="35.688069" lon="139.771295"></trkpt>
      <trkpt lat="35.688139" lon="139.771509"></trkpt>
      <trkpt lat="35.688156" lon="139.771562"></trkpt>
      <trkpt lat="35.688188" lon="139.771655"></trkpt>
      <trkpt lat="35.688211" lon="139.771725"></trkpt>
      <trkpt lat="35.688227" lon="139.771773"></trkpt>
      <trkpt lat="35.688412" lon="139.772332"></trkpt>
      <trkpt lat="35.688543" lon="139.772725"></trkpt>
      <trkpt lat="35.688566" lon="139.772797"></trkpt>
      <trkpt lat="35.688623" lon="139.772977"></trkpt>
      <trkpt lat="35.688684" lon="139.773169"></trkpt>
      <trkpt lat="35.688707" lon="139.773245"></trkpt>
      <trkpt lat="35.688821" lon="139.773616"></trkpt>
      <trkpt lat="35.689032" lon="139.774315"></trkpt>
      <trkpt lat="35.689064" lon="139.774421"></trkpt>
      <trkpt lat="35.689088" lon="139.7745"></trkpt>
      <trkpt lat="35.689137" lon="139.774656"></trkpt>
      <trkpt lat="35.689357" lon="139.775364"></trkpt>
      <trkpt lat="35.68938" lon="139.775437"></trkpt>
      <trkpt lat="35.689426" lon="139.775553"></trkpt>
      <trkpt lat="35.689601" lon="139.775482"></trkpt>
      <trkpt lat="35.689905" lon="139.775357"></trkpt>
      <trkpt lat="35.69023" lon="139.775222"></trkpt>
      <trkpt lat="35.690627" lon="139.775058"></trkpt>
      <trkpt lat="35.69089" lon="139.77495"></trkpt>
      <trkpt lat="35.691102" lon="139.774866"></trkpt>
      <trkpt lat="35.691359" lon="139.774764"></trkpt>
      <trkpt lat="35.691536" lon="139.774701"></trkpt>
      <trkpt lat="35.691678" lon="139.774669"></trkpt>
      <trkpt lat="35.691857" lon="139.774664"></trkpt>
      <trkpt lat="35.692167" lon="139.774692"></trkpt>
      <trkpt lat="35.69244" lon="139.77472"></trkpt>
      <trkpt lat="35.692929" lon="139.774795"></trkpt>
      <trkpt lat="35.693436" lon="139.774866"></trkpt>
      <trkpt lat="35.693744" lon="139.774912"></trkpt>
      <trkpt lat="35.694034" lon="139.774953"></trkpt>
      <trkpt lat="35.694184" lon="139.774975"></trkpt>
      <trkpt lat="35.694353" lon="139.774998"></trkpt>
      <trkpt lat="35.69483" lon="139.775062"></trkpt>
      <trkpt lat="35.69534" lon="139.775159"></trkpt>
      <trkpt lat="35.695386" lon="139.775168"></trkpt>
      <trkpt lat="35.695528" lon="139.775196"></trkpt>
      <trkpt lat="35.695636" lon="139.775215"></trkpt>
      <trkpt lat="35.695787" lon="139.775237"></trkpt>
      <trkpt lat="35.696356" lon="139.775313"></trkpt>
      <trkpt lat="35.696506" lon="139.775325"></trkpt>
      <trkpt lat="35.696761" lon="139.775351"></trkpt>
      <trkpt lat="35.697093" lon="139.775364"></trkpt>
      <trkpt lat="35.697383" lon="139.775374"></trkpt>
      <trkpt lat="35.697488" lon="139.775378"></trkpt>
      <trkpt lat="35.697548" lon="139.775378"></trkpt>
      <trkpt lat="35.698104" lon="139.77538"></trkpt>
      <trkpt lat="35.698175" lon="139.775383"></trkpt>
      <trkpt lat="35.698298" lon="139.775494"></trkpt>
      <trkpt lat="35.698727" lon="139.775497"></trkpt>
      <trkpt lat="35.698811" lon="139.775649"></trkpt>
      <trkpt lat="35.698808" lon="139.775751"></trkpt>
      <trkpt lat="35.698806" lon="139.775804"></trkpt>
      <trkpt lat="35.698791" lon="139.776267"></trkpt>
      <trkpt lat="35.698783" lon="139.776581"></trkpt>
      <trkpt lat="35.698773" lon="139.776901"></trkpt>
      <trkpt lat="35.698765" lon="139.777117"></trkpt>
      <trkpt lat="35.698761" lon="139.777228"></trkpt>
      <trkpt lat="35.698702" lon="139.777226"></trkpt>
      <trkpt lat="35.698675" lon="139.777225"></trkpt>
      <trkpt lat="35.698507" lon="139.777219"></trkpt>
      <trkpt lat="35.698467" lon="139.777218"></trkpt>
      <trkpt lat="35.698438" lon="139.778098"></trkpt>
      <trkpt lat="35.698425" lon="139.778496"></trkpt>
    </trkseg>
  </trk>
</gpx>