<?xml version="1.0" encoding="UTF-8"?>
<gpx version="1.1" creator="TokyoCycling2026" xmlns="http://www.topografix.com/GPX/1/1">
  <metadata>
    <name>Day 17: 水杉篇：金町退房 ➔ 水元公園（萬棵水杉黃金森林見頃）➔ 柴又 ➔ 淺草</name>
    <desc>16.6 km | +4m / -4m</desc>
  </metadata>
  <trk>
    <name>Day 17: 水杉篇：金町退房 ➔ 水元公園（萬棵水杉黃金森林見頃）➔ 柴又 ➔ 淺草</name>
    <trkseg>
      <trkpt lat="35.767271" lon="139.865871"></trkpt>
      <trkpt lat="35.767231" lon="139.865878"></trkpt>
      <trkpt lat="35.767127" lon="139.865892"></trkpt>
      <trkpt lat="35.766962" lon="139.865909"></trkpt>
      <trkpt lat="35.766936" lon="139.865911"></trkpt>
      <trkpt lat="35.766882" lon="139.865735"></trkpt>
      <trkpt lat="35.76682" lon="139.865452"></trkpt>
      <trkpt lat="35.766768" lon="139.865187"></trkpt>
      <trkpt lat="35.766686" lon="139.864779"></trkpt>
      <trkpt lat="35.766686" lon="139.864752"></trkpt>
      <trkpt lat="35.766702" lon="139.864653"></trkpt>
      <trkpt lat="35.766714" lon="139.864557"></trkpt>
      <trkpt lat="35.766781" lon="139.86417"></trkpt>
      <trkpt lat="35.766787" lon="139.864127"></trkpt>
      <trkpt lat="35.766817" lon="139.863942"></trkpt>
      <trkpt lat="35.766853" lon="139.863693"></trkpt>
      <trkpt lat="35.766862" lon="139.863638"></trkpt>
      <trkpt lat="35.766939" lon="139.863136"></trkpt>
      <trkpt lat="35.76694" lon="139.86311"></trkpt>
      <trkpt lat="35.766942" lon="139.862997"></trkpt>
      <trkpt lat="35.767094" lon="139.86305"></trkpt>
      <trkpt lat="35.767514" lon="139.863231"></trkpt>
      <trkpt lat="35.767584" lon="139.863263"></trkpt>
      <trkpt lat="35.767787" lon="139.863387"></trkpt>
      <trkpt lat="35.768102" lon="139.863579"></trkpt>
      <trkpt lat="35.768186" lon="139.863628"></trkpt>
      <trkpt lat="35.768303" lon="139.863686"></trkpt>
      <trkpt lat="35.768744" lon="139.863898"></trkpt>
      <trkpt lat="35.769007" lon="139.864024"></trkpt>
      <trkpt lat="35.769109" lon="139.864053"></trkpt>
      <trkpt lat="35.769452" lon="139.86423"></trkpt>
      <trkpt lat="35.769683" lon="139.864338"></trkpt>
      <trkpt lat="35.769788" lon="139.864393"></trkpt>
      <trkpt lat="35.769804" lon="139.864401"></trkpt>
      <trkpt lat="35.76989" lon="139.864445"></trkpt>
      <trkpt lat="35.77" lon="139.864506"></trkpt>
      <trkpt lat="35.770065" lon="139.864543"></trkpt>
      <trkpt lat="35.770397" lon="139.864738"></trkpt>
      <trkpt lat="35.770474" lon="139.864783"></trkpt>
      <trkpt lat="35.770945" lon="139.865002"></trkpt>
      <trkpt lat="35.771401" lon="139.865215"></trkpt>
      <trkpt lat="35.771514" lon="139.865279"></trkpt>
      <trkpt lat="35.771624" lon="139.865345"></trkpt>
      <trkpt lat="35.771739" lon="139.86541"></trkpt>
      <trkpt lat="35.771787" lon="139.865438"></trkpt>
      <trkpt lat="35.772248" lon="139.865673"></trkpt>
      <trkpt lat="35.772366" lon="139.86573"></trkpt>
      <trkpt lat="35.772473" lon="139.865783"></trkpt>
      <trkpt lat="35.772555" lon="139.865821"></trkpt>
      <trkpt lat="35.772677" lon="139.865876"></trkpt>
      <trkpt lat="35.772887" lon="139.865969"></trkpt>
      <trkpt lat="35.773091" lon="139.866047"></trkpt>
      <trkpt lat="35.773339" lon="139.866131"></trkpt>
      <trkpt lat="35.77355" lon="139.866189"></trkpt>
      <trkpt lat="35.774141" lon="139.866309"></trkpt>
      <trkpt lat="35.774215" lon="139.866324"></trkpt>
      <trkpt lat="35.774304" lon="139.866341"></trkpt>
      <trkpt lat="35.774358" lon="139.866351"></trkpt>
      <trkpt lat="35.774642" lon="139.866402"></trkpt>
      <trkpt lat="35.774893" lon="139.866447"></trkpt>
      <trkpt lat="35.774931" lon="139.866454"></trkpt>
      <trkpt lat="35.775268" lon="139.866518"></trkpt>
      <trkpt lat="35.775555" lon="139.866574"></trkpt>
      <trkpt lat="35.776101" lon="139.86667"></trkpt>
      <trkpt lat="35.776186" lon="139.866685"></trkpt>
      <trkpt lat="35.776258" lon="139.866695"></trkpt>
      <trkpt lat="35.776659" lon="139.866757"></trkpt>
      <trkpt lat="35.776864" lon="139.866793"></trkpt>
      <trkpt lat="35.777167" lon="139.866845"></trkpt>
      <trkpt lat="35.777548" lon="139.866909"></trkpt>
      <trkpt lat="35.777606" lon="139.86692"></trkpt>
      <trkpt lat="35.777949" lon="139.866976"></trkpt>
      <trkpt lat="35.778363" lon="139.867043"></trkpt>
      <trkpt lat="35.778406" lon="139.867051"></trkpt>
      <trkpt lat="35.778459" lon="139.867061"></trkpt>
      <trkpt lat="35.778515" lon="139.867071"></trkpt>
      <trkpt lat="35.77909" lon="139.867173"></trkpt>
      <trkpt lat="35.779179" lon="139.867188"></trkpt>
      <trkpt lat="35.779595" lon="139.867262"></trkpt>
      <trkpt lat="35.779987" lon="139.867319"></trkpt>
      <trkpt lat="35.780171" lon="139.867342"></trkpt>
      <trkpt lat="35.780336" lon="139.867355"></trkpt>
      <trkpt lat="35.780462" lon="139.86735"></trkpt>
      <trkpt lat="35.780548" lon="139.867355"></trkpt>
      <trkpt lat="35.780618" lon="139.867393"></trkpt>
      <trkpt lat="35.780741" lon="139.867448"></trkpt>
      <trkpt lat="35.780983" lon="139.867564"></trkpt>
      <trkpt lat="35.781061" lon="139.867582"></trkpt>
      <trkpt lat="35.78112" lon="139.867596"></trkpt>
      <trkpt lat="35.781534" lon="139.86763"></trkpt>
      <trkpt lat="35.781561" lon="139.867636"></trkpt>
      <trkpt lat="35.781671" lon="139.867673"></trkpt>
      <trkpt lat="35.781769" lon="139.867712"></trkpt>
      <trkpt lat="35.781806" lon="139.86772"></trkpt>
      <trkpt lat="35.781963" lon="139.867733"></trkpt>
      <trkpt lat="35.782114" lon="139.867729"></trkpt>
      <trkpt lat="35.782235" lon="139.867734"></trkpt>
      <trkpt lat="35.782299" lon="139.867743"></trkpt>
      <trkpt lat="35.782436" lon="139.867772"></trkpt>
      <trkpt lat="35.782572" lon="139.867823"></trkpt>
      <trkpt lat="35.782638" lon="139.867855"></trkpt>
      <trkpt lat="35.782915" lon="139.868031"></trkpt>
      <trkpt lat="35.783069" lon="139.868149"></trkpt>
      <trkpt lat="35.783209" lon="139.868242"></trkpt>
      <trkpt lat="35.783313" lon="139.868316"></trkpt>
      <trkpt lat="35.783353" lon="139.868352"></trkpt>
      <trkpt lat="35.783509" lon="139.868505"></trkpt>
      <trkpt lat="35.783658" lon="139.868673"></trkpt>
      <trkpt lat="35.783692" lon="139.868646"></trkpt>
      <trkpt lat="35.783709" lon="139.868633"></trkpt>
      <trkpt lat="35.78388" lon="139.868502"></trkpt>
      <trkpt lat="35.784068" lon="139.868388"></trkpt>
      <trkpt lat="35.784227" lon="139.868351"></trkpt>
      <trkpt lat="35.784377" lon="139.868304"></trkpt>
      <trkpt lat="35.784469" lon="139.868281"></trkpt>
      <trkpt lat="35.78479" lon="139.868196"></trkpt>
      <trkpt lat="35.78484" lon="139.868186"></trkpt>
      <trkpt lat="35.785034" lon="139.868113"></trkpt>
      <trkpt lat="35.785095" lon="139.8681"></trkpt>
      <trkpt lat="35.785133" lon="139.868098"></trkpt>
      <trkpt lat="35.785288" lon="139.868094"></trkpt>
      <trkpt lat="35.785548" lon="139.868082"></trkpt>
      <trkpt lat="35.785627" lon="139.868103"></trkpt>
      <trkpt lat="35.785773" lon="139.868134"></trkpt>
      <trkpt lat="35.785854" lon="139.868156"></trkpt>
      <trkpt lat="35.785921" lon="139.868171"></trkpt>
      <trkpt lat="35.785973" lon="139.868165"></trkpt>
      <trkpt lat="35.786003" lon="139.868155"></trkpt>
      <trkpt lat="35.786334" lon="139.868035"></trkpt>
      <trkpt lat="35.786353" lon="139.868033"></trkpt>
      <trkpt lat="35.786376" lon="139.868033"></trkpt>
      <trkpt lat="35.786914" lon="139.868031"></trkpt>
      <trkpt lat="35.787047" lon="139.868052"></trkpt>
      <trkpt lat="35.787048" lon="139.868405"></trkpt>
      <trkpt lat="35.786966" lon="139.868407"></trkpt>
      <trkpt lat="35.786865" lon="139.86842"></trkpt>
      <trkpt lat="35.786735" lon="139.868437"></trkpt>
      <trkpt lat="35.786655" lon="139.868455"></trkpt>
      <trkpt lat="35.786374" lon="139.868527"></trkpt>
      <trkpt lat="35.786267" lon="139.868567"></trkpt>
      <trkpt lat="35.786125" lon="139.868628"></trkpt>
      <trkpt lat="35.785935" lon="139.868718"></trkpt>
      <trkpt lat="35.785845" lon="139.868768"></trkpt>
      <trkpt lat="35.785811" lon="139.868781"></trkpt>
      <trkpt lat="35.785591" lon="139.868891"></trkpt>
      <trkpt lat="35.785503" lon="139.868935"></trkpt>
      <trkpt lat="35.785406" lon="139.868969"></trkpt>
      <trkpt lat="35.785317" lon="139.868989"></trkpt>
      <trkpt lat="35.785194" lon="139.868996"></trkpt>
      <trkpt lat="35.785087" lon="139.869002"></trkpt>
      <trkpt lat="35.784957" lon="139.869009"></trkpt>
      <trkpt lat="35.784888" lon="139.869022"></trkpt>
      <trkpt lat="35.784579" lon="139.869041"></trkpt>
      <trkpt lat="35.784429" lon="139.869072"></trkpt>
      <trkpt lat="35.784201" lon="139.869111"></trkpt>
      <trkpt lat="35.784104" lon="139.86914"></trkpt>
      <trkpt lat="35.784062" lon="139.869152"></trkpt>
      <trkpt lat="35.783989" lon="139.869183"></trkpt>
      <trkpt lat="35.783962" lon="139.869116"></trkpt>
      <trkpt lat="35.78394" lon="139.869047"></trkpt>
      <trkpt lat="35.783897" lon="139.868962"></trkpt>
      <trkpt lat="35.783859" lon="139.868903"></trkpt>
      <trkpt lat="35.783822" lon="139.868861"></trkpt>
      <trkpt lat="35.783658" lon="139.868673"></trkpt>
      <trkpt lat="35.783509" lon="139.868505"></trkpt>
      <trkpt lat="35.783353" lon="139.868352"></trkpt>
      <trkpt lat="35.783313" lon="139.868316"></trkpt>
      <trkpt lat="35.783209" lon="139.868242"></trkpt>
      <trkpt lat="35.783069" lon="139.868149"></trkpt>
      <trkpt lat="35.782915" lon="139.868031"></trkpt>
      <trkpt lat="35.782638" lon="139.867855"></trkpt>
      <trkpt lat="35.782572" lon="139.867823"></trkpt>
      <trkpt lat="35.782436" lon="139.867772"></trkpt>
      <trkpt lat="35.782299" lon="139.867743"></trkpt>
      <trkpt lat="35.782235" lon="139.867734"></trkpt>
      <trkpt lat="35.782114" lon="139.867729"></trkpt>
      <trkpt lat="35.781963" lon="139.867733"></trkpt>
      <trkpt lat="35.781806" lon="139.86772"></trkpt>
      <trkpt lat="35.781769" lon="139.867712"></trkpt>
      <trkpt lat="35.781671" lon="139.867673"></trkpt>
      <trkpt lat="35.781561" lon="139.867636"></trkpt>
      <trkpt lat="35.781534" lon="139.86763"></trkpt>
      <trkpt lat="35.78112" lon="139.867596"></trkpt>
      <trkpt lat="35.781061" lon="139.867582"></trkpt>
      <trkpt lat="35.780983" lon="139.867564"></trkpt>
      <trkpt lat="35.780741" lon="139.867448"></trkpt>
      <trkpt lat="35.780618" lon="139.867393"></trkpt>
      <trkpt lat="35.780548" lon="139.867355"></trkpt>
      <trkpt lat="35.780462" lon="139.86735"></trkpt>
      <trkpt lat="35.780336" lon="139.867355"></trkpt>
      <trkpt lat="35.780154" lon="139.86751"></trkpt>
      <trkpt lat="35.780054" lon="139.867596"></trkpt>
      <trkpt lat="35.780015" lon="139.867636"></trkpt>
      <trkpt lat="35.779695" lon="139.867964"></trkpt>
      <trkpt lat="35.779455" lon="139.868203"></trkpt>
      <trkpt lat="35.779213" lon="139.868451"></trkpt>
      <trkpt lat="35.779055" lon="139.868609"></trkpt>
      <trkpt lat="35.779045" lon="139.868619"></trkpt>
      <trkpt lat="35.779014" lon="139.868652"></trkpt>
      <trkpt lat="35.778664" lon="139.86901"></trkpt>
      <trkpt lat="35.778314" lon="139.869354"></trkpt>
      <trkpt lat="35.77829" lon="139.869381"></trkpt>
      <trkpt lat="35.778035" lon="139.869642"></trkpt>
      <trkpt lat="35.777857" lon="139.869826"></trkpt>
      <trkpt lat="35.777825" lon="139.869858"></trkpt>
      <trkpt lat="35.777784" lon="139.869901"></trkpt>
      <trkpt lat="35.777222" lon="139.870466"></trkpt>
      <trkpt lat="35.777198" lon="139.87049"></trkpt>
      <trkpt lat="35.777167" lon="139.870522"></trkpt>
      <trkpt lat="35.777127" lon="139.870463"></trkpt>
      <trkpt lat="35.777014" lon="139.870365"></trkpt>
      <trkpt lat="35.776728" lon="139.870113"></trkpt>
      <trkpt lat="35.776632" lon="139.870029"></trkpt>
      <trkpt lat="35.776593" lon="139.870017"></trkpt>
      <trkpt lat="35.776348" lon="139.869955"></trkpt>
      <trkpt lat="35.775854" lon="139.869827"></trkpt>
      <trkpt lat="35.775823" lon="139.86982"></trkpt>
      <trkpt lat="35.775465" lon="139.870196"></trkpt>
      <trkpt lat="35.775378" lon="139.870287"></trkpt>
      <trkpt lat="35.77496" lon="139.870739"></trkpt>
      <trkpt lat="35.774841" lon="139.870867"></trkpt>
      <trkpt lat="35.774798" lon="139.870914"></trkpt>
      <trkpt lat="35.774621" lon="139.871105"></trkpt>
      <trkpt lat="35.774545" lon="139.871135"></trkpt>
      <trkpt lat="35.77443" lon="139.871175"></trkpt>
      <trkpt lat="35.773865" lon="139.871394"></trkpt>
      <trkpt lat="35.773272" lon="139.871617"></trkpt>
      <trkpt lat="35.773201" lon="139.871644"></trkpt>
      <trkpt lat="35.773053" lon="139.871699"></trkpt>
      <trkpt lat="35.772731" lon="139.871825"></trkpt>
      <trkpt lat="35.772212" lon="139.872022"></trkpt>
      <trkpt lat="35.771255" lon="139.872387"></trkpt>
      <trkpt lat="35.771237" lon="139.872393"></trkpt>
      <trkpt lat="35.771184" lon="139.872414"></trkpt>
      <trkpt lat="35.771139" lon="139.872432"></trkpt>
      <trkpt lat="35.771078" lon="139.87246"></trkpt>
      <trkpt lat="35.77107" lon="139.872463"></trkpt>
      <trkpt lat="35.770795" lon="139.872564"></trkpt>
      <trkpt lat="35.77078" lon="139.87257"></trkpt>
      <trkpt lat="35.770474" lon="139.872685"></trkpt>
      <trkpt lat="35.770281" lon="139.872763"></trkpt>
      <trkpt lat="35.770202" lon="139.872795"></trkpt>
      <trkpt lat="35.770162" lon="139.872803"></trkpt>
      <trkpt lat="35.770115" lon="139.872812"></trkpt>
      <trkpt lat="35.770099" lon="139.872814"></trkpt>
      <trkpt lat="35.769912" lon="139.872844"></trkpt>
      <trkpt lat="35.769392" lon="139.872915"></trkpt>
      <trkpt lat="35.769169" lon="139.872948"></trkpt>
      <trkpt lat="35.769087" lon="139.87296"></trkpt>
      <trkpt lat="35.769015" lon="139.87297"></trkpt>
      <trkpt lat="35.769007" lon="139.872899"></trkpt>
      <trkpt lat="35.768944" lon="139.872286"></trkpt>
      <trkpt lat="35.768922" lon="139.87205"></trkpt>
      <trkpt lat="35.768906" lon="139.871888"></trkpt>
      <trkpt lat="35.768808" lon="139.871899"></trkpt>
      <trkpt lat="35.768387" lon="139.871958"></trkpt>
      <trkpt lat="35.768273" lon="139.871975"></trkpt>
      <trkpt lat="35.768137" lon="139.872007"></trkpt>
      <trkpt lat="35.768059" lon="139.872032"></trkpt>
      <trkpt lat="35.767922" lon="139.872091"></trkpt>
      <trkpt lat="35.767819" lon="139.872146"></trkpt>
      <trkpt lat="35.767691" lon="139.872224"></trkpt>
      <trkpt lat="35.767632" lon="139.872259"></trkpt>
      <trkpt lat="35.767489" lon="139.872351"></trkpt>
      <trkpt lat="35.767178" lon="139.871738"></trkpt>
      <trkpt lat="35.766984" lon="139.871376"></trkpt>
      <trkpt lat="35.766958" lon="139.871318"></trkpt>
      <trkpt lat="35.766881" lon="139.871158"></trkpt>
      <trkpt lat="35.766798" lon="139.871206"></trkpt>
      <trkpt lat="35.766752" lon="139.871233"></trkpt>
      <trkpt lat="35.766569" lon="139.871341"></trkpt>
      <trkpt lat="35.765949" lon="139.871708"></trkpt>
      <trkpt lat="35.765693" lon="139.871861"></trkpt>
      <trkpt lat="35.76543" lon="139.872018"></trkpt>
      <trkpt lat="35.765124" lon="139.8722"></trkpt>
      <trkpt lat="35.764829" lon="139.872377"></trkpt>
      <trkpt lat="35.764545" lon="139.872548"></trkpt>
      <trkpt lat="35.7643" lon="139.872696"></trkpt>
      <trkpt lat="35.764219" lon="139.872745"></trkpt>
      <trkpt lat="35.761659" lon="139.874288"></trkpt>
      <trkpt lat="35.760846" lon="139.874772"></trkpt>
      <trkpt lat="35.760419" lon="139.875029"></trkpt>
      <trkpt lat="35.760162" lon="139.875183"></trkpt>
      <trkpt lat="35.760041" lon="139.875251"></trkpt>
      <trkpt lat="35.760004" lon="139.875274"></trkpt>
      <trkpt lat="35.759923" lon="139.875318"></trkpt>
      <trkpt lat="35.759755" lon="139.875394"></trkpt>
      <trkpt lat="35.75943" lon="139.875536"></trkpt>
      <trkpt lat="35.759112" lon="139.875677"></trkpt>
      <trkpt lat="35.758884" lon="139.875777"></trkpt>
      <trkpt lat="35.758656" lon="139.875879"></trkpt>
      <trkpt lat="35.758559" lon="139.875925"></trkpt>
      <trkpt lat="35.758365" lon="139.876011"></trkpt>
      <trkpt lat="35.758329" lon="139.876027"></trkpt>
      <trkpt lat="35.758068" lon="139.876144"></trkpt>
      <trkpt lat="35.757995" lon="139.876178"></trkpt>
      <trkpt lat="35.75803" lon="139.876236"></trkpt>
      <trkpt lat="35.758057" lon="139.87628"></trkpt>
      <trkpt lat="35.758287" lon="139.876662"></trkpt>
      <trkpt lat="35.758353" lon="139.876778"></trkpt>
      <trkpt lat="35.758401" lon="139.876883"></trkpt>
      <trkpt lat="35.758447" lon="139.876997"></trkpt>
      <trkpt lat="35.758476" lon="139.877091"></trkpt>
      <trkpt lat="35.758604" lon="139.877585"></trkpt>
      <trkpt lat="35.758565" lon="139.877606"></trkpt>
      <trkpt lat="35.758551" lon="139.877613"></trkpt>
      <trkpt lat="35.758423" lon="139.877674"></trkpt>
      <trkpt lat="35.758388" lon="139.877691"></trkpt>
      <trkpt lat="35.758319" lon="139.877726"></trkpt>
      <trkpt lat="35.758231" lon="139.877753"></trkpt>
      <trkpt lat="35.75812" lon="139.87778"></trkpt>
      <trkpt lat="35.758075" lon="139.877788"></trkpt>
      <trkpt lat="35.758025" lon="139.877795"></trkpt>
      <trkpt lat="35.757967" lon="139.877794"></trkpt>
      <trkpt lat="35.75786" lon="139.877813"></trkpt>
      <trkpt lat="35.757712" lon="139.877857"></trkpt>
      <trkpt lat="35.75737" lon="139.878118"></trkpt>
      <trkpt lat="35.757278" lon="139.878174"></trkpt>
      <trkpt lat="35.75725" lon="139.878189"></trkpt>
      <trkpt lat="35.757004" lon="139.878196"></trkpt>
      <trkpt lat="35.756842" lon="139.878201"></trkpt>
      <trkpt lat="35.756717" lon="139.878179"></trkpt>
      <trkpt lat="35.756304" lon="139.878091"></trkpt>
      <trkpt lat="35.756171" lon="139.878013"></trkpt>
      <trkpt lat="35.75644" lon="139.877428"></trkpt>
      <trkpt lat="35.756686" lon="139.876889"></trkpt>
      <trkpt lat="35.756643" lon="139.876867"></trkpt>
      <trkpt lat="35.756714" lon="139.876689"></trkpt>
      <trkpt lat="35.756736" lon="139.876636"></trkpt>
      <trkpt lat="35.757284" lon="139.876456"></trkpt>
      <trkpt lat="35.757322" lon="139.876446"></trkpt>
      <trkpt lat="35.757581" lon="139.876359"></trkpt>
      <trkpt lat="35.7576" lon="139.876351"></trkpt>
      <trkpt lat="35.757921" lon="139.876211"></trkpt>
      <trkpt lat="35.757929" lon="139.876208"></trkpt>
      <trkpt lat="35.757995" lon="139.876178"></trkpt>
      <trkpt lat="35.757961" lon="139.876103"></trkpt>
      <trkpt lat="35.757958" lon="139.876093"></trkpt>
      <trkpt lat="35.757904" lon="139.875928"></trkpt>
      <trkpt lat="35.757832" lon="139.875711"></trkpt>
      <trkpt lat="35.757811" lon="139.87565"></trkpt>
      <trkpt lat="35.757793" lon="139.875596"></trkpt>
      <trkpt lat="35.757714" lon="139.875353"></trkpt>
      <trkpt lat="35.757631" lon="139.875102"></trkpt>
      <trkpt lat="35.757609" lon="139.875034"></trkpt>
      <trkpt lat="35.757575" lon="139.874932"></trkpt>
      <trkpt lat="35.757543" lon="139.874841"></trkpt>
      <trkpt lat="35.757309" lon="139.874163"></trkpt>
      <trkpt lat="35.757268" lon="139.874036"></trkpt>
      <trkpt lat="35.757218" lon="139.873887"></trkpt>
      <trkpt lat="35.757185" lon="139.873804"></trkpt>
      <trkpt lat="35.757142" lon="139.87374"></trkpt>
      <trkpt lat="35.757094" lon="139.873681"></trkpt>
      <trkpt lat="35.756913" lon="139.873474"></trkpt>
      <trkpt lat="35.756879" lon="139.873434"></trkpt>
      <trkpt lat="35.756854" lon="139.873405"></trkpt>
      <trkpt lat="35.756584" lon="139.873089"></trkpt>
      <trkpt lat="35.756322" lon="139.872788"></trkpt>
      <trkpt lat="35.756318" lon="139.872783"></trkpt>
      <trkpt lat="35.755996" lon="139.872405"></trkpt>
      <trkpt lat="35.755978" lon="139.872386"></trkpt>
      <trkpt lat="35.755855" lon="139.872249"></trkpt>
      <trkpt lat="35.755481" lon="139.871824"></trkpt>
      <trkpt lat="35.755373" lon="139.871697"></trkpt>
      <trkpt lat="35.755303" lon="139.871615"></trkpt>
      <trkpt lat="35.755265" lon="139.871569"></trkpt>
      <trkpt lat="35.755191" lon="139.871487"></trkpt>
      <trkpt lat="35.755029" lon="139.871296"></trkpt>
      <trkpt lat="35.754679" lon="139.870893"></trkpt>
      <trkpt lat="35.754623" lon="139.870831"></trkpt>
      <trkpt lat="35.754059" lon="139.870179"></trkpt>
      <trkpt lat="35.75405" lon="139.870169"></trkpt>
      <trkpt lat="35.75401" lon="139.870122"></trkpt>
      <trkpt lat="35.753971" lon="139.870075"></trkpt>
      <trkpt lat="35.753899" lon="139.869989"></trkpt>
      <trkpt lat="35.753692" lon="139.869753"></trkpt>
      <trkpt lat="35.753504" lon="139.869543"></trkpt>
      <trkpt lat="35.753447" lon="139.869482"></trkpt>
      <trkpt lat="35.753383" lon="139.869421"></trkpt>
      <trkpt lat="35.753323" lon="139.869368"></trkpt>
      <trkpt lat="35.75326" lon="139.86932"></trkpt>
      <trkpt lat="35.753151" lon="139.869238"></trkpt>
      <trkpt lat="35.752796" lon="139.869007"></trkpt>
      <trkpt lat="35.752757" lon="139.868981"></trkpt>
      <trkpt lat="35.752693" lon="139.868941"></trkpt>
      <trkpt lat="35.752582" lon="139.868873"></trkpt>
      <trkpt lat="35.75224" lon="139.868647"></trkpt>
      <trkpt lat="35.752197" lon="139.868619"></trkpt>
      <trkpt lat="35.751756" lon="139.868337"></trkpt>
      <trkpt lat="35.751692" lon="139.868296"></trkpt>
      <trkpt lat="35.751441" lon="139.868144"></trkpt>
      <trkpt lat="35.751163" lon="139.867961"></trkpt>
      <trkpt lat="35.751123" lon="139.867934"></trkpt>
      <trkpt lat="35.751092" lon="139.867913"></trkpt>
      <trkpt lat="35.751056" lon="139.867884"></trkpt>
      <trkpt lat="35.750986" lon="139.867845"></trkpt>
      <trkpt lat="35.750948" lon="139.86782"></trkpt>
      <trkpt lat="35.750901" lon="139.867788"></trkpt>
      <trkpt lat="35.750821" lon="139.867743"></trkpt>
      <trkpt lat="35.750791" lon="139.867721"></trkpt>
      <trkpt lat="35.750753" lon="139.867683"></trkpt>
      <trkpt lat="35.750644" lon="139.86755"></trkpt>
      <trkpt lat="35.750507" lon="139.86741"></trkpt>
      <trkpt lat="35.750489" lon="139.867392"></trkpt>
      <trkpt lat="35.750437" lon="139.867339"></trkpt>
      <trkpt lat="35.750136" lon="139.867045"></trkpt>
      <trkpt lat="35.750119" lon="139.867028"></trkpt>
      <trkpt lat="35.749992" lon="139.866897"></trkpt>
      <trkpt lat="35.749733" lon="139.86664"></trkpt>
      <trkpt lat="35.749685" lon="139.866583"></trkpt>
      <trkpt lat="35.749643" lon="139.866521"></trkpt>
      <trkpt lat="35.749595" lon="139.86644"></trkpt>
      <trkpt lat="35.749536" lon="139.866321"></trkpt>
      <trkpt lat="35.749495" lon="139.866219"></trkpt>
      <trkpt lat="35.749449" lon="139.866054"></trkpt>
      <trkpt lat="35.749415" lon="139.865897"></trkpt>
      <trkpt lat="35.749378" lon="139.865711"></trkpt>
      <trkpt lat="35.749294" lon="139.865245"></trkpt>
      <trkpt lat="35.74929" lon="139.865223"></trkpt>
      <trkpt lat="35.749249" lon="139.865004"></trkpt>
      <trkpt lat="35.749231" lon="139.864914"></trkpt>
      <trkpt lat="35.749218" lon="139.864838"></trkpt>
      <trkpt lat="35.749209" lon="139.864789"></trkpt>
      <trkpt lat="35.749189" lon="139.864688"></trkpt>
      <trkpt lat="35.749144" lon="139.864461"></trkpt>
      <trkpt lat="35.749132" lon="139.864398"></trkpt>
      <trkpt lat="35.749104" lon="139.864266"></trkpt>
      <trkpt lat="35.74908" lon="139.86414"></trkpt>
      <trkpt lat="35.749074" lon="139.864104"></trkpt>
      <trkpt lat="35.749071" lon="139.864084"></trkpt>
      <trkpt lat="35.74897" lon="139.863443"></trkpt>
      <trkpt lat="35.748965" lon="139.863413"></trkpt>
      <trkpt lat="35.748957" lon="139.863365"></trkpt>
      <trkpt lat="35.74862" lon="139.861322"></trkpt>
      <trkpt lat="35.748615" lon="139.8613"></trkpt>
      <trkpt lat="35.748595" lon="139.861218"></trkpt>
      <trkpt lat="35.74856" lon="139.861085"></trkpt>
      <trkpt lat="35.748517" lon="139.860936"></trkpt>
      <trkpt lat="35.748406" lon="139.860573"></trkpt>
      <trkpt lat="35.748358" lon="139.86042"></trkpt>
      <trkpt lat="35.74832" lon="139.860303"></trkpt>
      <trkpt lat="35.748202" lon="139.859917"></trkpt>
      <trkpt lat="35.74816" lon="139.859771"></trkpt>
      <trkpt lat="35.748125" lon="139.859641"></trkpt>
      <trkpt lat="35.748109" lon="139.859552"></trkpt>
      <trkpt lat="35.748102" lon="139.859458"></trkpt>
      <trkpt lat="35.748104" lon="139.85934"></trkpt>
      <trkpt lat="35.748128" lon="139.859188"></trkpt>
      <trkpt lat="35.74817" lon="139.859027"></trkpt>
      <trkpt lat="35.748223" lon="139.858833"></trkpt>
      <trkpt lat="35.748291" lon="139.858556"></trkpt>
      <trkpt lat="35.748437" lon="139.858002"></trkpt>
      <trkpt lat="35.748479" lon="139.857854"></trkpt>
      <trkpt lat="35.748446" lon="139.857775"></trkpt>
      <trkpt lat="35.748417" lon="139.857712"></trkpt>
      <trkpt lat="35.748387" lon="139.857662"></trkpt>
      <trkpt lat="35.748367" lon="139.857639"></trkpt>
      <trkpt lat="35.748275" lon="139.85754"></trkpt>
      <trkpt lat="35.748125" lon="139.857379"></trkpt>
      <trkpt lat="35.747847" lon="139.857091"></trkpt>
      <trkpt lat="35.747822" lon="139.857066"></trkpt>
      <trkpt lat="35.747673" lon="139.856909"></trkpt>
      <trkpt lat="35.747281" lon="139.856499"></trkpt>
      <trkpt lat="35.747164" lon="139.856377"></trkpt>
      <trkpt lat="35.747142" lon="139.856339"></trkpt>
      <trkpt lat="35.747124" lon="139.856305"></trkpt>
      <trkpt lat="35.747095" lon="139.856275"></trkpt>
      <trkpt lat="35.746964" lon="139.856137"></trkpt>
      <trkpt lat="35.746916" lon="139.856088"></trkpt>
      <trkpt lat="35.746662" lon="139.855823"></trkpt>
      <trkpt lat="35.746602" lon="139.855759"></trkpt>
      <trkpt lat="35.746359" lon="139.8555"></trkpt>
      <trkpt lat="35.745854" lon="139.854973"></trkpt>
      <trkpt lat="35.745794" lon="139.854913"></trkpt>
      <trkpt lat="35.745718" lon="139.854903"></trkpt>
      <trkpt lat="35.74563" lon="139.854835"></trkpt>
      <trkpt lat="35.745476" lon="139.854671"></trkpt>
      <trkpt lat="35.745327" lon="139.854512"></trkpt>
      <trkpt lat="35.74525" lon="139.854434"></trkpt>
      <trkpt lat="35.745079" lon="139.854254"></trkpt>
      <trkpt lat="35.744935" lon="139.854103"></trkpt>
      <trkpt lat="35.744864" lon="139.85403"></trkpt>
      <trkpt lat="35.74473" lon="139.853888"></trkpt>
      <trkpt lat="35.744617" lon="139.853768"></trkpt>
      <trkpt lat="35.744532" lon="139.853677"></trkpt>
      <trkpt lat="35.744437" lon="139.853576"></trkpt>
      <trkpt lat="35.744363" lon="139.853499"></trkpt>
      <trkpt lat="35.744288" lon="139.853421"></trkpt>
      <trkpt lat="35.743913" lon="139.853032"></trkpt>
      <trkpt lat="35.743546" lon="139.852641"></trkpt>
      <trkpt lat="35.743144" lon="139.85222"></trkpt>
      <trkpt lat="35.742899" lon="139.851968"></trkpt>
      <trkpt lat="35.742511" lon="139.85157"></trkpt>
      <trkpt lat="35.742448" lon="139.851502"></trkpt>
      <trkpt lat="35.742489" lon="139.85142"></trkpt>
      <trkpt lat="35.742604" lon="139.851183"></trkpt>
      <trkpt lat="35.742602" lon="139.851088"></trkpt>
      <trkpt lat="35.742569" lon="139.850844"></trkpt>
      <trkpt lat="35.742437" lon="139.849816"></trkpt>
      <trkpt lat="35.742424" lon="139.849712"></trkpt>
      <trkpt lat="35.742416" lon="139.849633"></trkpt>
      <trkpt lat="35.742285" lon="139.848576"></trkpt>
      <trkpt lat="35.742265" lon="139.848428"></trkpt>
      <trkpt lat="35.742259" lon="139.848365"></trkpt>
      <trkpt lat="35.742255" lon="139.848323"></trkpt>
      <trkpt lat="35.742251" lon="139.848278"></trkpt>
      <trkpt lat="35.742245" lon="139.848211"></trkpt>
      <trkpt lat="35.742232" lon="139.848086"></trkpt>
      <trkpt lat="35.742175" lon="139.847709"></trkpt>
      <trkpt lat="35.7421" lon="139.847071"></trkpt>
      <trkpt lat="35.74192" lon="139.845501"></trkpt>
      <trkpt lat="35.741737" lon="139.843943"></trkpt>
      <trkpt lat="35.741536" lon="139.842242"></trkpt>
      <trkpt lat="35.741525" lon="139.842159"></trkpt>
      <trkpt lat="35.741516" lon="139.842074"></trkpt>
      <trkpt lat="35.741478" lon="139.841745"></trkpt>
      <trkpt lat="35.741414" lon="139.841185"></trkpt>
      <trkpt lat="35.741406" lon="139.841045"></trkpt>
      <trkpt lat="35.741399" lon="139.840923"></trkpt>
      <trkpt lat="35.74106" lon="139.840557"></trkpt>
      <trkpt lat="35.740702" lon="139.840182"></trkpt>
      <trkpt lat="35.740653" lon="139.840132"></trkpt>
      <trkpt lat="35.740432" lon="139.839906"></trkpt>
      <trkpt lat="35.740358" lon="139.839831"></trkpt>
      <trkpt lat="35.739921" lon="139.839341"></trkpt>
      <trkpt lat="35.739051" lon="139.838399"></trkpt>
      <trkpt lat="35.738436" lon="139.837737"></trkpt>
      <trkpt lat="35.73817" lon="139.837455"></trkpt>
      <trkpt lat="35.737952" lon="139.837206"></trkpt>
      <trkpt lat="35.73776" lon="139.836967"></trkpt>
      <trkpt lat="35.737247" lon="139.836298"></trkpt>
      <trkpt lat="35.736912" lon="139.835878"></trkpt>
      <trkpt lat="35.736601" lon="139.83549"></trkpt>
      <trkpt lat="35.736405" lon="139.835235"></trkpt>
      <trkpt lat="35.735736" lon="139.83433"></trkpt>
      <trkpt lat="35.735278" lon="139.833695"></trkpt>
      <trkpt lat="35.735175" lon="139.833533"></trkpt>
      <trkpt lat="35.735094" lon="139.833411"></trkpt>
      <trkpt lat="35.735028" lon="139.833307"></trkpt>
      <trkpt lat="35.734907" lon="139.83312"></trkpt>
      <trkpt lat="35.734622" lon="139.832732"></trkpt>
      <trkpt lat="35.734508" lon="139.83259"></trkpt>
      <trkpt lat="35.734039" lon="139.831936"></trkpt>
      <trkpt lat="35.733855" lon="139.831612"></trkpt>
      <trkpt lat="35.733448" lon="139.83108"></trkpt>
      <trkpt lat="35.733372" lon="139.830974"></trkpt>
      <trkpt lat="35.733322" lon="139.830908"></trkpt>
      <trkpt lat="35.730567" lon="139.827211"></trkpt>
      <trkpt lat="35.730556" lon="139.827195"></trkpt>
      <trkpt lat="35.730499" lon="139.827123"></trkpt>
      <trkpt lat="35.73044" lon="139.827055"></trkpt>
      <trkpt lat="35.729283" lon="139.825778"></trkpt>
      <trkpt lat="35.72922" lon="139.825707"></trkpt>
      <trkpt lat="35.728851" lon="139.825309"></trkpt>
      <trkpt lat="35.728699" lon="139.825136"></trkpt>
      <trkpt lat="35.728635" lon="139.825063"></trkpt>
      <trkpt lat="35.728532" lon="139.824949"></trkpt>
      <trkpt lat="35.727885" lon="139.824248"></trkpt>
      <trkpt lat="35.727737" lon="139.824087"></trkpt>
      <trkpt lat="35.72763" lon="139.823965"></trkpt>
      <trkpt lat="35.727348" lon="139.823663"></trkpt>
      <trkpt lat="35.727107" lon="139.823398"></trkpt>
      <trkpt lat="35.72701" lon="139.823296"></trkpt>
      <trkpt lat="35.726741" lon="139.823015"></trkpt>
      <trkpt lat="35.726631" lon="139.822892"></trkpt>
      <trkpt lat="35.726275" lon="139.822488"></trkpt>
      <trkpt lat="35.726095" lon="139.822298"></trkpt>
      <trkpt lat="35.725701" lon="139.821865"></trkpt>
      <trkpt lat="35.72557" lon="139.821721"></trkpt>
      <trkpt lat="35.725512" lon="139.82165"></trkpt>
      <trkpt lat="35.725414" lon="139.821545"></trkpt>
      <trkpt lat="35.725106" lon="139.821221"></trkpt>
      <trkpt lat="35.72489" lon="139.820994"></trkpt>
      <trkpt lat="35.724836" lon="139.820931"></trkpt>
      <trkpt lat="35.724776" lon="139.820865"></trkpt>
      <trkpt lat="35.724701" lon="139.820779"></trkpt>
      <trkpt lat="35.724658" lon="139.820732"></trkpt>
      <trkpt lat="35.724315" lon="139.820346"></trkpt>
      <trkpt lat="35.724218" lon="139.82024"></trkpt>
      <trkpt lat="35.723873" lon="139.819877"></trkpt>
      <trkpt lat="35.723677" lon="139.819664"></trkpt>
      <trkpt lat="35.723607" lon="139.819591"></trkpt>
      <trkpt lat="35.723562" lon="139.819545"></trkpt>
      <trkpt lat="35.723223" lon="139.819187"></trkpt>
      <trkpt lat="35.722931" lon="139.818865"></trkpt>
      <trkpt lat="35.722545" lon="139.818442"></trkpt>
      <trkpt lat="35.722458" lon="139.818353"></trkpt>
      <trkpt lat="35.722411" lon="139.818298"></trkpt>
      <trkpt lat="35.722331" lon="139.818208"></trkpt>
      <trkpt lat="35.722328" lon="139.818204"></trkpt>
      <trkpt lat="35.721973" lon="139.817796"></trkpt>
      <trkpt lat="35.721709" lon="139.817497"></trkpt>
      <trkpt lat="35.721653" lon="139.817435"></trkpt>
      <trkpt lat="35.721635" lon="139.817415"></trkpt>
      <trkpt lat="35.721596" lon="139.817371"></trkpt>
      <trkpt lat="35.721065" lon="139.816783"></trkpt>
      <trkpt lat="35.72065" lon="139.816321"></trkpt>
      <trkpt lat="35.720599" lon="139.816265"></trkpt>
      <trkpt lat="35.72054" lon="139.816198"></trkpt>
      <trkpt lat="35.720075" lon="139.815678"></trkpt>
      <trkpt lat="35.719994" lon="139.815586"></trkpt>
      <trkpt lat="35.71982" lon="139.815389"></trkpt>
      <trkpt lat="35.71978" lon="139.815342"></trkpt>
      <trkpt lat="35.719725" lon="139.81528"></trkpt>
      <trkpt lat="35.719584" lon="139.815121"></trkpt>
      <trkpt lat="35.718908" lon="139.814363"></trkpt>
      <trkpt lat="35.718838" lon="139.814285"></trkpt>
      <trkpt lat="35.718667" lon="139.814098"></trkpt>
      <trkpt lat="35.718512" lon="139.813927"></trkpt>
      <trkpt lat="35.718072" lon="139.81342"></trkpt>
      <trkpt lat="35.718038" lon="139.813377"></trkpt>
      <trkpt lat="35.717941" lon="139.813251"></trkpt>
      <trkpt lat="35.717795" lon="139.813036"></trkpt>
      <trkpt lat="35.717685" lon="139.812881"></trkpt>
      <trkpt lat="35.717596" lon="139.812745"></trkpt>
      <trkpt lat="35.717568" lon="139.812704"></trkpt>
      <trkpt lat="35.717517" lon="139.81262"></trkpt>
      <trkpt lat="35.717472" lon="139.812548"></trkpt>
      <trkpt lat="35.717442" lon="139.812503"></trkpt>
      <trkpt lat="35.717392" lon="139.81243"></trkpt>
      <trkpt lat="35.717343" lon="139.812359"></trkpt>
      <trkpt lat="35.717271" lon="139.812265"></trkpt>
      <trkpt lat="35.717228" lon="139.812208"></trkpt>
      <trkpt lat="35.717024" lon="139.811902"></trkpt>
      <trkpt lat="35.71698" lon="139.811838"></trkpt>
      <trkpt lat="35.716929" lon="139.811765"></trkpt>
      <trkpt lat="35.716899" lon="139.811719"></trkpt>
      <trkpt lat="35.716881" lon="139.811692"></trkpt>
      <trkpt lat="35.716782" lon="139.81154"></trkpt>
      <trkpt lat="35.716436" lon="139.811018"></trkpt>
      <trkpt lat="35.716397" lon="139.81096"></trkpt>
      <trkpt lat="35.716361" lon="139.810904"></trkpt>
      <trkpt lat="35.716274" lon="139.810775"></trkpt>
      <trkpt lat="35.716244" lon="139.810731"></trkpt>
      <trkpt lat="35.71583" lon="139.810127"></trkpt>
      <trkpt lat="35.715773" lon="139.810043"></trkpt>
      <trkpt lat="35.715718" lon="139.809961"></trkpt>
      <trkpt lat="35.7155" lon="139.809635"></trkpt>
      <trkpt lat="35.715275" lon="139.809301"></trkpt>
      <trkpt lat="35.714863" lon="139.808689"></trkpt>
      <trkpt lat="35.714827" lon="139.808635"></trkpt>
      <trkpt lat="35.714788" lon="139.808577"></trkpt>
      <trkpt lat="35.714569" lon="139.80826"></trkpt>
      <trkpt lat="35.714432" lon="139.808062"></trkpt>
      <trkpt lat="35.714244" lon="139.807777"></trkpt>
      <trkpt lat="35.713883" lon="139.807229"></trkpt>
      <trkpt lat="35.713846" lon="139.807174"></trkpt>
      <trkpt lat="35.713516" lon="139.806687"></trkpt>
      <trkpt lat="35.71297" lon="139.805892"></trkpt>
      <trkpt lat="35.712879" lon="139.805758"></trkpt>
      <trkpt lat="35.712964" lon="139.80559"></trkpt>
      <trkpt lat="35.713027" lon="139.805479"></trkpt>
      <trkpt lat="35.713048" lon="139.805442"></trkpt>
      <trkpt lat="35.713165" lon="139.805198"></trkpt>
      <trkpt lat="35.713296" lon="139.804923"></trkpt>
      <trkpt lat="35.713377" lon="139.804767"></trkpt>
      <trkpt lat="35.713477" lon="139.804576"></trkpt>
      <trkpt lat="35.714842" lon="139.802351"></trkpt>
      <trkpt lat="35.714996" lon="139.802083"></trkpt>
      <trkpt lat="35.715041" lon="139.801998"></trkpt>
      <trkpt lat="35.715063" lon="139.801937"></trkpt>
      <trkpt lat="35.715101" lon="139.801805"></trkpt>
      <trkpt lat="35.715118" lon="139.801727"></trkpt>
      <trkpt lat="35.715156" lon="139.801546"></trkpt>
      <trkpt lat="35.715173" lon="139.801466"></trkpt>
      <trkpt lat="35.715237" lon="139.801193"></trkpt>
      <trkpt lat="35.715292" lon="139.800927"></trkpt>
      <trkpt lat="35.715348" lon="139.800684"></trkpt>
      <trkpt lat="35.715436" lon="139.800305"></trkpt>
      <trkpt lat="35.715467" lon="139.800158"></trkpt>
      <trkpt lat="35.715525" lon="139.799907"></trkpt>
      <trkpt lat="35.715537" lon="139.799856"></trkpt>
      <trkpt lat="35.715596" lon="139.799598"></trkpt>
      <trkpt lat="35.715702" lon="139.799137"></trkpt>
      <trkpt lat="35.715709" lon="139.799106"></trkpt>
      <trkpt lat="35.71576" lon="139.798864"></trkpt>
      <trkpt lat="35.715773" lon="139.798805"></trkpt>
      <trkpt lat="35.715778" lon="139.798778"></trkpt>
      <trkpt lat="35.715764" lon="139.798667"></trkpt>
      <trkpt lat="35.715665" lon="139.79864"></trkpt>
      <trkpt lat="35.715436" lon="139.798578"></trkpt>
      <trkpt lat="35.715198" lon="139.798521"></trkpt>
      <trkpt lat="35.714741" lon="139.798402"></trkpt>
      <trkpt lat="35.714399" lon="139.798309"></trkpt>
      <trkpt lat="35.714355" lon="139.798298"></trkpt>
      <trkpt lat="35.714262" lon="139.798274"></trkpt>
      <trkpt lat="35.714185" lon="139.798254"></trkpt>
      <trkpt lat="35.713459" lon="139.79806"></trkpt>
      <trkpt lat="35.713388" lon="139.798042"></trkpt>
      <trkpt lat="35.713008" lon="139.797949"></trkpt>
    </trkseg>
  </trk>
</gpx>