<?xml version="1.0" encoding="UTF-8"?>
<gpx version="1.1" creator="rebuild_routes_brouter.py" xmlns="http://www.topografix.com/GPX/1/1">
<metadata><name>Day 13 rebuilt (trekking)</name></metadata>
<trk><name>Day 13 rebuilt (trekking)</name><trkseg>
<trkpt lat="35.308101" lon="139.482062"><ele>5.5</ele></trkpt>
<trkpt lat="35.308054" lon="139.482177"><ele>5.5</ele></trkpt>
<trkpt lat="35.308037" lon="139.482225"><ele>5.2</ele></trkpt>
<trkpt lat="35.308013" lon="139.482265"><ele>5.2</ele></trkpt>
<trkpt lat="35.308000" lon="139.482273"><ele>5.2</ele></trkpt>
<trkpt lat="35.307973" lon="139.482354"><ele>5.0</ele></trkpt>
<trkpt lat="35.308039" lon="139.482392"><ele>5.5</ele></trkpt>
<trkpt lat="35.308121" lon="139.482454"><ele>5.8</ele></trkpt>
<trkpt lat="35.308196" lon="139.482525"><ele>6.0</ele></trkpt>
<trkpt lat="35.308288" lon="139.482622"><ele>6.0</ele></trkpt>
<trkpt lat="35.308327" lon="139.482665"><ele>6.0</ele></trkpt>
<trkpt lat="35.308605" lon="139.482976"><ele>4.8</ele></trkpt>
<trkpt lat="35.308616" lon="139.483014"><ele>4.8</ele></trkpt>
<trkpt lat="35.308621" lon="139.483112"><ele>4.5</ele></trkpt>
<trkpt lat="35.308627" lon="139.483221"><ele>4.2</ele></trkpt>
<trkpt lat="35.308630" lon="139.483262"><ele>4.2</ele></trkpt>
<trkpt lat="35.308623" lon="139.483421"><ele>3.8</ele></trkpt>
<trkpt lat="35.308616" lon="139.483576"><ele>3.0</ele></trkpt>
<trkpt lat="35.308592" lon="139.483608"><ele>3.0</ele></trkpt>
<trkpt lat="35.308581" lon="139.483621"><ele>2.8</ele></trkpt>
<trkpt lat="35.308479" lon="139.483756"><ele>2.0</ele></trkpt>
<trkpt lat="35.308475" lon="139.483761"><ele>2.0</ele></trkpt>
<trkpt lat="35.307942" lon="139.484460"><ele>3.8</ele></trkpt>
<trkpt lat="35.307926" lon="139.484481"><ele>4.0</ele></trkpt>
<trkpt lat="35.307790" lon="139.484730"><ele>7.0</ele></trkpt>
<trkpt lat="35.307752" lon="139.484800"><ele>8.0</ele></trkpt>
<trkpt lat="35.308254" lon="139.485323"><ele>7.5</ele></trkpt>
<trkpt lat="35.308368" lon="139.485439"><ele>7.5</ele></trkpt>
<trkpt lat="35.308466" lon="139.485539"><ele>7.2</ele></trkpt>
<trkpt lat="35.307912" lon="139.486455"><ele>7.0</ele></trkpt>
<trkpt lat="35.307932" lon="139.486500"><ele>7.0</ele></trkpt>
<trkpt lat="35.308016" lon="139.486637"><ele>6.8</ele></trkpt>
<trkpt lat="35.308149" lon="139.486806"><ele>6.8</ele></trkpt>
<trkpt lat="35.308178" lon="139.486852"><ele>6.8</ele></trkpt>
<trkpt lat="35.308241" lon="139.486982"><ele>6.8</ele></trkpt>
<trkpt lat="35.308194" lon="139.487015"><ele>6.8</ele></trkpt>
<trkpt lat="35.308134" lon="139.487058"><ele>6.5</ele></trkpt>
<trkpt lat="35.308222" lon="139.487175"><ele>6.5</ele></trkpt>
<trkpt lat="35.308259" lon="139.487315"><ele>6.5</ele></trkpt>
<trkpt lat="35.308294" lon="139.487560"><ele>6.5</ele></trkpt>
<trkpt lat="35.308300" lon="139.487735"><ele>6.2</ele></trkpt>
<trkpt lat="35.308304" lon="139.488928"><ele>6.0</ele></trkpt>
<trkpt lat="35.308307" lon="139.489134"><ele>5.8</ele></trkpt>
<trkpt lat="35.308307" lon="139.489317"><ele>5.8</ele></trkpt>
<trkpt lat="35.308312" lon="139.490362"><ele>5.2</ele></trkpt>
<trkpt lat="35.308293" lon="139.490732"><ele>5.2</ele></trkpt>
<trkpt lat="35.308271" lon="139.490908"><ele>5.2</ele></trkpt>
<trkpt lat="35.308242" lon="139.491111"><ele>5.0</ele></trkpt>
<trkpt lat="35.308208" lon="139.491278"><ele>5.0</ele></trkpt>
<trkpt lat="35.308146" lon="139.491505"><ele>5.0</ele></trkpt>
<trkpt lat="35.308091" lon="139.491679"><ele>4.8</ele></trkpt>
<trkpt lat="35.308044" lon="139.491806"><ele>5.0</ele></trkpt>
<trkpt lat="35.308014" lon="139.491889"><ele>4.8</ele></trkpt>
<trkpt lat="35.307993" lon="139.491942"><ele>4.5</ele></trkpt>
<trkpt lat="35.307984" lon="139.491965"><ele>4.5</ele></trkpt>
<trkpt lat="35.307927" lon="139.492104"><ele>4.2</ele></trkpt>
<trkpt lat="35.307860" lon="139.492266"><ele>4.0</ele></trkpt>
<trkpt lat="35.307755" lon="139.492480"><ele>3.8</ele></trkpt>
<trkpt lat="35.307632" lon="139.492700"><ele>4.2</ele></trkpt>
<trkpt lat="35.307590" lon="139.492768"><ele>4.8</ele></trkpt>
<trkpt lat="35.307540" lon="139.492844"><ele>5.0</ele></trkpt>
<trkpt lat="35.307446" lon="139.492995"><ele>6.0</ele></trkpt>
<trkpt lat="35.306883" lon="139.493865"><ele>13.0</ele></trkpt>
<trkpt lat="35.306785" lon="139.494021"><ele>13.8</ele></trkpt>
<trkpt lat="35.306729" lon="139.494128"><ele>14.5</ele></trkpt>
<trkpt lat="35.306676" lon="139.494264"><ele>14.2</ele></trkpt>
<trkpt lat="35.306611" lon="139.494498"><ele>14.2</ele></trkpt>
<trkpt lat="35.306594" lon="139.494656"><ele>14.2</ele></trkpt>
<trkpt lat="35.306583" lon="139.494889"><ele>14.2</ele></trkpt>
<trkpt lat="35.306577" lon="139.495030"><ele>14.0</ele></trkpt>
<trkpt lat="35.306564" lon="139.495584"><ele>14.0</ele></trkpt>
<trkpt lat="35.306572" lon="139.495797"><ele>13.8</ele></trkpt>
<trkpt lat="35.306602" lon="139.496015"><ele>13.8</ele></trkpt>
<trkpt lat="35.306681" lon="139.496471"><ele>13.8</ele></trkpt>
<trkpt lat="35.306710" lon="139.496666"><ele>13.8</ele></trkpt>
<trkpt lat="35.306736" lon="139.496895"><ele>14.2</ele></trkpt>
<trkpt lat="35.306750" lon="139.497139"><ele>14.5</ele></trkpt>
<trkpt lat="35.306751" lon="139.497327"><ele>14.5</ele></trkpt>
<trkpt lat="35.306716" lon="139.497801"><ele>14.5</ele></trkpt>
<trkpt lat="35.306626" lon="139.498923"><ele>15.0</ele></trkpt>
<trkpt lat="35.306621" lon="139.499161"><ele>15.0</ele></trkpt>
<trkpt lat="35.306615" lon="139.499857"><ele>15.2</ele></trkpt>
<trkpt lat="35.306604" lon="139.500323"><ele>15.2</ele></trkpt>
<trkpt lat="35.306596" lon="139.500909"><ele>15.5</ele></trkpt>
<trkpt lat="35.306582" lon="139.501315"><ele>15.8</ele></trkpt>
<trkpt lat="35.306560" lon="139.501560"><ele>15.8</ele></trkpt>
<trkpt lat="35.306513" lon="139.501973"><ele>16.0</ele></trkpt>
<trkpt lat="35.306500" lon="139.502083"><ele>16.0</ele></trkpt>
<trkpt lat="35.306383" lon="139.503266"><ele>16.2</ele></trkpt>
<trkpt lat="35.306123" lon="139.505628"><ele>17.0</ele></trkpt>
<trkpt lat="35.306081" lon="139.505981"><ele>17.2</ele></trkpt>
<trkpt lat="35.306018" lon="139.506351"><ele>17.5</ele></trkpt>
<trkpt lat="35.305973" lon="139.506553"><ele>17.5</ele></trkpt>
<trkpt lat="35.305895" lon="139.506897"><ele>16.2</ele></trkpt>
<trkpt lat="35.305738" lon="139.507482"><ele>14.5</ele></trkpt>
<trkpt lat="35.305672" lon="139.507774"><ele>13.5</ele></trkpt>
<trkpt lat="35.305618" lon="139.508065"><ele>12.5</ele></trkpt>
<trkpt lat="35.305567" lon="139.508421"><ele>11.5</ele></trkpt>
<trkpt lat="35.305408" lon="139.509703"><ele>7.2</ele></trkpt>
<trkpt lat="35.305402" lon="139.509765"><ele>7.5</ele></trkpt>
<trkpt lat="35.305331" lon="139.510368"><ele>8.2</ele></trkpt>
<trkpt lat="35.305316" lon="139.510483"><ele>8.8</ele></trkpt>
<trkpt lat="35.305308" lon="139.510550"><ele>9.0</ele></trkpt>
<trkpt lat="35.305293" lon="139.510676"><ele>9.5</ele></trkpt>
<trkpt lat="35.305264" lon="139.510925"><ele>10.2</ele></trkpt>
<trkpt lat="35.305181" lon="139.511390"><ele>10.0</ele></trkpt>
<trkpt lat="35.305096" lon="139.511756"><ele>9.5</ele></trkpt>
<trkpt lat="35.304849" lon="139.512657"><ele>8.8</ele></trkpt>
<trkpt lat="35.304589" lon="139.513534"><ele>7.8</ele></trkpt>
<trkpt lat="35.304424" lon="139.514086"><ele>7.8</ele></trkpt>
<trkpt lat="35.304165" lon="139.514971"><ele>7.8</ele></trkpt>
<trkpt lat="35.303899" lon="139.515873"><ele>7.8</ele></trkpt>
<trkpt lat="35.303824" lon="139.516165"><ele>7.8</ele></trkpt>
<trkpt lat="35.303758" lon="139.516456"><ele>7.8</ele></trkpt>
<trkpt lat="35.303663" lon="139.516921"><ele>7.8</ele></trkpt>
<trkpt lat="35.303377" lon="139.518645"><ele>7.8</ele></trkpt>
<trkpt lat="35.303350" lon="139.518819"><ele>7.8</ele></trkpt>
<trkpt lat="35.303307" lon="139.519186"><ele>7.8</ele></trkpt>
<trkpt lat="35.303290" lon="139.519463"><ele>7.8</ele></trkpt>
<trkpt lat="35.303284" lon="139.519720"><ele>7.8</ele></trkpt>
<trkpt lat="35.303287" lon="139.519969"><ele>7.8</ele></trkpt>
<trkpt lat="35.303303" lon="139.520381"><ele>7.8</ele></trkpt>
<trkpt lat="35.303312" lon="139.520507"><ele>7.8</ele></trkpt>
<trkpt lat="35.303363" lon="139.521012"><ele>7.8</ele></trkpt>
<trkpt lat="35.303379" lon="139.521514"><ele>7.8</ele></trkpt>
<trkpt lat="35.303379" lon="139.521534"><ele>7.8</ele></trkpt>
<trkpt lat="35.303372" lon="139.521924"><ele>8.8</ele></trkpt>
<trkpt lat="35.303345" lon="139.522232"><ele>8.5</ele></trkpt>
<trkpt lat="35.303306" lon="139.522488"><ele>8.5</ele></trkpt>
<trkpt lat="35.303299" lon="139.522536"><ele>8.5</ele></trkpt>
<trkpt lat="35.303285" lon="139.522616"><ele>8.5</ele></trkpt>
<trkpt lat="35.303253" lon="139.522810"><ele>8.5</ele></trkpt>
<trkpt lat="35.303174" lon="139.523205"><ele>8.5</ele></trkpt>
<trkpt lat="35.303021" lon="139.523963"><ele>8.5</ele></trkpt>
<trkpt lat="35.303006" lon="139.524041"><ele>8.5</ele></trkpt>
<trkpt lat="35.302915" lon="139.524498"><ele>8.2</ele></trkpt>
<trkpt lat="35.302910" lon="139.524542"><ele>8.5</ele></trkpt>
<trkpt lat="35.302862" lon="139.524921"><ele>11.2</ele></trkpt>
<trkpt lat="35.302822" lon="139.525526"><ele>16.8</ele></trkpt>
<trkpt lat="35.302795" lon="139.526405"><ele>21.2</ele></trkpt>
<trkpt lat="35.302797" lon="139.526733"><ele>22.0</ele></trkpt>
<trkpt lat="35.302834" lon="139.527187"><ele>22.5</ele></trkpt>
<trkpt lat="35.302875" lon="139.527491"><ele>23.2</ele></trkpt>
<trkpt lat="35.302995" lon="139.528092"><ele>18.8</ele></trkpt>
<trkpt lat="35.303134" lon="139.528586"><ele>15.0</ele></trkpt>
<trkpt lat="35.303249" lon="139.528970"><ele>12.2</ele></trkpt>
<trkpt lat="35.303445" lon="139.529594"><ele>10.8</ele></trkpt>
<trkpt lat="35.303788" lon="139.530734"><ele>8.0</ele></trkpt>
<trkpt lat="35.303911" lon="139.531086"><ele>7.2</ele></trkpt>
<trkpt lat="35.304003" lon="139.531290"><ele>6.8</ele></trkpt>
<trkpt lat="35.304222" lon="139.531620"><ele>6.8</ele></trkpt>
<trkpt lat="35.304454" lon="139.531881"><ele>6.8</ele></trkpt>
<trkpt lat="35.304632" lon="139.532037"><ele>6.8</ele></trkpt>
<trkpt lat="35.304807" lon="139.532155"><ele>6.8</ele></trkpt>
<trkpt lat="35.305332" lon="139.532449"><ele>6.8</ele></trkpt>
<trkpt lat="35.306609" lon="139.533171"><ele>7.5</ele></trkpt>
<trkpt lat="35.306960" lon="139.533357"><ele>7.5</ele></trkpt>
<trkpt lat="35.307158" lon="139.533438"><ele>7.5</ele></trkpt>
<trkpt lat="35.307440" lon="139.533511"><ele>7.8</ele></trkpt>
<trkpt lat="35.308027" lon="139.533639"><ele>8.0</ele></trkpt>
<trkpt lat="35.308431" lon="139.533730"><ele>8.2</ele></trkpt>
<trkpt lat="35.308580" lon="139.533789"><ele>8.2</ele></trkpt>
<trkpt lat="35.308689" lon="139.533854"><ele>8.0</ele></trkpt>
<trkpt lat="35.308768" lon="139.533926"><ele>8.0</ele></trkpt>
<trkpt lat="35.308833" lon="139.533984"><ele>7.8</ele></trkpt>
<trkpt lat="35.308906" lon="139.534086"><ele>7.5</ele></trkpt>
<trkpt lat="35.308999" lon="139.534246"><ele>7.2</ele></trkpt>
<trkpt lat="35.309125" lon="139.534643"><ele>7.0</ele></trkpt>
<trkpt lat="35.309142" lon="139.534709"><ele>7.0</ele></trkpt>
<trkpt lat="35.309157" lon="139.534764"><ele>7.0</ele></trkpt>
<trkpt lat="35.309324" lon="139.535391"><ele>6.5</ele></trkpt>
<trkpt lat="35.309338" lon="139.535443"><ele>6.5</ele></trkpt>
<trkpt lat="35.309402" lon="139.535422"><ele>6.8</ele></trkpt>
<trkpt lat="35.309747" lon="139.535308"><ele>8.2</ele></trkpt>
<trkpt lat="35.310054" lon="139.535207"><ele>9.5</ele></trkpt>
<trkpt lat="35.310494" lon="139.535092"><ele>9.8</ele></trkpt>
<trkpt lat="35.310669" lon="139.535030"><ele>9.8</ele></trkpt>
<trkpt lat="35.310913" lon="139.534932"><ele>9.8</ele></trkpt>
<trkpt lat="35.310898" lon="139.534867"><ele>9.8</ele></trkpt>
<trkpt lat="35.310935" lon="139.534855"><ele>9.5</ele></trkpt>
<trkpt lat="35.311140" lon="139.534747"><ele>9.5</ele></trkpt>
<trkpt lat="35.311540" lon="139.534712"><ele>9.2</ele></trkpt>
<trkpt lat="35.312062" lon="139.534651"><ele>9.2</ele></trkpt>
<trkpt lat="35.312114" lon="139.534971"><ele>9.0</ele></trkpt>
<trkpt lat="35.312186" lon="139.535411"><ele>9.0</ele></trkpt>
<trkpt lat="35.312191" lon="139.535447"><ele>9.0</ele></trkpt>
<trkpt lat="35.312426" lon="139.535380"><ele>9.2</ele></trkpt>
<trkpt lat="35.312751" lon="139.535264"><ele>9.8</ele></trkpt>
<trkpt lat="35.312818" lon="139.535256"><ele>9.8</ele></trkpt>
<trkpt lat="35.312856" lon="139.535465"><ele>9.5</ele></trkpt>
<trkpt lat="35.312883" lon="139.535690"><ele>9.5</ele></trkpt>
<trkpt lat="35.312891" lon="139.535753"><ele>9.5</ele></trkpt>
<trkpt lat="35.312901" lon="139.535840"><ele>9.2</ele></trkpt>
<trkpt lat="35.312919" lon="139.535983"><ele>9.5</ele></trkpt>
<trkpt lat="35.312933" lon="139.536080"><ele>9.5</ele></trkpt>
<trkpt lat="35.313094" lon="139.536010"><ele>9.8</ele></trkpt>
<trkpt lat="35.313245" lon="139.535915"><ele>10.0</ele></trkpt>
<trkpt lat="35.313458" lon="139.535693"><ele>11.0</ele></trkpt>
<trkpt lat="35.313754" lon="139.535430"><ele>12.2</ele></trkpt>
<trkpt lat="35.313839" lon="139.535378"><ele>12.2</ele></trkpt>
<trkpt lat="35.313918" lon="139.535351"><ele>12.5</ele></trkpt>
<trkpt lat="35.314158" lon="139.535238"><ele>12.5</ele></trkpt>
<trkpt lat="35.314331" lon="139.535225"><ele>13.0</ele></trkpt>
<trkpt lat="35.314441" lon="139.535236"><ele>13.2</ele></trkpt>
<trkpt lat="35.314855" lon="139.535318"><ele>15.2</ele></trkpt>
<trkpt lat="35.315068" lon="139.535402"><ele>16.5</ele></trkpt>
<trkpt lat="35.315219" lon="139.535606"><ele>17.5</ele></trkpt>
<trkpt lat="35.315401" lon="139.535767"><ele>17.5</ele></trkpt>
<trkpt lat="35.315673" lon="139.535912"><ele>17.8</ele></trkpt>
<trkpt lat="35.315863" lon="139.536012"><ele>18.8</ele></trkpt>
<trkpt lat="35.316221" lon="139.536273"><ele>22.8</ele></trkpt>
<trkpt lat="35.316533" lon="139.536596"><ele>25.8</ele></trkpt>
<trkpt lat="35.316568" lon="139.536692"><ele>26.2</ele></trkpt>
<trkpt lat="35.316756" lon="139.537279"><ele>23.5</ele></trkpt>
<trkpt lat="35.316832" lon="139.537422"><ele>23.2</ele></trkpt>
<trkpt lat="35.316958" lon="139.537514"><ele>23.8</ele></trkpt>
<trkpt lat="35.317094" lon="139.537557"><ele>24.8</ele></trkpt>
<trkpt lat="35.317399" lon="139.537629"><ele>26.8</ele></trkpt>
<trkpt lat="35.317414" lon="139.537636"><ele>26.8</ele></trkpt>
<trkpt lat="35.318048" lon="139.537808"><ele>28.2</ele></trkpt>
<trkpt lat="35.318634" lon="139.537978"><ele>27.5</ele></trkpt>
<trkpt lat="35.319198" lon="139.538130"><ele>26.2</ele></trkpt>
<trkpt lat="35.319236" lon="139.538139"><ele>26.2</ele></trkpt>
<trkpt lat="35.320038" lon="139.538385"><ele>25.8</ele></trkpt>
<trkpt lat="35.320053" lon="139.538390"><ele>26.0</ele></trkpt>
<trkpt lat="35.321139" lon="139.538681"><ele>35.5</ele></trkpt>
<trkpt lat="35.321150" lon="139.538416"><ele>34.5</ele></trkpt>
<trkpt lat="35.321176" lon="139.538146"><ele>40.0</ele></trkpt>
<trkpt lat="35.321201" lon="139.537999"><ele>44.5</ele></trkpt>
<trkpt lat="35.321246" lon="139.537795"><ele>50.5</ele></trkpt>
<trkpt lat="35.321512" lon="139.536472"><ele>58.2</ele></trkpt>
<trkpt lat="35.321610" lon="139.535983"><ele>49.2</ele></trkpt>
<trkpt lat="35.321880" lon="139.534592"><ele>43.0</ele></trkpt>
<trkpt lat="35.321929" lon="139.534358"><ele>41.2</ele></trkpt>
<trkpt lat="35.321993" lon="139.534060"><ele>40.2</ele></trkpt>
<trkpt lat="35.322031" lon="139.533883"><ele>41.2</ele></trkpt>
<trkpt lat="35.322213" lon="139.533004"><ele>40.5</ele></trkpt>
<trkpt lat="35.322385" lon="139.532134"><ele>34.0</ele></trkpt>
<trkpt lat="35.322439" lon="139.531819"><ele>31.8</ele></trkpt>
<trkpt lat="35.322453" lon="139.531506"><ele>29.8</ele></trkpt>
<trkpt lat="35.322422" lon="139.531238"><ele>28.5</ele></trkpt>
<trkpt lat="35.322396" lon="139.531087"><ele>28.0</ele></trkpt>
<trkpt lat="35.322299" lon="139.530691"><ele>27.0</ele></trkpt>
<trkpt lat="35.322114" lon="139.529942"><ele>24.8</ele></trkpt>
<trkpt lat="35.321965" lon="139.529351"><ele>23.2</ele></trkpt>
<trkpt lat="35.321946" lon="139.529189"><ele>23.0</ele></trkpt>
<trkpt lat="35.321948" lon="139.528869"><ele>23.0</ele></trkpt>
<trkpt lat="35.321982" lon="139.528086"><ele>23.5</ele></trkpt>
<trkpt lat="35.321983" lon="139.528060"><ele>23.5</ele></trkpt>
<trkpt lat="35.321999" lon="139.527704"><ele>24.0</ele></trkpt>
<trkpt lat="35.321999" lon="139.527689"><ele>24.0</ele></trkpt>
<trkpt lat="35.322003" lon="139.527599"><ele>24.0</ele></trkpt>
<trkpt lat="35.322015" lon="139.527336"><ele>23.8</ele></trkpt>
<trkpt lat="35.322042" lon="139.526721"><ele>21.2</ele></trkpt>
<trkpt lat="35.321996" lon="139.526566"><ele>20.8</ele></trkpt>
<trkpt lat="35.321979" lon="139.526523"><ele>20.8</ele></trkpt>
<trkpt lat="35.321957" lon="139.526493"><ele>20.5</ele></trkpt>
<trkpt lat="35.321888" lon="139.526429"><ele>20.2</ele></trkpt>
<trkpt lat="35.321725" lon="139.526332"><ele>19.8</ele></trkpt>
<trkpt lat="35.322719" lon="139.525027"><ele>18.0</ele></trkpt>
<trkpt lat="35.323041" lon="139.524681"><ele>19.5</ele></trkpt>
<trkpt lat="35.323524" lon="139.524259"><ele>18.8</ele></trkpt>
<trkpt lat="35.323627" lon="139.524185"><ele>19.0</ele></trkpt>
<trkpt lat="35.323721" lon="139.524146"><ele>19.0</ele></trkpt>
<trkpt lat="35.324397" lon="139.523922"><ele>19.5</ele></trkpt>
<trkpt lat="35.324544" lon="139.523873"><ele>19.8</ele></trkpt>
<trkpt lat="35.325823" lon="139.523443"><ele>18.5</ele></trkpt>
<trkpt lat="35.327169" lon="139.522988"><ele>18.0</ele></trkpt>
<trkpt lat="35.327641" lon="139.522499"><ele>17.2</ele></trkpt>
<trkpt lat="35.327749" lon="139.522403"><ele>16.8</ele></trkpt>
<trkpt lat="35.328022" lon="139.522161"><ele>15.2</ele></trkpt>
<trkpt lat="35.328153" lon="139.522045"><ele>14.8</ele></trkpt>
<trkpt lat="35.328200" lon="139.522003"><ele>14.5</ele></trkpt>
<trkpt lat="35.328327" lon="139.521809"><ele>14.0</ele></trkpt>
<trkpt lat="35.328451" lon="139.521619"><ele>14.0</ele></trkpt>
<trkpt lat="35.329134" lon="139.520586"><ele>13.5</ele></trkpt>
<trkpt lat="35.329173" lon="139.520521"><ele>13.0</ele></trkpt>
<trkpt lat="35.329176" lon="139.520477"><ele>13.0</ele></trkpt>
<trkpt lat="35.329235" lon="139.520157"><ele>12.2</ele></trkpt>
<trkpt lat="35.329333" lon="139.519753"><ele>12.0</ele></trkpt>
<trkpt lat="35.329576" lon="139.518524"><ele>15.2</ele></trkpt>
<trkpt lat="35.329579" lon="139.518490"><ele>15.5</ele></trkpt>
<trkpt lat="35.329662" lon="139.518049"><ele>16.2</ele></trkpt>
<trkpt lat="35.329720" lon="139.517664"><ele>16.2</ele></trkpt>
<trkpt lat="35.330236" lon="139.517780"><ele>15.2</ele></trkpt>
<trkpt lat="35.331077" lon="139.517409"><ele>14.5</ele></trkpt>
<trkpt lat="35.331109" lon="139.517430"><ele>14.8</ele></trkpt>
<trkpt lat="35.331177" lon="139.517472"><ele>14.8</ele></trkpt>
<trkpt lat="35.331186" lon="139.517477"><ele>14.8</ele></trkpt>
<trkpt lat="35.331202" lon="139.517486"><ele>14.8</ele></trkpt>
<trkpt lat="35.331553" lon="139.517710"><ele>14.2</ele></trkpt>
<trkpt lat="35.332003" lon="139.517998"><ele>14.0</ele></trkpt>
<trkpt lat="35.332150" lon="139.518138"><ele>14.2</ele></trkpt>
<trkpt lat="35.332338" lon="139.518335"><ele>15.0</ele></trkpt>
<trkpt lat="35.332569" lon="139.518594"><ele>14.8</ele></trkpt>
<trkpt lat="35.332623" lon="139.518648"><ele>14.2</ele></trkpt>
<trkpt lat="35.332826" lon="139.518846"><ele>13.0</ele></trkpt>
<trkpt lat="35.333316" lon="139.519367"><ele>11.0</ele></trkpt>
<trkpt lat="35.333370" lon="139.519423"><ele>10.8</ele></trkpt>
<trkpt lat="35.333611" lon="139.519674"><ele>10.2</ele></trkpt>
<trkpt lat="35.334260" lon="139.520390"><ele>12.5</ele></trkpt>
<trkpt lat="35.334373" lon="139.520514"><ele>13.5</ele></trkpt>
<trkpt lat="35.334484" lon="139.520616"><ele>14.2</ele></trkpt>
<trkpt lat="35.334821" lon="139.520970"><ele>17.0</ele></trkpt>
<trkpt lat="35.334965" lon="139.521123"><ele>17.8</ele></trkpt>
<trkpt lat="35.335028" lon="139.521190"><ele>18.2</ele></trkpt>
<trkpt lat="35.335783" lon="139.522009"><ele>30.8</ele></trkpt>
<trkpt lat="35.335996" lon="139.522201"><ele>32.0</ele></trkpt>
<trkpt lat="35.336185" lon="139.522332"><ele>32.2</ele></trkpt>
<trkpt lat="35.336472" lon="139.522460"><ele>32.8</ele></trkpt>
<trkpt lat="35.336722" lon="139.522518"><ele>32.5</ele></trkpt>
<trkpt lat="35.337103" lon="139.522595"><ele>29.0</ele></trkpt>
<trkpt lat="35.337946" lon="139.522741"><ele>24.8</ele></trkpt>
<trkpt lat="35.338256" lon="139.522805"><ele>23.8</ele></trkpt>
<trkpt lat="35.338347" lon="139.522827"><ele>23.5</ele></trkpt>
<trkpt lat="35.338511" lon="139.522876"><ele>23.0</ele></trkpt>
<trkpt lat="35.338751" lon="139.522962"><ele>22.2</ele></trkpt>
<trkpt lat="35.338965" lon="139.523092"><ele>21.8</ele></trkpt>
<trkpt lat="35.339244" lon="139.523321"><ele>21.5</ele></trkpt>
<trkpt lat="35.339552" lon="139.523552"><ele>25.0</ele></trkpt>
<trkpt lat="35.340169" lon="139.524022"><ele>28.5</ele></trkpt>
<trkpt lat="35.340554" lon="139.524337"><ele>29.0</ele></trkpt>
<trkpt lat="35.340693" lon="139.524490"><ele>27.2</ele></trkpt>
<trkpt lat="35.341100" lon="139.525033"><ele>21.0</ele></trkpt>
<trkpt lat="35.341364" lon="139.525358"><ele>19.0</ele></trkpt>
<trkpt lat="35.341762" lon="139.525761"><ele>16.2</ele></trkpt>
<trkpt lat="35.342144" lon="139.526146"><ele>17.8</ele></trkpt>
<trkpt lat="35.342171" lon="139.526175"><ele>17.8</ele></trkpt>
<trkpt lat="35.343088" lon="139.527064"><ele>16.8</ele></trkpt>
<trkpt lat="35.343128" lon="139.527102"><ele>16.5</ele></trkpt>
<trkpt lat="35.343766" lon="139.527719"><ele>15.2</ele></trkpt>
<trkpt lat="35.343870" lon="139.527821"><ele>15.0</ele></trkpt>
<trkpt lat="35.344040" lon="139.527988"><ele>14.5</ele></trkpt>
<trkpt lat="35.344145" lon="139.528092"><ele>14.0</ele></trkpt>
<trkpt lat="35.344286" lon="139.528214"><ele>13.5</ele></trkpt>
<trkpt lat="35.344419" lon="139.528347"><ele>13.2</ele></trkpt>
<trkpt lat="35.344560" lon="139.528490"><ele>13.0</ele></trkpt>
<trkpt lat="35.344831" lon="139.528747"><ele>13.0</ele></trkpt>
<trkpt lat="35.344964" lon="139.528881"><ele>13.2</ele></trkpt>
<trkpt lat="35.345307" lon="139.529201"><ele>13.5</ele></trkpt>
<trkpt lat="35.345376" lon="139.529269"><ele>13.5</ele></trkpt>
<trkpt lat="35.345699" lon="139.529584"><ele>13.5</ele></trkpt>
<trkpt lat="35.346051" lon="139.529934"><ele>13.2</ele></trkpt>
<trkpt lat="35.346090" lon="139.529964"><ele>13.2</ele></trkpt>
<trkpt lat="35.346148" lon="139.529987"><ele>13.0</ele></trkpt>
<trkpt lat="35.346193" lon="139.529985"><ele>13.0</ele></trkpt>
<trkpt lat="35.346393" lon="139.529920"><ele>12.2</ele></trkpt>
<trkpt lat="35.346496" lon="139.529874"><ele>12.0</ele></trkpt>
<trkpt lat="35.346567" lon="139.529836"><ele>11.8</ele></trkpt>
<trkpt lat="35.346700" lon="139.529698"><ele>11.0</ele></trkpt>
<trkpt lat="35.347042" lon="139.529341"><ele>10.2</ele></trkpt>
<trkpt lat="35.347239" lon="139.529544"><ele>10.5</ele></trkpt>
<trkpt lat="35.347334" lon="139.529676"><ele>10.5</ele></trkpt>
<trkpt lat="35.347465" lon="139.529876"><ele>10.8</ele></trkpt>
<trkpt lat="35.347716" lon="139.530215"><ele>11.2</ele></trkpt>
<trkpt lat="35.347724" lon="139.530207"><ele>11.2</ele></trkpt>
<trkpt lat="35.347898" lon="139.530028"><ele>11.0</ele></trkpt>
<trkpt lat="35.348171" lon="139.529747"><ele>10.8</ele></trkpt>
<trkpt lat="35.348620" lon="139.529281"><ele>10.5</ele></trkpt>
<trkpt lat="35.348911" lon="139.528982"><ele>10.0</ele></trkpt>
<trkpt lat="35.349200" lon="139.528682"><ele>10.0</ele></trkpt>
<trkpt lat="35.349240" lon="139.528646"><ele>10.0</ele></trkpt>
<trkpt lat="35.349310" lon="139.528576"><ele>10.0</ele></trkpt>
<trkpt lat="35.349373" lon="139.528513"><ele>10.0</ele></trkpt>
<trkpt lat="35.349520" lon="139.528401"><ele>10.2</ele></trkpt>
<trkpt lat="35.349565" lon="139.528377"><ele>10.2</ele></trkpt>
<trkpt lat="35.349604" lon="139.528355"><ele>10.5</ele></trkpt>
<trkpt lat="35.349639" lon="139.528336"><ele>10.5</ele></trkpt>
<trkpt lat="35.349798" lon="139.528267"><ele>10.2</ele></trkpt>
<trkpt lat="35.349832" lon="139.528326"><ele>10.8</ele></trkpt>
<trkpt lat="35.349877" lon="139.528403"><ele>10.8</ele></trkpt>
<trkpt lat="35.350018" lon="139.528606"><ele>11.0</ele></trkpt>
<trkpt lat="35.350179" lon="139.528773"><ele>11.0</ele></trkpt>
<trkpt lat="35.350305" lon="139.528885"><ele>11.0</ele></trkpt>
<trkpt lat="35.350734" lon="139.529224"><ele>11.0</ele></trkpt>
<trkpt lat="35.350881" lon="139.529304"><ele>10.8</ele></trkpt>
<trkpt lat="35.351147" lon="139.529428"><ele>10.8</ele></trkpt>
<trkpt lat="35.351931" lon="139.529820"><ele>9.0</ele></trkpt>
<trkpt lat="35.352199" lon="139.529922"><ele>8.2</ele></trkpt>
<trkpt lat="35.352397" lon="139.529913"><ele>8.0</ele></trkpt>
<trkpt lat="35.352399" lon="139.529866"><ele>8.2</ele></trkpt>
<trkpt lat="35.352405" lon="139.529841"><ele>8.5</ele></trkpt>
<trkpt lat="35.352489" lon="139.529538"><ele>11.2</ele></trkpt>
<trkpt lat="35.352529" lon="139.529452"><ele>12.2</ele></trkpt>
<trkpt lat="35.353133" lon="139.529675"><ele>13.0</ele></trkpt>
<trkpt lat="35.353187" lon="139.529693"><ele>12.8</ele></trkpt>
<trkpt lat="35.353343" lon="139.529742"><ele>12.5</ele></trkpt>
<trkpt lat="35.353806" lon="139.529886"><ele>12.0</ele></trkpt>
<trkpt lat="35.353995" lon="139.529927"><ele>11.8</ele></trkpt>
<trkpt lat="35.354208" lon="139.529955"><ele>11.8</ele></trkpt>
<trkpt lat="35.355007" lon="139.530024"><ele>11.8</ele></trkpt>
<trkpt lat="35.355320" lon="139.530017"><ele>10.2</ele></trkpt>
<trkpt lat="35.355571" lon="139.530032"><ele>9.0</ele></trkpt>
<trkpt lat="35.356022" lon="139.530063"><ele>9.0</ele></trkpt>
<trkpt lat="35.356510" lon="139.530071"><ele>12.5</ele></trkpt>
<trkpt lat="35.356628" lon="139.530073"><ele>13.2</ele></trkpt>
<trkpt lat="35.356838" lon="139.530054"><ele>13.2</ele></trkpt>
<trkpt lat="35.357244" lon="139.529987"><ele>12.5</ele></trkpt>
<trkpt lat="35.357814" lon="139.529862"><ele>12.2</ele></trkpt>
<trkpt lat="35.358455" lon="139.529721"><ele>12.0</ele></trkpt>
<trkpt lat="35.358627" lon="139.529668"><ele>11.5</ele></trkpt>
<trkpt lat="35.358848" lon="139.529567"><ele>10.8</ele></trkpt>
<trkpt lat="35.358955" lon="139.529493"><ele>10.5</ele></trkpt>
<trkpt lat="35.359060" lon="139.529435"><ele>10.0</ele></trkpt>
<trkpt lat="35.359196" lon="139.529339"><ele>9.5</ele></trkpt>
<trkpt lat="35.359349" lon="139.529226"><ele>9.5</ele></trkpt>
<trkpt lat="35.359657" lon="139.528981"><ele>9.5</ele></trkpt>
<trkpt lat="35.359847" lon="139.528818"><ele>9.8</ele></trkpt>
<trkpt lat="35.360071" lon="139.528638"><ele>10.5</ele></trkpt>
<trkpt lat="35.360202" lon="139.528550"><ele>10.8</ele></trkpt>
<trkpt lat="35.360310" lon="139.528492"><ele>11.0</ele></trkpt>
<trkpt lat="35.360396" lon="139.528452"><ele>11.2</ele></trkpt>
<trkpt lat="35.360492" lon="139.528406"><ele>11.5</ele></trkpt>
<trkpt lat="35.360602" lon="139.528368"><ele>11.8</ele></trkpt>
<trkpt lat="35.360961" lon="139.528306"><ele>11.5</ele></trkpt>
<trkpt lat="35.361163" lon="139.528295"><ele>11.0</ele></trkpt>
<trkpt lat="35.361460" lon="139.528325"><ele>10.5</ele></trkpt>
<trkpt lat="35.361574" lon="139.528343"><ele>10.0</ele></trkpt>
<trkpt lat="35.361930" lon="139.528433"><ele>9.2</ele></trkpt>
<trkpt lat="35.362816" lon="139.528673"><ele>8.2</ele></trkpt>
<trkpt lat="35.363132" lon="139.528760"><ele>7.5</ele></trkpt>
<trkpt lat="35.364013" lon="139.528914"><ele>10.8</ele></trkpt>
<trkpt lat="35.364540" lon="139.529018"><ele>10.8</ele></trkpt>
<trkpt lat="35.365418" lon="139.529190"><ele>10.5</ele></trkpt>
<trkpt lat="35.365637" lon="139.529223"><ele>11.2</ele></trkpt>
<trkpt lat="35.365759" lon="139.529227"><ele>11.8</ele></trkpt>
<trkpt lat="35.365897" lon="139.529215"><ele>11.5</ele></trkpt>
<trkpt lat="35.366043" lon="139.529178"><ele>11.0</ele></trkpt>
<trkpt lat="35.366170" lon="139.529128"><ele>10.2</ele></trkpt>
<trkpt lat="35.366356" lon="139.529033"><ele>9.8</ele></trkpt>
<trkpt lat="35.366507" lon="139.528943"><ele>9.5</ele></trkpt>
<trkpt lat="35.366608" lon="139.528869"><ele>9.2</ele></trkpt>
<trkpt lat="35.366878" lon="139.529140"><ele>8.0</ele></trkpt>
<trkpt lat="35.366937" lon="139.529181"><ele>8.0</ele></trkpt>
<trkpt lat="35.367002" lon="139.529200"><ele>8.0</ele></trkpt>
<trkpt lat="35.367073" lon="139.529208"><ele>8.0</ele></trkpt>
<trkpt lat="35.367428" lon="139.529153"><ele>8.0</ele></trkpt>
<trkpt lat="35.367814" lon="139.529068"><ele>9.2</ele></trkpt>
<trkpt lat="35.368171" lon="139.529001"><ele>10.2</ele></trkpt>
<trkpt lat="35.368296" lon="139.528981"><ele>10.8</ele></trkpt>
<trkpt lat="35.368420" lon="139.528959"><ele>10.8</ele></trkpt>
<trkpt lat="35.368972" lon="139.528861"><ele>10.0</ele></trkpt>
<trkpt lat="35.369527" lon="139.528636"><ele>9.8</ele></trkpt>
<trkpt lat="35.369582" lon="139.528599"><ele>9.5</ele></trkpt>
<trkpt lat="35.369612" lon="139.528558"><ele>9.8</ele></trkpt>
<trkpt lat="35.369642" lon="139.528496"><ele>9.8</ele></trkpt>
<trkpt lat="35.369796" lon="139.528115"><ele>10.2</ele></trkpt>
<trkpt lat="35.369828" lon="139.528078"><ele>10.2</ele></trkpt>
<trkpt lat="35.369895" lon="139.528053"><ele>10.0</ele></trkpt>
<trkpt lat="35.369944" lon="139.528047"><ele>9.8</ele></trkpt>
<trkpt lat="35.370047" lon="139.528040"><ele>9.5</ele></trkpt>
<trkpt lat="35.370215" lon="139.528083"><ele>10.0</ele></trkpt>
<trkpt lat="35.370720" lon="139.528238"><ele>12.2</ele></trkpt>
<trkpt lat="35.375322" lon="139.529821"><ele>9.8</ele></trkpt>
<trkpt lat="35.375408" lon="139.529875"><ele>10.0</ele></trkpt>
<trkpt lat="35.375536" lon="139.529919"><ele>10.2</ele></trkpt>
<trkpt lat="35.375984" lon="139.530106"><ele>11.0</ele></trkpt>
<trkpt lat="35.376204" lon="139.530266"><ele>10.8</ele></trkpt>
<trkpt lat="35.376734" lon="139.530638"><ele>9.2</ele></trkpt>
<trkpt lat="35.376870" lon="139.530760"><ele>9.2</ele></trkpt>
<trkpt lat="35.377000" lon="139.530861"><ele>9.2</ele></trkpt>
<trkpt lat="35.377060" lon="139.530745"><ele>9.5</ele></trkpt>
<trkpt lat="35.377188" lon="139.530490"><ele>10.5</ele></trkpt>
<trkpt lat="35.377317" lon="139.530189"><ele>11.8</ele></trkpt>
<trkpt lat="35.377574" lon="139.529571"><ele>14.0</ele></trkpt>
<trkpt lat="35.377744" lon="139.529107"><ele>14.8</ele></trkpt>
<trkpt lat="35.377761" lon="139.529059"><ele>14.8</ele></trkpt>
<trkpt lat="35.377807" lon="139.529072"><ele>14.8</ele></trkpt>
<trkpt lat="35.378294" lon="139.529208"><ele>14.8</ele></trkpt>
<trkpt lat="35.379323" lon="139.529494"><ele>11.5</ele></trkpt>
<trkpt lat="35.380087" lon="139.529714"><ele>10.5</ele></trkpt>
<trkpt lat="35.380170" lon="139.529738"><ele>11.0</ele></trkpt>
<trkpt lat="35.380100" lon="139.530034"><ele>12.2</ele></trkpt>
<trkpt lat="35.379800" lon="139.531327"><ele>12.2</ele></trkpt>
<trkpt lat="35.379622" lon="139.532139"><ele>11.5</ele></trkpt>
<trkpt lat="35.379563" lon="139.532369"><ele>11.5</ele></trkpt>
<trkpt lat="35.379445" lon="139.532919"><ele>11.8</ele></trkpt>
<trkpt lat="35.379413" lon="139.533124"><ele>12.0</ele></trkpt>
<trkpt lat="35.379395" lon="139.533356"><ele>12.0</ele></trkpt>
<trkpt lat="35.379391" lon="139.533595"><ele>12.2</ele></trkpt>
<trkpt lat="35.379408" lon="139.533930"><ele>12.2</ele></trkpt>
<trkpt lat="35.379502" lon="139.535324"><ele>13.2</ele></trkpt>
<trkpt lat="35.379533" lon="139.535751"><ele>13.2</ele></trkpt>
<trkpt lat="35.379591" lon="139.536574"><ele>13.2</ele></trkpt>
<trkpt lat="35.379832" lon="139.539843"><ele>24.8</ele></trkpt>
<trkpt lat="35.379854" lon="139.540135"><ele>26.2</ele></trkpt>
<trkpt lat="35.379867" lon="139.540291"><ele>27.2</ele></trkpt>
<trkpt lat="35.379901" lon="139.540763"><ele>30.2</ele></trkpt>
<trkpt lat="35.379911" lon="139.541082"><ele>31.5</ele></trkpt>
<trkpt lat="35.379894" lon="139.541814"><ele>34.5</ele></trkpt>
<trkpt lat="35.379859" lon="139.542145"><ele>36.2</ele></trkpt>
<trkpt lat="35.379819" lon="139.542424"><ele>37.5</ele></trkpt>
<trkpt lat="35.379747" lon="139.542826"><ele>40.0</ele></trkpt>
<trkpt lat="35.379556" lon="139.543774"><ele>44.5</ele></trkpt>
<trkpt lat="35.379335" lon="139.544927"><ele>44.5</ele></trkpt>
<trkpt lat="35.379237" lon="139.545467"><ele>45.8</ele></trkpt>
<trkpt lat="35.379137" lon="139.545945"><ele>47.0</ele></trkpt>
<trkpt lat="35.379041" lon="139.546531"><ele>52.5</ele></trkpt>
<trkpt lat="35.378972" lon="139.547142"><ele>59.8</ele></trkpt>
<trkpt lat="35.378881" lon="139.547150"><ele>59.2</ele></trkpt>
<trkpt lat="35.378815" lon="139.547156"><ele>58.8</ele></trkpt>
<trkpt lat="35.378733" lon="139.547235"><ele>58.8</ele></trkpt>
<trkpt lat="35.378658" lon="139.547344"><ele>59.2</ele></trkpt>
<trkpt lat="35.378608" lon="139.547638"><ele>60.8</ele></trkpt>
<trkpt lat="35.378498" lon="139.548005"><ele>61.0</ele></trkpt>
<trkpt lat="35.378474" lon="139.548293"><ele>62.0</ele></trkpt>
<trkpt lat="35.378473" lon="139.548324"><ele>62.2</ele></trkpt>
<trkpt lat="35.378453" lon="139.548825"><ele>60.0</ele></trkpt>
<trkpt lat="35.378702" lon="139.548884"><ele>61.5</ele></trkpt>
<trkpt lat="35.378977" lon="139.548964"><ele>63.0</ele></trkpt>
<trkpt lat="35.379033" lon="139.548984"><ele>63.2</ele></trkpt>
<trkpt lat="35.379232" lon="139.549046"><ele>64.2</ele></trkpt>
<trkpt lat="35.379543" lon="139.549137"><ele>66.5</ele></trkpt>
<trkpt lat="35.379854" lon="139.549227"><ele>69.0</ele></trkpt>
<trkpt lat="35.380167" lon="139.549318"><ele>70.5</ele></trkpt>
<trkpt lat="35.380476" lon="139.549408"><ele>71.0</ele></trkpt>
<trkpt lat="35.380780" lon="139.549497"><ele>72.0</ele></trkpt>
<trkpt lat="35.381094" lon="139.549588"><ele>72.2</ele></trkpt>
<trkpt lat="35.381403" lon="139.549671"><ele>72.8</ele></trkpt>
<trkpt lat="35.381520" lon="139.549681"><ele>73.0</ele></trkpt>
<trkpt lat="35.381698" lon="139.549810"><ele>73.0</ele></trkpt>
<trkpt lat="35.381836" lon="139.549903"><ele>73.2</ele></trkpt>
<trkpt lat="35.381901" lon="139.549966"><ele>73.2</ele></trkpt>
<trkpt lat="35.381945" lon="139.550060"><ele>72.8</ele></trkpt>
<trkpt lat="35.381959" lon="139.550162"><ele>72.2</ele></trkpt>
<trkpt lat="35.381946" lon="139.550783"><ele>68.5</ele></trkpt>
<trkpt lat="35.381911" lon="139.551198"><ele>65.8</ele></trkpt>
<trkpt lat="35.382252" lon="139.551297"><ele>67.0</ele></trkpt>
<trkpt lat="35.382386" lon="139.551362"><ele>67.2</ele></trkpt>
<trkpt lat="35.382539" lon="139.551478"><ele>67.5</ele></trkpt>
<trkpt lat="35.382702" lon="139.551649"><ele>68.5</ele></trkpt>
<trkpt lat="35.383135" lon="139.552251"><ele>70.8</ele></trkpt>
<trkpt lat="35.383183" lon="139.552315"><ele>71.0</ele></trkpt>
<trkpt lat="35.383440" lon="139.552664"><ele>69.0</ele></trkpt>
<trkpt lat="35.383548" lon="139.552800"><ele>67.5</ele></trkpt>
<trkpt lat="35.383716" lon="139.553036"><ele>66.5</ele></trkpt>
<trkpt lat="35.383795" lon="139.553181"><ele>66.5</ele></trkpt>
<trkpt lat="35.383865" lon="139.553368"><ele>66.5</ele></trkpt>
<trkpt lat="35.383924" lon="139.553535"><ele>66.2</ele></trkpt>
<trkpt lat="35.383938" lon="139.553600"><ele>65.8</ele></trkpt>
<trkpt lat="35.383963" lon="139.553712"><ele>65.0</ele></trkpt>
<trkpt lat="35.383972" lon="139.553804"><ele>64.2</ele></trkpt>
<trkpt lat="35.383995" lon="139.554034"><ele>61.8</ele></trkpt>
<trkpt lat="35.384033" lon="139.554315"><ele>61.5</ele></trkpt>
<trkpt lat="35.384093" lon="139.554747"><ele>63.8</ele></trkpt>
<trkpt lat="35.384125" lon="139.555000"><ele>64.2</ele></trkpt>
<trkpt lat="35.384175" lon="139.555086"><ele>66.0</ele></trkpt>
<trkpt lat="35.384234" lon="139.555114"><ele>67.2</ele></trkpt>
<trkpt lat="35.384328" lon="139.555141"><ele>68.8</ele></trkpt>
<trkpt lat="35.384365" lon="139.555141"><ele>69.2</ele></trkpt>
<trkpt lat="35.384507" lon="139.555138"><ele>70.2</ele></trkpt>
<trkpt lat="35.384774" lon="139.555114"><ele>72.5</ele></trkpt>
<trkpt lat="35.384828" lon="139.555084"><ele>72.8</ele></trkpt>
<trkpt lat="35.384870" lon="139.555034"><ele>72.5</ele></trkpt>
<trkpt lat="35.384909" lon="139.554943"><ele>73.2</ele></trkpt>
<trkpt lat="35.384942" lon="139.554862"><ele>74.2</ele></trkpt>
<trkpt lat="35.385001" lon="139.554771"><ele>75.8</ele></trkpt>
<trkpt lat="35.385093" lon="139.554731"><ele>76.2</ele></trkpt>
<trkpt lat="35.385285" lon="139.554666"><ele>77.2</ele></trkpt>
<trkpt lat="35.385386" lon="139.554619"><ele>77.8</ele></trkpt>
<trkpt lat="35.385450" lon="139.554535"><ele>78.2</ele></trkpt>
<trkpt lat="35.385485" lon="139.554439"><ele>78.5</ele></trkpt>
<trkpt lat="35.385588" lon="139.554070"><ele>79.5</ele></trkpt>
<trkpt lat="35.385661" lon="139.553979"><ele>79.2</ele></trkpt>
<trkpt lat="35.385723" lon="139.553935"><ele>79.2</ele></trkpt>
<trkpt lat="35.385806" lon="139.553924"><ele>79.0</ele></trkpt>
<trkpt lat="35.385882" lon="139.553934"><ele>79.0</ele></trkpt>
<trkpt lat="35.385958" lon="139.553952"><ele>79.5</ele></trkpt>
<trkpt lat="35.386046" lon="139.553988"><ele>79.8</ele></trkpt>
<trkpt lat="35.386152" lon="139.554049"><ele>80.2</ele></trkpt>
<trkpt lat="35.386213" lon="139.554110"><ele>80.2</ele></trkpt>
<trkpt lat="35.386262" lon="139.554170"><ele>80.5</ele></trkpt>
<trkpt lat="35.386349" lon="139.554240"><ele>80.2</ele></trkpt>
<trkpt lat="35.386429" lon="139.554285"><ele>80.2</ele></trkpt>
<trkpt lat="35.386508" lon="139.554291"><ele>80.2</ele></trkpt>
<trkpt lat="35.386861" lon="139.554160"><ele>79.5</ele></trkpt>
<trkpt lat="35.386921" lon="139.554148"><ele>79.0</ele></trkpt>
<trkpt lat="35.386992" lon="139.554149"><ele>78.0</ele></trkpt>
<trkpt lat="35.387055" lon="139.554173"><ele>77.2</ele></trkpt>
<trkpt lat="35.387194" lon="139.554256"><ele>75.2</ele></trkpt>
<trkpt lat="35.387425" lon="139.554420"><ele>72.8</ele></trkpt>
<trkpt lat="35.387651" lon="139.554570"><ele>71.5</ele></trkpt>
<trkpt lat="35.387745" lon="139.554614"><ele>71.0</ele></trkpt>
<trkpt lat="35.387796" lon="139.554638"><ele>70.8</ele></trkpt>
<trkpt lat="35.388405" lon="139.554885"><ele>70.8</ele></trkpt>
<trkpt lat="35.388443" lon="139.554901"><ele>71.0</ele></trkpt>
<trkpt lat="35.388729" lon="139.555020"><ele>72.8</ele></trkpt>
<trkpt lat="35.388928" lon="139.555131"><ele>73.0</ele></trkpt>
<trkpt lat="35.389172" lon="139.555310"><ele>73.0</ele></trkpt>
<trkpt lat="35.389321" lon="139.555431"><ele>72.0</ele></trkpt>
<trkpt lat="35.389363" lon="139.555468"><ele>71.8</ele></trkpt>
<trkpt lat="35.389404" lon="139.555511"><ele>71.2</ele></trkpt>
<trkpt lat="35.389477" lon="139.555593"><ele>71.0</ele></trkpt>
<trkpt lat="35.389587" lon="139.555714"><ele>70.2</ele></trkpt>
<trkpt lat="35.389687" lon="139.555842"><ele>70.0</ele></trkpt>
<trkpt lat="35.390429" lon="139.555929"><ele>66.8</ele></trkpt>
<trkpt lat="35.390950" lon="139.555992"><ele>64.2</ele></trkpt>
<trkpt lat="35.391020" lon="139.556000"><ele>64.0</ele></trkpt>
<trkpt lat="35.391064" lon="139.556008"><ele>63.8</ele></trkpt>
<trkpt lat="35.391921" lon="139.556120"><ele>60.8</ele></trkpt>
<trkpt lat="35.392604" lon="139.556579"><ele>58.8</ele></trkpt>
<trkpt lat="35.392664" lon="139.556618"><ele>58.5</ele></trkpt>
<trkpt lat="35.392572" lon="139.556964"><ele>58.8</ele></trkpt>
<trkpt lat="35.392508" lon="139.557222"><ele>58.8</ele></trkpt>
<trkpt lat="35.392483" lon="139.557312"><ele>59.0</ele></trkpt>
<trkpt lat="35.392467" lon="139.557373"><ele>59.2</ele></trkpt>
<trkpt lat="35.392421" lon="139.557629"><ele>60.2</ele></trkpt>
<trkpt lat="35.392422" lon="139.557755"><ele>61.0</ele></trkpt>
<trkpt lat="35.392428" lon="139.557865"><ele>61.8</ele></trkpt>
<trkpt lat="35.392452" lon="139.558041"><ele>62.5</ele></trkpt>
<trkpt lat="35.392490" lon="139.558168"><ele>63.0</ele></trkpt>
<trkpt lat="35.392633" lon="139.558561"><ele>64.2</ele></trkpt>
<trkpt lat="35.392655" lon="139.558624"><ele>64.2</ele></trkpt>
<trkpt lat="35.392685" lon="139.558702"><ele>64.5</ele></trkpt>
<trkpt lat="35.392827" lon="139.559080"><ele>64.8</ele></trkpt>
<trkpt lat="35.392956" lon="139.559437"><ele>63.5</ele></trkpt>
<trkpt lat="35.393304" lon="139.560359"><ele>59.5</ele></trkpt>
<trkpt lat="35.393328" lon="139.560429"><ele>59.5</ele></trkpt>
<trkpt lat="35.393349" lon="139.560496"><ele>59.2</ele></trkpt>
<trkpt lat="35.393451" lon="139.560799"><ele>58.8</ele></trkpt>
<trkpt lat="35.393581" lon="139.561157"><ele>58.2</ele></trkpt>
<trkpt lat="35.393709" lon="139.561518"><ele>57.5</ele></trkpt>
<trkpt lat="35.393846" lon="139.561870"><ele>56.8</ele></trkpt>
<trkpt lat="35.393921" lon="139.562072"><ele>56.0</ele></trkpt>
<trkpt lat="35.393991" lon="139.562233"><ele>55.2</ele></trkpt>
<trkpt lat="35.394086" lon="139.562410"><ele>54.5</ele></trkpt>
<trkpt lat="35.394147" lon="139.562509"><ele>54.0</ele></trkpt>
<trkpt lat="35.394179" lon="139.562560"><ele>54.0</ele></trkpt>
<trkpt lat="35.394224" lon="139.562622"><ele>54.5</ele></trkpt>
<trkpt lat="35.394269" lon="139.562682"><ele>54.8</ele></trkpt>
<trkpt lat="35.394407" lon="139.562858"><ele>56.0</ele></trkpt>
<trkpt lat="35.394867" lon="139.563448"><ele>60.0</ele></trkpt>
<trkpt lat="35.395033" lon="139.563663"><ele>59.8</ele></trkpt>
<trkpt lat="35.395493" lon="139.564374"><ele>57.5</ele></trkpt>
<trkpt lat="35.395574" lon="139.564496"><ele>57.5</ele></trkpt>
<trkpt lat="35.395971" lon="139.565045"><ele>57.0</ele></trkpt>
<trkpt lat="35.396024" lon="139.565117"><ele>57.0</ele></trkpt>
<trkpt lat="35.396080" lon="139.565193"><ele>57.0</ele></trkpt>
<trkpt lat="35.396637" lon="139.565902"><ele>54.2</ele></trkpt>
<trkpt lat="35.397194" lon="139.566606"><ele>55.2</ele></trkpt>
<trkpt lat="35.397250" lon="139.566676"><ele>55.2</ele></trkpt>
<trkpt lat="35.397297" lon="139.566732"><ele>55.2</ele></trkpt>
<trkpt lat="35.397864" lon="139.567449"><ele>54.5</ele></trkpt>
<trkpt lat="35.398440" lon="139.568155"><ele>55.0</ele></trkpt>
<trkpt lat="35.398493" lon="139.568220"><ele>55.0</ele></trkpt>
<trkpt lat="35.398541" lon="139.568281"><ele>54.8</ele></trkpt>
<trkpt lat="35.399096" lon="139.568995"><ele>50.5</ele></trkpt>
<trkpt lat="35.399669" lon="139.569708"><ele>47.0</ele></trkpt>
<trkpt lat="35.399720" lon="139.569773"><ele>46.8</ele></trkpt>
<trkpt lat="35.399772" lon="139.569846"><ele>46.5</ele></trkpt>
<trkpt lat="35.400241" lon="139.570493"><ele>43.2</ele></trkpt>
<trkpt lat="35.400496" lon="139.570807"><ele>41.8</ele></trkpt>
<trkpt lat="35.400580" lon="139.570876"><ele>41.8</ele></trkpt>
<trkpt lat="35.400501" lon="139.570970"><ele>42.0</ele></trkpt>
<trkpt lat="35.399915" lon="139.571665"><ele>44.8</ele></trkpt>
<trkpt lat="35.399522" lon="139.572134"><ele>43.0</ele></trkpt>
<trkpt lat="35.399457" lon="139.572204"><ele>42.2</ele></trkpt>
<trkpt lat="35.399411" lon="139.572261"><ele>41.8</ele></trkpt>
<trkpt lat="35.399168" lon="139.572550"><ele>38.5</ele></trkpt>
<trkpt lat="35.399069" lon="139.572673"><ele>38.0</ele></trkpt>
<trkpt lat="35.399130" lon="139.572705"><ele>37.5</ele></trkpt>
<trkpt lat="35.399560" lon="139.572964"><ele>39.0</ele></trkpt>
<trkpt lat="35.399826" lon="139.573061"><ele>40.8</ele></trkpt>
<trkpt lat="35.399957" lon="139.573106"><ele>41.5</ele></trkpt>
<trkpt lat="35.400277" lon="139.573242"><ele>41.8</ele></trkpt>
<trkpt lat="35.400584" lon="139.573442"><ele>41.2</ele></trkpt>
<trkpt lat="35.400955" lon="139.573652"><ele>40.0</ele></trkpt>
<trkpt lat="35.401022" lon="139.573690"><ele>39.5</ele></trkpt>
<trkpt lat="35.401198" lon="139.573784"><ele>38.8</ele></trkpt>
<trkpt lat="35.401405" lon="139.573959"><ele>38.0</ele></trkpt>
<trkpt lat="35.401732" lon="139.574141"><ele>38.2</ele></trkpt>
<trkpt lat="35.401899" lon="139.574238"><ele>39.2</ele></trkpt>
<trkpt lat="35.401955" lon="139.574269"><ele>39.8</ele></trkpt>
<trkpt lat="35.401994" lon="139.574293"><ele>40.2</ele></trkpt>
<trkpt lat="35.402081" lon="139.574357"><ele>41.0</ele></trkpt>
<trkpt lat="35.402096" lon="139.574372"><ele>41.2</ele></trkpt>
<trkpt lat="35.402103" lon="139.574379"><ele>41.2</ele></trkpt>
<trkpt lat="35.402146" lon="139.574455"><ele>42.0</ele></trkpt>
<trkpt lat="35.402158" lon="139.574488"><ele>42.2</ele></trkpt>
<trkpt lat="35.402157" lon="139.574536"><ele>42.5</ele></trkpt>
<trkpt lat="35.401881" lon="139.575078"><ele>43.5</ele></trkpt>
<trkpt lat="35.401982" lon="139.575103"><ele>44.5</ele></trkpt>
<trkpt lat="35.402037" lon="139.575103"><ele>45.2</ele></trkpt>
<trkpt lat="35.402177" lon="139.574989"><ele>45.8</ele></trkpt>
<trkpt lat="35.402216" lon="139.574957"><ele>45.8</ele></trkpt>
<trkpt lat="35.402267" lon="139.574909"><ele>46.0</ele></trkpt>
<trkpt lat="35.402450" lon="139.574834"><ele>47.0</ele></trkpt>
<trkpt lat="35.402677" lon="139.574778"><ele>48.8</ele></trkpt>
<trkpt lat="35.402883" lon="139.574719"><ele>49.8</ele></trkpt>
<trkpt lat="35.403256" lon="139.574627"><ele>51.8</ele></trkpt>
<trkpt lat="35.403211" lon="139.574983"><ele>56.2</ele></trkpt>
<trkpt lat="35.403370" lon="139.575275"><ele>60.2</ele></trkpt>
<trkpt lat="35.403457" lon="139.575484"><ele>62.5</ele></trkpt>
<trkpt lat="35.403528" lon="139.575680"><ele>64.0</ele></trkpt>
<trkpt lat="35.403673" lon="139.576122"><ele>66.2</ele></trkpt>
<trkpt lat="35.403689" lon="139.576160"><ele>66.2</ele></trkpt>
<trkpt lat="35.403782" lon="139.577110"><ele>68.5</ele></trkpt>
<trkpt lat="35.403862" lon="139.578007"><ele>67.5</ele></trkpt>
<trkpt lat="35.404143" lon="139.578095"><ele>65.5</ele></trkpt>
<trkpt lat="35.404490" lon="139.578366"><ele>63.8</ele></trkpt>
<trkpt lat="35.404699" lon="139.578543"><ele>63.8</ele></trkpt>
<trkpt lat="35.404750" lon="139.578589"><ele>63.8</ele></trkpt>
<trkpt lat="35.404964" lon="139.578818"><ele>64.2</ele></trkpt>
<trkpt lat="35.404899" lon="139.578896"><ele>64.2</ele></trkpt>
<trkpt lat="35.404853" lon="139.578982"><ele>64.0</ele></trkpt>
<trkpt lat="35.404818" lon="139.579086"><ele>64.0</ele></trkpt>
<trkpt lat="35.404794" lon="139.579199"><ele>64.0</ele></trkpt>
<trkpt lat="35.404781" lon="139.579324"><ele>64.2</ele></trkpt>
<trkpt lat="35.404763" lon="139.579677"><ele>65.0</ele></trkpt>
<trkpt lat="35.404745" lon="139.580100"><ele>65.5</ele></trkpt>
<trkpt lat="35.404748" lon="139.580224"><ele>65.5</ele></trkpt>
<trkpt lat="35.404762" lon="139.580348"><ele>65.5</ele></trkpt>
<trkpt lat="35.404789" lon="139.580499"><ele>65.2</ele></trkpt>
<trkpt lat="35.404900" lon="139.580883"><ele>65.2</ele></trkpt>
<trkpt lat="35.405063" lon="139.581382"><ele>63.5</ele></trkpt>
<trkpt lat="35.405120" lon="139.581521"><ele>63.0</ele></trkpt>
<trkpt lat="35.405181" lon="139.581632"><ele>62.8</ele></trkpt>
<trkpt lat="35.405230" lon="139.581716"><ele>62.8</ele></trkpt>
<trkpt lat="35.405676" lon="139.582518"><ele>64.8</ele></trkpt>
<trkpt lat="35.405714" lon="139.582586"><ele>65.0</ele></trkpt>
<trkpt lat="35.405743" lon="139.582638"><ele>65.2</ele></trkpt>
<trkpt lat="35.405848" lon="139.582831"><ele>65.8</ele></trkpt>
<trkpt lat="35.405904" lon="139.582951"><ele>65.8</ele></trkpt>
<trkpt lat="35.406017" lon="139.583265"><ele>65.5</ele></trkpt>
<trkpt lat="35.406050" lon="139.583362"><ele>65.2</ele></trkpt>
<trkpt lat="35.406136" lon="139.583601"><ele>64.2</ele></trkpt>
<trkpt lat="35.406206" lon="139.583756"><ele>63.8</ele></trkpt>
<trkpt lat="35.406231" lon="139.583806"><ele>63.5</ele></trkpt>
<trkpt lat="35.406256" lon="139.583857"><ele>63.2</ele></trkpt>
<trkpt lat="35.406386" lon="139.584146"><ele>62.5</ele></trkpt>
<trkpt lat="35.406650" lon="139.584735"><ele>59.5</ele></trkpt>
<trkpt lat="35.406766" lon="139.584669"><ele>59.0</ele></trkpt>
<trkpt lat="35.407087" lon="139.584694"><ele>56.5</ele></trkpt>
<trkpt lat="35.407281" lon="139.584825"><ele>54.2</ele></trkpt>
<trkpt lat="35.407397" lon="139.584856"><ele>53.2</ele></trkpt>
<trkpt lat="35.407468" lon="139.584915"><ele>52.5</ele></trkpt>
<trkpt lat="35.407593" lon="139.585099"><ele>51.0</ele></trkpt>
<trkpt lat="35.407827" lon="139.585290"><ele>49.8</ele></trkpt>
<trkpt lat="35.408081" lon="139.585548"><ele>48.8</ele></trkpt>
<trkpt lat="35.408181" lon="139.585650"><ele>48.8</ele></trkpt>
<trkpt lat="35.408447" lon="139.585903"><ele>48.0</ele></trkpt>
<trkpt lat="35.408984" lon="139.586716"><ele>45.2</ele></trkpt>
<trkpt lat="35.409014" lon="139.586730"><ele>45.5</ele></trkpt>
<trkpt lat="35.409248" lon="139.586917"><ele>45.8</ele></trkpt>
<trkpt lat="35.409464" lon="139.587067"><ele>45.8</ele></trkpt>
<trkpt lat="35.409471" lon="139.587072"><ele>45.8</ele></trkpt>
<trkpt lat="35.409682" lon="139.587231"><ele>46.0</ele></trkpt>
<trkpt lat="35.410093" lon="139.587511"><ele>46.8</ele></trkpt>
<trkpt lat="35.410125" lon="139.587549"><ele>46.5</ele></trkpt>
<trkpt lat="35.410223" lon="139.587697"><ele>46.0</ele></trkpt>
<trkpt lat="35.410345" lon="139.587807"><ele>46.0</ele></trkpt>
<trkpt lat="35.410397" lon="139.587843"><ele>46.0</ele></trkpt>
<trkpt lat="35.410530" lon="139.587970"><ele>46.0</ele></trkpt>
<trkpt lat="35.410775" lon="139.588172"><ele>46.5</ele></trkpt>
<trkpt lat="35.410877" lon="139.588220"><ele>46.5</ele></trkpt>
<trkpt lat="35.410988" lon="139.588282"><ele>46.2</ele></trkpt>
<trkpt lat="35.411030" lon="139.588339"><ele>46.5</ele></trkpt>
<trkpt lat="35.411103" lon="139.588492"><ele>45.8</ele></trkpt>
<trkpt lat="35.411246" lon="139.588594"><ele>45.5</ele></trkpt>
<trkpt lat="35.411597" lon="139.588701"><ele>46.8</ele></trkpt>
<trkpt lat="35.411647" lon="139.588752"><ele>47.2</ele></trkpt>
<trkpt lat="35.411858" lon="139.588901"><ele>45.8</ele></trkpt>
<trkpt lat="35.411898" lon="139.588935"><ele>45.2</ele></trkpt>
<trkpt lat="35.412046" lon="139.589040"><ele>44.0</ele></trkpt>
<trkpt lat="35.412115" lon="139.589473"><ele>43.8</ele></trkpt>
<trkpt lat="35.412122" lon="139.589516"><ele>43.8</ele></trkpt>
<trkpt lat="35.412164" lon="139.589722"><ele>43.2</ele></trkpt>
<trkpt lat="35.412180" lon="139.589877"><ele>43.2</ele></trkpt>
<trkpt lat="35.412192" lon="139.589940"><ele>43.0</ele></trkpt>
<trkpt lat="35.412246" lon="139.590140"><ele>42.8</ele></trkpt>
<trkpt lat="35.412287" lon="139.590302"><ele>42.8</ele></trkpt>
<trkpt lat="35.412498" lon="139.590592"><ele>43.8</ele></trkpt>
<trkpt lat="35.412584" lon="139.590754"><ele>43.2</ele></trkpt>
<trkpt lat="35.412617" lon="139.590871"><ele>42.8</ele></trkpt>
<trkpt lat="35.412626" lon="139.591052"><ele>41.2</ele></trkpt>
<trkpt lat="35.412660" lon="139.591154"><ele>40.0</ele></trkpt>
<trkpt lat="35.412705" lon="139.591236"><ele>39.0</ele></trkpt>
<trkpt lat="35.412782" lon="139.591332"><ele>38.0</ele></trkpt>
<trkpt lat="35.412917" lon="139.591405"><ele>36.8</ele></trkpt>
<trkpt lat="35.413090" lon="139.591545"><ele>35.5</ele></trkpt>
<trkpt lat="35.413142" lon="139.591564"><ele>35.2</ele></trkpt>
<trkpt lat="35.413699" lon="139.591674"><ele>34.0</ele></trkpt>
<trkpt lat="35.413897" lon="139.591699"><ele>33.0</ele></trkpt>
<trkpt lat="35.414088" lon="139.591776"><ele>31.8</ele></trkpt>
<trkpt lat="35.414139" lon="139.591796"><ele>31.2</ele></trkpt>
<trkpt lat="35.414409" lon="139.592023"><ele>26.2</ele></trkpt>
<trkpt lat="35.414523" lon="139.592086"><ele>24.8</ele></trkpt>
<trkpt lat="35.414600" lon="139.592150"><ele>24.0</ele></trkpt>
<trkpt lat="35.414742" lon="139.592343"><ele>22.5</ele></trkpt>
<trkpt lat="35.414817" lon="139.592391"><ele>22.2</ele></trkpt>
<trkpt lat="35.415009" lon="139.592456"><ele>21.8</ele></trkpt>
<trkpt lat="35.415073" lon="139.592508"><ele>21.0</ele></trkpt>
<trkpt lat="35.415129" lon="139.592579"><ele>20.0</ele></trkpt>
<trkpt lat="35.415188" lon="139.592705"><ele>18.5</ele></trkpt>
<trkpt lat="35.415220" lon="139.592875"><ele>17.0</ele></trkpt>
<trkpt lat="35.415240" lon="139.592943"><ele>16.2</ele></trkpt>
<trkpt lat="35.415274" lon="139.592994"><ele>15.8</ele></trkpt>
<trkpt lat="35.415303" lon="139.593025"><ele>15.5</ele></trkpt>
<trkpt lat="35.415356" lon="139.592997"><ele>15.8</ele></trkpt>
<trkpt lat="35.415434" lon="139.592998"><ele>15.5</ele></trkpt>
<trkpt lat="35.415522" lon="139.593028"><ele>15.2</ele></trkpt>
<trkpt lat="35.415556" lon="139.593056"><ele>15.0</ele></trkpt>
<trkpt lat="35.415588" lon="139.593099"><ele>14.8</ele></trkpt>
<trkpt lat="35.415629" lon="139.593133"><ele>14.8</ele></trkpt>
<trkpt lat="35.415704" lon="139.593162"><ele>14.8</ele></trkpt>
<trkpt lat="35.415850" lon="139.593176"><ele>14.8</ele></trkpt>
<trkpt lat="35.415944" lon="139.593201"><ele>15.0</ele></trkpt>
<trkpt lat="35.416023" lon="139.593249"><ele>15.0</ele></trkpt>
<trkpt lat="35.416118" lon="139.593408"><ele>15.2</ele></trkpt>
<trkpt lat="35.416164" lon="139.593520"><ele>15.0</ele></trkpt>
<trkpt lat="35.416272" lon="139.593706"><ele>15.0</ele></trkpt>
<trkpt lat="35.416404" lon="139.593879"><ele>14.8</ele></trkpt>
<trkpt lat="35.416497" lon="139.593964"><ele>14.5</ele></trkpt>
<trkpt lat="35.416557" lon="139.594008"><ele>14.2</ele></trkpt>
<trkpt lat="35.416680" lon="139.594060"><ele>14.2</ele></trkpt>
<trkpt lat="35.416867" lon="139.594162"><ele>14.5</ele></trkpt>
<trkpt lat="35.417486" lon="139.594600"><ele>14.2</ele></trkpt>
<trkpt lat="35.417364" lon="139.595176"><ele>12.0</ele></trkpt>
<trkpt lat="35.417211" lon="139.595875"><ele>9.8</ele></trkpt>
<trkpt lat="35.418006" lon="139.596128"><ele>10.0</ele></trkpt>
<trkpt lat="35.418915" lon="139.596407"><ele>8.8</ele></trkpt>
<trkpt lat="35.419429" lon="139.596563"><ele>7.8</ele></trkpt>
<trkpt lat="35.420097" lon="139.596766"><ele>8.0</ele></trkpt>
<trkpt lat="35.420113" lon="139.596901"><ele>8.2</ele></trkpt>
<trkpt lat="35.420429" lon="139.597310"><ele>9.0</ele></trkpt>
<trkpt lat="35.420532" lon="139.597499"><ele>9.2</ele></trkpt>
<trkpt lat="35.420605" lon="139.597603"><ele>9.0</ele></trkpt>
<trkpt lat="35.420699" lon="139.597746"><ele>8.5</ele></trkpt>
<trkpt lat="35.420824" lon="139.597914"><ele>8.2</ele></trkpt>
<trkpt lat="35.420969" lon="139.598129"><ele>8.5</ele></trkpt>
<trkpt lat="35.421069" lon="139.598240"><ele>8.8</ele></trkpt>
<trkpt lat="35.421148" lon="139.598303"><ele>9.0</ele></trkpt>
<trkpt lat="35.421293" lon="139.598420"><ele>9.0</ele></trkpt>
<trkpt lat="35.421383" lon="139.598473"><ele>9.2</ele></trkpt>
<trkpt lat="35.421478" lon="139.598508"><ele>9.5</ele></trkpt>
<trkpt lat="35.421514" lon="139.598517"><ele>9.5</ele></trkpt>
<trkpt lat="35.421624" lon="139.598545"><ele>10.0</ele></trkpt>
<trkpt lat="35.421714" lon="139.598585"><ele>9.8</ele></trkpt>
<trkpt lat="35.421803" lon="139.598608"><ele>9.8</ele></trkpt>
<trkpt lat="35.421837" lon="139.598609"><ele>9.8</ele></trkpt>
<trkpt lat="35.422130" lon="139.598615"><ele>10.0</ele></trkpt>
<trkpt lat="35.422377" lon="139.598613"><ele>10.0</ele></trkpt>
<trkpt lat="35.422504" lon="139.598612"><ele>10.2</ele></trkpt>
<trkpt lat="35.422584" lon="139.598619"><ele>10.0</ele></trkpt>
<trkpt lat="35.422711" lon="139.598629"><ele>9.8</ele></trkpt>
<trkpt lat="35.422781" lon="139.598620"><ele>9.8</ele></trkpt>
<trkpt lat="35.422904" lon="139.598582"><ele>9.8</ele></trkpt>
<trkpt lat="35.422998" lon="139.598552"><ele>9.5</ele></trkpt>
<trkpt lat="35.423121" lon="139.598535"><ele>9.2</ele></trkpt>
<trkpt lat="35.423204" lon="139.598527"><ele>9.2</ele></trkpt>
<trkpt lat="35.423248" lon="139.598523"><ele>9.0</ele></trkpt>
<trkpt lat="35.423427" lon="139.598540"><ele>9.0</ele></trkpt>
<trkpt lat="35.423480" lon="139.598544"><ele>9.0</ele></trkpt>
<trkpt lat="35.423719" lon="139.598570"><ele>9.2</ele></trkpt>
<trkpt lat="35.423797" lon="139.598623"><ele>9.2</ele></trkpt>
<trkpt lat="35.423886" lon="139.598774"><ele>9.2</ele></trkpt>
<trkpt lat="35.424028" lon="139.598953"><ele>9.0</ele></trkpt>
<trkpt lat="35.424117" lon="139.599014"><ele>9.0</ele></trkpt>
<trkpt lat="35.424158" lon="139.599041"><ele>9.0</ele></trkpt>
<trkpt lat="35.424409" lon="139.599158"><ele>9.0</ele></trkpt>
<trkpt lat="35.424539" lon="139.599236"><ele>8.5</ele></trkpt>
<trkpt lat="35.424637" lon="139.599293"><ele>8.5</ele></trkpt>
<trkpt lat="35.424723" lon="139.599334"><ele>8.2</ele></trkpt>
<trkpt lat="35.424833" lon="139.599398"><ele>8.2</ele></trkpt>
<trkpt lat="35.424874" lon="139.599423"><ele>8.2</ele></trkpt>
<trkpt lat="35.424916" lon="139.599447"><ele>8.2</ele></trkpt>
<trkpt lat="35.424990" lon="139.599505"><ele>8.0</ele></trkpt>
<trkpt lat="35.425113" lon="139.599573"><ele>8.0</ele></trkpt>
<trkpt lat="35.425241" lon="139.599632"><ele>7.8</ele></trkpt>
<trkpt lat="35.425525" lon="139.599724"><ele>7.0</ele></trkpt>
<trkpt lat="35.425654" lon="139.599714"><ele>7.0</ele></trkpt>
<trkpt lat="35.425920" lon="139.599669"><ele>7.2</ele></trkpt>
<trkpt lat="35.426057" lon="139.599695"><ele>7.2</ele></trkpt>
<trkpt lat="35.426253" lon="139.599748"><ele>7.0</ele></trkpt>
<trkpt lat="35.426363" lon="139.599872"><ele>5.8</ele></trkpt>
<trkpt lat="35.426438" lon="139.599969"><ele>4.5</ele></trkpt>
<trkpt lat="35.426499" lon="139.600088"><ele>4.0</ele></trkpt>
<trkpt lat="35.426620" lon="139.600401"><ele>4.0</ele></trkpt>
<trkpt lat="35.426635" lon="139.600424"><ele>4.0</ele></trkpt>
<trkpt lat="35.426663" lon="139.600444"><ele>4.0</ele></trkpt>
<trkpt lat="35.426846" lon="139.600497"><ele>4.2</ele></trkpt>
<trkpt lat="35.426948" lon="139.600541"><ele>4.2</ele></trkpt>
<trkpt lat="35.427094" lon="139.600670"><ele>4.2</ele></trkpt>
<trkpt lat="35.427244" lon="139.600869"><ele>3.8</ele></trkpt>
<trkpt lat="35.427294" lon="139.600958"><ele>3.8</ele></trkpt>
<trkpt lat="35.427330" lon="139.601034"><ele>3.8</ele></trkpt>
<trkpt lat="35.427432" lon="139.601410"><ele>3.8</ele></trkpt>
<trkpt lat="35.427560" lon="139.601766"><ele>4.0</ele></trkpt>
<trkpt lat="35.427602" lon="139.601878"><ele>4.0</ele></trkpt>
<trkpt lat="35.427761" lon="139.602315"><ele>4.0</ele></trkpt>
<trkpt lat="35.427836" lon="139.602521"><ele>4.0</ele></trkpt>
<trkpt lat="35.428032" lon="139.602992"><ele>5.0</ele></trkpt>
<trkpt lat="35.428147" lon="139.603259"><ele>5.2</ele></trkpt>
<trkpt lat="35.428336" lon="139.603680"><ele>5.0</ele></trkpt>
<trkpt lat="35.428423" lon="139.603891"><ele>5.2</ele></trkpt>
<trkpt lat="35.428684" lon="139.604449"><ele>6.0</ele></trkpt>
<trkpt lat="35.428737" lon="139.604590"><ele>6.0</ele></trkpt>
<trkpt lat="35.428799" lon="139.604753"><ele>6.2</ele></trkpt>
<trkpt lat="35.428955" lon="139.605249"><ele>5.2</ele></trkpt>
<trkpt lat="35.428978" lon="139.605310"><ele>5.0</ele></trkpt>
<trkpt lat="35.429002" lon="139.605386"><ele>4.8</ele></trkpt>
<trkpt lat="35.429025" lon="139.605463"><ele>4.5</ele></trkpt>
<trkpt lat="35.429144" lon="139.605801"><ele>3.0</ele></trkpt>
<trkpt lat="35.429243" lon="139.606084"><ele>3.0</ele></trkpt>
<trkpt lat="35.429300" lon="139.606221"><ele>3.0</ele></trkpt>
<trkpt lat="35.429447" lon="139.606576"><ele>2.5</ele></trkpt>
<trkpt lat="35.429633" lon="139.606937"><ele>3.0</ele></trkpt>
<trkpt lat="35.429754" lon="139.607068"><ele>3.0</ele></trkpt>
<trkpt lat="35.429866" lon="139.607180"><ele>3.0</ele></trkpt>
<trkpt lat="35.429897" lon="139.607201"><ele>3.0</ele></trkpt>
<trkpt lat="35.430145" lon="139.607371"><ele>3.0</ele></trkpt>
<trkpt lat="35.430314" lon="139.607464"><ele>3.2</ele></trkpt>
<trkpt lat="35.430459" lon="139.607523"><ele>3.5</ele></trkpt>
<trkpt lat="35.430727" lon="139.607597"><ele>4.2</ele></trkpt>
<trkpt lat="35.431158" lon="139.607757"><ele>4.5</ele></trkpt>
<trkpt lat="35.431274" lon="139.607817"><ele>4.2</ele></trkpt>
<trkpt lat="35.431418" lon="139.607903"><ele>4.0</ele></trkpt>
<trkpt lat="35.431569" lon="139.608013"><ele>3.2</ele></trkpt>
<trkpt lat="35.431669" lon="139.608080"><ele>2.8</ele></trkpt>
<trkpt lat="35.432107" lon="139.608426"><ele>1.2</ele></trkpt>
<trkpt lat="35.432130" lon="139.608444"><ele>1.2</ele></trkpt>
<trkpt lat="35.432166" lon="139.608476"><ele>1.0</ele></trkpt>
<trkpt lat="35.432375" lon="139.608656"><ele>0.2</ele></trkpt>
<trkpt lat="35.432896" lon="139.609153"><ele>0.0</ele></trkpt>
<trkpt lat="35.433471" lon="139.609946"><ele>5.2</ele></trkpt>
<trkpt lat="35.433776" lon="139.610431"><ele>5.8</ele></trkpt>
<trkpt lat="35.434107" lon="139.610975"><ele>5.5</ele></trkpt>
<trkpt lat="35.434159" lon="139.611059"><ele>5.2</ele></trkpt>
<trkpt lat="35.434205" lon="139.611140"><ele>5.0</ele></trkpt>
<trkpt lat="35.434245" lon="139.611230"><ele>4.8</ele></trkpt>
<trkpt lat="35.434528" lon="139.611985"><ele>2.5</ele></trkpt>
<trkpt lat="35.434563" lon="139.612064"><ele>2.2</ele></trkpt>
<trkpt lat="35.434607" lon="139.612143"><ele>2.0</ele></trkpt>
<trkpt lat="35.434681" lon="139.612259"><ele>1.5</ele></trkpt>
<trkpt lat="35.434988" lon="139.612704"><ele>1.2</ele></trkpt>
<trkpt lat="35.435024" lon="139.612745"><ele>1.5</ele></trkpt>
<trkpt lat="35.435161" lon="139.613023"><ele>2.8</ele></trkpt>
<trkpt lat="35.435185" lon="139.613095"><ele>3.0</ele></trkpt>
<trkpt lat="35.435223" lon="139.613250"><ele>3.5</ele></trkpt>
<trkpt lat="35.435232" lon="139.613478"><ele>4.2</ele></trkpt>
<trkpt lat="35.435216" lon="139.613802"><ele>5.5</ele></trkpt>
<trkpt lat="35.435210" lon="139.613999"><ele>6.5</ele></trkpt>
<trkpt lat="35.435195" lon="139.614171"><ele>7.2</ele></trkpt>
<trkpt lat="35.435169" lon="139.614494"><ele>7.8</ele></trkpt>
<trkpt lat="35.435163" lon="139.614684"><ele>8.0</ele></trkpt>
<trkpt lat="35.435228" lon="139.614792"><ele>7.8</ele></trkpt>
<trkpt lat="35.435306" lon="139.614853"><ele>7.5</ele></trkpt>
<trkpt lat="35.435445" lon="139.614931"><ele>7.2</ele></trkpt>
<trkpt lat="35.435608" lon="139.614977"><ele>6.8</ele></trkpt>
<trkpt lat="35.435656" lon="139.615423"><ele>5.8</ele></trkpt>
<trkpt lat="35.435697" lon="139.615442"><ele>5.5</ele></trkpt>
<trkpt lat="35.436146" lon="139.615612"><ele>5.2</ele></trkpt>
<trkpt lat="35.436179" lon="139.615736"><ele>5.0</ele></trkpt>
<trkpt lat="35.436378" lon="139.616211"><ele>5.2</ele></trkpt>
<trkpt lat="35.436528" lon="139.616785"><ele>6.0</ele></trkpt>
<trkpt lat="35.436668" lon="139.617288"><ele>7.2</ele></trkpt>
<trkpt lat="35.436793" lon="139.617737"><ele>7.5</ele></trkpt>
<trkpt lat="35.436807" lon="139.617785"><ele>7.5</ele></trkpt>
<trkpt lat="35.436838" lon="139.617873"><ele>7.2</ele></trkpt>
<trkpt lat="35.436847" lon="139.617925"><ele>7.2</ele></trkpt>
<trkpt lat="35.437000" lon="139.618454"><ele>6.8</ele></trkpt>
<trkpt lat="35.437086" lon="139.618754"><ele>6.0</ele></trkpt>
<trkpt lat="35.437169" lon="139.619045"><ele>5.8</ele></trkpt>
<trkpt lat="35.437359" lon="139.619727"><ele>8.0</ele></trkpt>
<trkpt lat="35.437426" lon="139.619968"><ele>9.0</ele></trkpt>
<trkpt lat="35.437486" lon="139.620184"><ele>8.5</ele></trkpt>
<trkpt lat="35.437573" lon="139.620498"><ele>7.2</ele></trkpt>
<trkpt lat="35.437952" lon="139.620338"><ele>5.8</ele></trkpt>
<trkpt lat="35.438133" lon="139.620261"><ele>4.8</ele></trkpt>
<trkpt lat="35.438149" lon="139.620255"><ele>4.5</ele></trkpt>
<trkpt lat="35.438471" lon="139.620112"><ele>3.5</ele></trkpt>
<trkpt lat="35.438496" lon="139.620098"><ele>3.8</ele></trkpt>
<trkpt lat="35.438730" lon="139.619969"><ele>4.2</ele></trkpt>
<trkpt lat="35.438750" lon="139.619960"><ele>4.2</ele></trkpt>
<trkpt lat="35.438829" lon="139.620202"><ele>4.8</ele></trkpt>
<trkpt lat="35.438865" lon="139.620451"><ele>5.2</ele></trkpt>
<trkpt lat="35.438859" lon="139.620717"><ele>5.5</ele></trkpt>
<trkpt lat="35.438864" lon="139.621060"><ele>5.2</ele></trkpt>
<trkpt lat="35.438878" lon="139.621342"><ele>5.0</ele></trkpt>
<trkpt lat="35.438894" lon="139.621444"><ele>4.8</ele></trkpt>
<trkpt lat="35.438944" lon="139.621730"><ele>4.2</ele></trkpt>
<trkpt lat="35.438965" lon="139.621856"><ele>4.0</ele></trkpt>
<trkpt lat="35.438996" lon="139.621965"><ele>3.5</ele></trkpt>
<trkpt lat="35.439046" lon="139.622140"><ele>2.5</ele></trkpt>
<trkpt lat="35.439166" lon="139.622451"><ele>0.2</ele></trkpt>
<trkpt lat="35.439304" lon="139.622763"><ele>1.8</ele></trkpt>
<trkpt lat="35.439501" lon="139.623156"><ele>3.8</ele></trkpt>
<trkpt lat="35.439654" lon="139.623424"><ele>5.2</ele></trkpt>
<trkpt lat="35.439691" lon="139.623460"><ele>5.5</ele></trkpt>
<trkpt lat="35.439780" lon="139.623547"><ele>6.2</ele></trkpt>
<trkpt lat="35.439834" lon="139.623636"><ele>6.5</ele></trkpt>
<trkpt lat="35.439926" lon="139.623787"><ele>7.2</ele></trkpt>
<trkpt lat="35.440103" lon="139.624010"><ele>7.5</ele></trkpt>
<trkpt lat="35.440362" lon="139.624301"><ele>6.8</ele></trkpt>
<trkpt lat="35.440454" lon="139.624344"><ele>6.2</ele></trkpt>
<trkpt lat="35.440503" lon="139.624398"><ele>6.0</ele></trkpt>
<trkpt lat="35.440681" lon="139.624638"><ele>4.8</ele></trkpt>
<trkpt lat="35.440846" lon="139.624857"><ele>3.5</ele></trkpt>
<trkpt lat="35.440878" lon="139.624943"><ele>3.2</ele></trkpt>
<trkpt lat="35.440904" lon="139.625014"><ele>3.2</ele></trkpt>
<trkpt lat="35.441176" lon="139.625475"><ele>4.8</ele></trkpt>
<trkpt lat="35.441247" lon="139.625562"><ele>4.8</ele></trkpt>
<trkpt lat="35.441478" lon="139.625806"><ele>4.2</ele></trkpt>
<trkpt lat="35.441790" lon="139.626018"><ele>3.5</ele></trkpt>
<trkpt lat="35.442155" lon="139.626162"><ele>3.0</ele></trkpt>
<trkpt lat="35.442736" lon="139.626430"><ele>3.2</ele></trkpt>
<trkpt lat="35.443158" lon="139.626589"><ele>4.5</ele></trkpt>
<trkpt lat="35.443197" lon="139.626604"><ele>4.5</ele></trkpt>
<trkpt lat="35.443348" lon="139.626661"><ele>5.0</ele></trkpt>
<trkpt lat="35.443484" lon="139.626735"><ele>5.5</ele></trkpt>
<trkpt lat="35.443634" lon="139.626818"><ele>6.0</ele></trkpt>
<trkpt lat="35.443684" lon="139.626844"><ele>6.0</ele></trkpt>
<trkpt lat="35.444594" lon="139.627328"><ele>8.5</ele></trkpt>
<trkpt lat="35.444657" lon="139.627362"><ele>8.5</ele></trkpt>
<trkpt lat="35.444875" lon="139.627536"><ele>7.8</ele></trkpt>
<trkpt lat="35.445322" lon="139.627815"><ele>8.0</ele></trkpt>
<trkpt lat="35.445396" lon="139.627875"><ele>8.0</ele></trkpt>
<trkpt lat="35.445438" lon="139.627828"><ele>8.0</ele></trkpt>
<trkpt lat="35.445512" lon="139.627736"><ele>8.2</ele></trkpt>
<trkpt lat="35.445587" lon="139.627786"><ele>8.2</ele></trkpt>
<trkpt lat="35.445946" lon="139.628050"><ele>9.0</ele></trkpt>
<trkpt lat="35.446328" lon="139.628295"><ele>12.5</ele></trkpt>
<trkpt lat="35.446833" lon="139.628639"><ele>13.8</ele></trkpt>
<trkpt lat="35.447050" lon="139.628787"><ele>13.2</ele></trkpt>
<trkpt lat="35.447321" lon="139.628982"><ele>12.5</ele></trkpt>
<trkpt lat="35.447461" lon="139.629077"><ele>12.5</ele></trkpt>
<trkpt lat="35.447622" lon="139.629187"><ele>11.8</ele></trkpt>
<trkpt lat="35.447669" lon="139.629219"><ele>11.8</ele></trkpt>
<trkpt lat="35.447711" lon="139.629248"><ele>11.5</ele></trkpt>
<trkpt lat="35.448144" lon="139.629553"><ele>10.8</ele></trkpt>
<trkpt lat="35.448344" lon="139.629687"><ele>10.8</ele></trkpt>
<trkpt lat="35.448489" lon="139.629784"><ele>11.0</ele></trkpt>
<trkpt lat="35.448824" lon="139.630027"><ele>12.8</ele></trkpt>
<trkpt lat="35.449102" lon="139.630213"><ele>14.2</ele></trkpt>
<trkpt lat="35.449270" lon="139.630326"><ele>13.8</ele></trkpt>
<trkpt lat="35.449307" lon="139.630397"><ele>13.2</ele></trkpt>
<trkpt lat="35.449489" lon="139.630738"><ele>11.8</ele></trkpt>
<trkpt lat="35.449523" lon="139.630802"><ele>11.2</ele></trkpt>
<trkpt lat="35.449820" lon="139.630563"><ele>9.2</ele></trkpt>
<trkpt lat="35.449902" lon="139.630500"><ele>8.8</ele></trkpt>
<trkpt lat="35.449963" lon="139.630452"><ele>8.2</ele></trkpt>
<trkpt lat="35.450246" lon="139.630231"><ele>8.0</ele></trkpt>
<trkpt lat="35.450676" lon="139.629893"><ele>6.8</ele></trkpt>
<trkpt lat="35.450894" lon="139.629722"><ele>6.5</ele></trkpt>
<trkpt lat="35.450964" lon="139.629667"><ele>6.8</ele></trkpt>
<trkpt lat="35.451012" lon="139.629629"><ele>7.0</ele></trkpt>
<trkpt lat="35.451302" lon="139.629402"><ele>8.5</ele></trkpt>
<trkpt lat="35.451402" lon="139.629249"><ele>9.0</ele></trkpt>
<trkpt lat="35.451615" lon="139.629071"><ele>10.8</ele></trkpt>
<trkpt lat="35.452222" lon="139.628592"><ele>11.5</ele></trkpt>
<trkpt lat="35.452250" lon="139.628571"><ele>11.5</ele></trkpt>
<trkpt lat="35.452311" lon="139.628524"><ele>11.5</ele></trkpt>
<trkpt lat="35.452325" lon="139.628560"><ele>11.2</ele></trkpt>
<trkpt lat="35.452472" lon="139.628934"><ele>9.0</ele></trkpt>
<trkpt lat="35.452499" lon="139.628996"><ele>8.8</ele></trkpt>
<trkpt lat="35.452542" lon="139.629064"><ele>8.5</ele></trkpt>
<trkpt lat="35.452612" lon="139.629159"><ele>8.5</ele></trkpt>
<trkpt lat="35.452665" lon="139.629226"><ele>9.2</ele></trkpt>
<trkpt lat="35.452845" lon="139.629572"><ele>11.8</ele></trkpt>
<trkpt lat="35.453128" lon="139.630114"><ele>12.2</ele></trkpt>
<trkpt lat="35.453269" lon="139.630373"><ele>10.8</ele></trkpt>
<trkpt lat="35.453287" lon="139.630407"><ele>10.5</ele></trkpt>
<trkpt lat="35.453507" lon="139.630830"><ele>8.8</ele></trkpt>
<trkpt lat="35.453567" lon="139.630943"><ele>8.2</ele></trkpt>
<trkpt lat="35.453632" lon="139.631063"><ele>7.5</ele></trkpt>
<trkpt lat="35.453638" lon="139.631167"><ele>6.8</ele></trkpt>
<trkpt lat="35.453661" lon="139.631210"><ele>6.5</ele></trkpt>
<trkpt lat="35.453958" lon="139.631770"><ele>3.5</ele></trkpt>
<trkpt lat="35.454040" lon="139.631919"><ele>2.8</ele></trkpt>
<trkpt lat="35.454103" lon="139.632009"><ele>2.2</ele></trkpt>
<trkpt lat="35.454168" lon="139.632086"><ele>1.8</ele></trkpt>
<trkpt lat="35.454266" lon="139.632194"><ele>1.8</ele></trkpt>
<trkpt lat="35.454341" lon="139.632266"><ele>1.5</ele></trkpt>
<trkpt lat="35.454447" lon="139.632348"><ele>1.8</ele></trkpt>
<trkpt lat="35.454702" lon="139.632522"><ele>2.0</ele></trkpt>
<trkpt lat="35.454980" lon="139.632728"><ele>3.8</ele></trkpt>
<trkpt lat="35.455078" lon="139.632815"><ele>5.2</ele></trkpt>
<trkpt lat="35.455201" lon="139.632964"><ele>7.0</ele></trkpt>
<trkpt lat="35.455148" lon="139.633013"><ele>6.2</ele></trkpt>
<trkpt lat="35.455254" lon="139.633177"><ele>8.0</ele></trkpt>
<trkpt lat="35.455357" lon="139.633376"><ele>9.5</ele></trkpt>
<trkpt lat="35.455210" lon="139.633503"><ele>7.2</ele></trkpt>
<trkpt lat="35.455183" lon="139.633527"><ele>7.0</ele></trkpt>
<trkpt lat="35.454950" lon="139.633716"><ele>5.0</ele></trkpt>
<trkpt lat="35.454713" lon="139.633905"><ele>5.0</ele></trkpt>
<trkpt lat="35.454657" lon="139.633969"><ele>5.2</ele></trkpt>
<trkpt lat="35.455019" lon="139.634430"><ele>7.0</ele></trkpt>
<trkpt lat="35.455213" lon="139.634694"><ele>7.0</ele></trkpt>
</trkseg></trk></gpx>
