<?xml version="1.0" encoding="UTF-8"?>
<gpx version="1.1" creator="TokyoCycling2026" xmlns="http://www.topografix.com/GPX/1/1">
  <metadata>
    <name>Day 19: 圓滿篇：秋葉原市區 ➔ 神田明神 ➔ CycleTrip Base 還車 ➔ 日暮里 ➔ 機場</name>
    <desc>7.9 km | +9m / -13m</desc>
  </metadata>
  <trk>
    <name>Day 19: 圓滿篇：秋葉原市區 ➔ 神田明神 ➔ CycleTrip Base 還車 ➔ 日暮里 ➔ 機場</name>
    <trkseg>
      <trkpt lat="35.698425" lon="139.778496"></trkpt>
      <trkpt lat="35.698438" lon="139.778098"></trkpt>
      <trkpt lat="35.698467" lon="139.777218"></trkpt>
      <trkpt lat="35.698507" lon="139.777219"></trkpt>
      <trkpt lat="35.698675" lon="139.777225"></trkpt>
      <trkpt lat="35.698702" lon="139.777226"></trkpt>
      <trkpt lat="35.698761" lon="139.777228"></trkpt>
      <trkpt lat="35.698765" lon="139.777117"></trkpt>
      <trkpt lat="35.698773" lon="139.776901"></trkpt>
      <trkpt lat="35.698783" lon="139.776581"></trkpt>
      <trkpt lat="35.698791" lon="139.776267"></trkpt>
      <trkpt lat="35.698806" lon="139.775804"></trkpt>
      <trkpt lat="35.698808" lon="139.775751"></trkpt>
      <trkpt lat="35.698811" lon="139.775649"></trkpt>
      <trkpt lat="35.698816" lon="139.775409"></trkpt>
      <trkpt lat="35.699197" lon="139.775413"></trkpt>
      <trkpt lat="35.699277" lon="139.775413"></trkpt>
      <trkpt lat="35.699371" lon="139.775416"></trkpt>
      <trkpt lat="35.699374" lon="139.775265"></trkpt>
      <trkpt lat="35.699376" lon="139.775237"></trkpt>
      <trkpt lat="35.699414" lon="139.774552"></trkpt>
      <trkpt lat="35.699417" lon="139.774498"></trkpt>
      <trkpt lat="35.69944" lon="139.774348"></trkpt>
      <trkpt lat="35.699454" lon="139.774203"></trkpt>
      <trkpt lat="35.699456" lon="139.774171"></trkpt>
      <trkpt lat="35.699488" lon="139.773635"></trkpt>
      <trkpt lat="35.699521" lon="139.773099"></trkpt>
      <trkpt lat="35.699524" lon="139.773054"></trkpt>
      <trkpt lat="35.699531" lon="139.772937"></trkpt>
      <trkpt lat="35.699545" lon="139.772747"></trkpt>
      <trkpt lat="35.699551" lon="139.772677"></trkpt>
      <trkpt lat="35.699601" lon="139.772038"></trkpt>
      <trkpt lat="35.699615" lon="139.7718"></trkpt>
      <trkpt lat="35.699628" lon="139.771635"></trkpt>
      <trkpt lat="35.699633" lon="139.771566"></trkpt>
      <trkpt lat="35.69965" lon="139.771466"></trkpt>
      <trkpt lat="35.699669" lon="139.771326"></trkpt>
      <trkpt lat="35.699679" lon="139.77118"></trkpt>
      <trkpt lat="35.699684" lon="139.771116"></trkpt>
      <trkpt lat="35.699717" lon="139.77064"></trkpt>
      <trkpt lat="35.699722" lon="139.770576"></trkpt>
      <trkpt lat="35.699737" lon="139.770371"></trkpt>
      <trkpt lat="35.699789" lon="139.769692"></trkpt>
      <trkpt lat="35.699811" lon="139.769394"></trkpt>
      <trkpt lat="35.699815" lon="139.769333"></trkpt>
      <trkpt lat="35.699819" lon="139.769217"></trkpt>
      <trkpt lat="35.699823" lon="139.769126"></trkpt>
      <trkpt lat="35.699828" lon="139.768988"></trkpt>
      <trkpt lat="35.69983" lon="139.768924"></trkpt>
      <trkpt lat="35.699836" lon="139.768721"></trkpt>
      <trkpt lat="35.699839" lon="139.768641"></trkpt>
      <trkpt lat="35.699842" lon="139.768544"></trkpt>
      <trkpt lat="35.699844" lon="139.768503"></trkpt>
      <trkpt lat="35.699848" lon="139.768461"></trkpt>
      <trkpt lat="35.699855" lon="139.768423"></trkpt>
      <trkpt lat="35.699867" lon="139.76839"></trkpt>
      <trkpt lat="35.699892" lon="139.768359"></trkpt>
      <trkpt lat="35.699929" lon="139.768312"></trkpt>
      <trkpt lat="35.700566" lon="139.767509"></trkpt>
      <trkpt lat="35.700703" lon="139.767331"></trkpt>
      <trkpt lat="35.700793" lon="139.767202"></trkpt>
      <trkpt lat="35.700875" lon="139.767079"></trkpt>
      <trkpt lat="35.700927" lon="139.766996"></trkpt>
      <trkpt lat="35.701027" lon="139.767085"></trkpt>
      <trkpt lat="35.701056" lon="139.767111"></trkpt>
      <trkpt lat="35.701446" lon="139.76745"></trkpt>
      <trkpt lat="35.701295" lon="139.767786"></trkpt>
      <trkpt lat="35.701501" lon="139.767928"></trkpt>
      <trkpt lat="35.701583" lon="139.767964"></trkpt>
      <trkpt lat="35.701623" lon="139.767912"></trkpt>
      <trkpt lat="35.701657" lon="139.767924"></trkpt>
      <trkpt lat="35.701922" lon="139.768143"></trkpt>
      <trkpt lat="35.701976" lon="139.768187"></trkpt>
      <trkpt lat="35.702237" lon="139.768272"></trkpt>
      <trkpt lat="35.702298" lon="139.7681"></trkpt>
      <trkpt lat="35.702328" lon="139.768018"></trkpt>
      <trkpt lat="35.702343" lon="139.767936"></trkpt>
      <trkpt lat="35.702355" lon="139.767878"></trkpt>
      <trkpt lat="35.702355" lon="139.767865"></trkpt>
      <trkpt lat="35.702349" lon="139.767848"></trkpt>
      <trkpt lat="35.702345" lon="139.767831"></trkpt>
      <trkpt lat="35.702343" lon="139.767813"></trkpt>
      <trkpt lat="35.702339" lon="139.767799"></trkpt>
      <trkpt lat="35.702315" lon="139.767772"></trkpt>
      <trkpt lat="35.70231" lon="139.767671"></trkpt>
      <trkpt lat="35.702259" lon="139.767563"></trkpt>
      <trkpt lat="35.702283" lon="139.767532"></trkpt>
      <trkpt lat="35.702259" lon="139.767563"></trkpt>
      <trkpt lat="35.70231" lon="139.767671"></trkpt>
      <trkpt lat="35.702315" lon="139.767772"></trkpt>
      <trkpt lat="35.702339" lon="139.767799"></trkpt>
      <trkpt lat="35.702343" lon="139.767813"></trkpt>
      <trkpt lat="35.702345" lon="139.767831"></trkpt>
      <trkpt lat="35.702349" lon="139.767848"></trkpt>
      <trkpt lat="35.702355" lon="139.767865"></trkpt>
      <trkpt lat="35.702355" lon="139.767878"></trkpt>
      <trkpt lat="35.702343" lon="139.767936"></trkpt>
      <trkpt lat="35.702328" lon="139.768018"></trkpt>
      <trkpt lat="35.702298" lon="139.7681"></trkpt>
      <trkpt lat="35.702237" lon="139.768272"></trkpt>
      <trkpt lat="35.701976" lon="139.768187"></trkpt>
      <trkpt lat="35.701657" lon="139.767924"></trkpt>
      <trkpt lat="35.701623" lon="139.767912"></trkpt>
      <trkpt lat="35.701583" lon="139.767964"></trkpt>
      <trkpt lat="35.701501" lon="139.767928"></trkpt>
      <trkpt lat="35.701295" lon="139.767786"></trkpt>
      <trkpt lat="35.701446" lon="139.76745"></trkpt>
      <trkpt lat="35.701056" lon="139.767111"></trkpt>
      <trkpt lat="35.701027" lon="139.767085"></trkpt>
      <trkpt lat="35.700927" lon="139.766996"></trkpt>
      <trkpt lat="35.700875" lon="139.767079"></trkpt>
      <trkpt lat="35.700793" lon="139.767202"></trkpt>
      <trkpt lat="35.700703" lon="139.767331"></trkpt>
      <trkpt lat="35.700566" lon="139.767509"></trkpt>
      <trkpt lat="35.699929" lon="139.768312"></trkpt>
      <trkpt lat="35.699892" lon="139.768359"></trkpt>
      <trkpt lat="35.699867" lon="139.76839"></trkpt>
      <trkpt lat="35.699855" lon="139.768423"></trkpt>
      <trkpt lat="35.699848" lon="139.768461"></trkpt>
      <trkpt lat="35.699844" lon="139.768503"></trkpt>
      <trkpt lat="35.699842" lon="139.768544"></trkpt>
      <trkpt lat="35.699839" lon="139.768641"></trkpt>
      <trkpt lat="35.699836" lon="139.768721"></trkpt>
      <trkpt lat="35.69983" lon="139.768924"></trkpt>
      <trkpt lat="35.699828" lon="139.768988"></trkpt>
      <trkpt lat="35.699823" lon="139.769126"></trkpt>
      <trkpt lat="35.699819" lon="139.769217"></trkpt>
      <trkpt lat="35.69968" lon="139.769199"></trkpt>
      <trkpt lat="35.699511" lon="139.769169"></trkpt>
      <trkpt lat="35.69897" lon="139.76907"></trkpt>
      <trkpt lat="35.698896" lon="139.769057"></trkpt>
      <trkpt lat="35.698717" lon="139.769041"></trkpt>
      <trkpt lat="35.698623" lon="139.769224"></trkpt>
      <trkpt lat="35.698491" lon="139.769489"></trkpt>
      <trkpt lat="35.698165" lon="139.77014"></trkpt>
      <trkpt lat="35.698015" lon="139.770438"></trkpt>
      <trkpt lat="35.697802" lon="139.770862"></trkpt>
      <trkpt lat="35.697791" lon="139.770883"></trkpt>
      <trkpt lat="35.697681" lon="139.771111"></trkpt>
      <trkpt lat="35.697636" lon="139.771249"></trkpt>
      <trkpt lat="35.697606" lon="139.771421"></trkpt>
      <trkpt lat="35.697601" lon="139.771793"></trkpt>
      <trkpt lat="35.69759" lon="139.772101"></trkpt>
      <trkpt lat="35.697586" lon="139.772389"></trkpt>
      <trkpt lat="35.697585" lon="139.772449"></trkpt>
      <trkpt lat="35.697584" lon="139.772529"></trkpt>
      <trkpt lat="35.697584" lon="139.772624"></trkpt>
      <trkpt lat="35.697579" lon="139.773688"></trkpt>
      <trkpt lat="35.697579" lon="139.773748"></trkpt>
      <trkpt lat="35.697578" lon="139.773859"></trkpt>
      <trkpt lat="35.697577" lon="139.773936"></trkpt>
      <trkpt lat="35.697575" lon="139.774052"></trkpt>
      <trkpt lat="35.697556" lon="139.774837"></trkpt>
      <trkpt lat="35.697554" lon="139.775032"></trkpt>
      <trkpt lat="35.697552" lon="139.775206"></trkpt>
      <trkpt lat="35.697551" lon="139.775253"></trkpt>
      <trkpt lat="35.697548" lon="139.775378"></trkpt>
      <trkpt lat="35.698104" lon="139.77538"></trkpt>
      <trkpt lat="35.698175" lon="139.775383"></trkpt>
      <trkpt lat="35.698298" lon="139.775494"></trkpt>
      <trkpt lat="35.698727" lon="139.775497"></trkpt>
      <trkpt lat="35.698811" lon="139.775649"></trkpt>
      <trkpt lat="35.698808" lon="139.775751"></trkpt>
      <trkpt lat="35.698806" lon="139.775804"></trkpt>
      <trkpt lat="35.698791" lon="139.776267"></trkpt>
      <trkpt lat="35.698783" lon="139.776581"></trkpt>
      <trkpt lat="35.698773" lon="139.776901"></trkpt>
      <trkpt lat="35.698765" lon="139.777117"></trkpt>
      <trkpt lat="35.698761" lon="139.777228"></trkpt>
      <trkpt lat="35.698759" lon="139.777274"></trkpt>
      <trkpt lat="35.698752" lon="139.77748"></trkpt>
      <trkpt lat="35.698734" lon="139.777971"></trkpt>
      <trkpt lat="35.698715" lon="139.77849"></trkpt>
      <trkpt lat="35.698674" lon="139.77963"></trkpt>
      <trkpt lat="35.698631" lon="139.779627"></trkpt>
      <trkpt lat="35.698388" lon="139.779616"></trkpt>
      <trkpt lat="35.69841" lon="139.778948"></trkpt>
      <trkpt lat="35.698425" lon="139.778496"></trkpt>
      <trkpt lat="35.698438" lon="139.778098"></trkpt>
      <trkpt lat="35.698467" lon="139.777218"></trkpt>
      <trkpt lat="35.698507" lon="139.777219"></trkpt>
      <trkpt lat="35.698675" lon="139.777225"></trkpt>
      <trkpt lat="35.698702" lon="139.777226"></trkpt>
      <trkpt lat="35.698761" lon="139.777228"></trkpt>
      <trkpt lat="35.698765" lon="139.777117"></trkpt>
      <trkpt lat="35.698773" lon="139.776901"></trkpt>
      <trkpt lat="35.698783" lon="139.776581"></trkpt>
      <trkpt lat="35.698791" lon="139.776267"></trkpt>
      <trkpt lat="35.698806" lon="139.775804"></trkpt>
      <trkpt lat="35.698808" lon="139.775751"></trkpt>
      <trkpt lat="35.698811" lon="139.775649"></trkpt>
      <trkpt lat="35.698816" lon="139.775409"></trkpt>
      <trkpt lat="35.699197" lon="139.775413"></trkpt>
      <trkpt lat="35.699277" lon="139.775413"></trkpt>
      <trkpt lat="35.699371" lon="139.775416"></trkpt>
      <trkpt lat="35.699482" lon="139.775418"></trkpt>
      <trkpt lat="35.699604" lon="139.775422"></trkpt>
      <trkpt lat="35.700083" lon="139.775429"></trkpt>
      <trkpt lat="35.700381" lon="139.775435"></trkpt>
      <trkpt lat="35.7006" lon="139.775434"></trkpt>
      <trkpt lat="35.700667" lon="139.775436"></trkpt>
      <trkpt lat="35.701237" lon="139.775489"></trkpt>
      <trkpt lat="35.701529" lon="139.775521"></trkpt>
      <trkpt lat="35.701595" lon="139.775529"></trkpt>
      <trkpt lat="35.702104" lon="139.775586"></trkpt>
      <trkpt lat="35.702524" lon="139.775633"></trkpt>
      <trkpt lat="35.702593" lon="139.775639"></trkpt>
      <trkpt lat="35.702628" lon="139.775643"></trkpt>
      <trkpt lat="35.702672" lon="139.775647"></trkpt>
      <trkpt lat="35.702758" lon="139.775657"></trkpt>
      <trkpt lat="35.703205" lon="139.775711"></trkpt>
      <trkpt lat="35.70362" lon="139.775752"></trkpt>
      <trkpt lat="35.704157" lon="139.775799"></trkpt>
      <trkpt lat="35.704224" lon="139.775805"></trkpt>
      <trkpt lat="35.704317" lon="139.775814"></trkpt>
      <trkpt lat="35.704791" lon="139.775858"></trkpt>
      <trkpt lat="35.705803" lon="139.775953"></trkpt>
      <trkpt lat="35.705866" lon="139.775959"></trkpt>
      <trkpt lat="35.705955" lon="139.775969"></trkpt>
      <trkpt lat="35.706591" lon="139.776036"></trkpt>
      <trkpt lat="35.707479" lon="139.776137"></trkpt>
      <trkpt lat="35.707669" lon="139.776159"></trkpt>
      <trkpt lat="35.707801" lon="139.776176"></trkpt>
      <trkpt lat="35.707871" lon="139.776185"></trkpt>
      <trkpt lat="35.708443" lon="139.776246"></trkpt>
      <trkpt lat="35.708705" lon="139.776273"></trkpt>
      <trkpt lat="35.708901" lon="139.776294"></trkpt>
      <trkpt lat="35.709801" lon="139.7764"></trkpt>
      <trkpt lat="35.709949" lon="139.776415"></trkpt>
      <trkpt lat="35.71002" lon="139.776422"></trkpt>
      <trkpt lat="35.710772" lon="139.776496"></trkpt>
      <trkpt lat="35.71082" lon="139.7765"></trkpt>
      <trkpt lat="35.711119" lon="139.776544"></trkpt>
      <trkpt lat="35.711245" lon="139.776572"></trkpt>
      <trkpt lat="35.711304" lon="139.776585"></trkpt>
      <trkpt lat="35.711373" lon="139.776607"></trkpt>
      <trkpt lat="35.711457" lon="139.776652"></trkpt>
      <trkpt lat="35.711545" lon="139.776723"></trkpt>
      <trkpt lat="35.711639" lon="139.776841"></trkpt>
      <trkpt lat="35.711822" lon="139.777074"></trkpt>
      <trkpt lat="35.711995" lon="139.777358"></trkpt>
      <trkpt lat="35.712104" lon="139.77747"></trkpt>
      <trkpt lat="35.712173" lon="139.777595"></trkpt>
      <trkpt lat="35.712207" lon="139.777714"></trkpt>
      <trkpt lat="35.712253" lon="139.777885"></trkpt>
      <trkpt lat="35.712289" lon="139.777963"></trkpt>
      <trkpt lat="35.712333" lon="139.778029"></trkpt>
      <trkpt lat="35.712369" lon="139.778068"></trkpt>
      <trkpt lat="35.712401" lon="139.778098"></trkpt>
      <trkpt lat="35.712469" lon="139.778158"></trkpt>
      <trkpt lat="35.71273" lon="139.778391"></trkpt>
      <trkpt lat="35.713162" lon="139.778678"></trkpt>
      <trkpt lat="35.713736" lon="139.779085"></trkpt>
      <trkpt lat="35.714597" lon="139.779681"></trkpt>
      <trkpt lat="35.714666" lon="139.779727"></trkpt>
      <trkpt lat="35.714736" lon="139.779778"></trkpt>
      <trkpt lat="35.715466" lon="139.780295"></trkpt>
      <trkpt lat="35.716121" lon="139.780753"></trkpt>
      <trkpt lat="35.716217" lon="139.78082"></trkpt>
      <trkpt lat="35.716352" lon="139.780924"></trkpt>
      <trkpt lat="35.716982" lon="139.781411"></trkpt>
      <trkpt lat="35.717055" lon="139.781468"></trkpt>
      <trkpt lat="35.717156" lon="139.781547"></trkpt>
      <trkpt lat="35.717543" lon="139.781852"></trkpt>
      <trkpt lat="35.717837" lon="139.782096"></trkpt>
      <trkpt lat="35.718067" lon="139.782288"></trkpt>
      <trkpt lat="35.718182" lon="139.782389"></trkpt>
      <trkpt lat="35.718508" lon="139.782639"></trkpt>
      <trkpt lat="35.71867" lon="139.782766"></trkpt>
      <trkpt lat="35.718941" lon="139.782978"></trkpt>
      <trkpt lat="35.71922" lon="139.783214"></trkpt>
      <trkpt lat="35.719326" lon="139.783242"></trkpt>
      <trkpt lat="35.719657" lon="139.783506"></trkpt>
      <trkpt lat="35.719712" lon="139.783531"></trkpt>
      <trkpt lat="35.719737" lon="139.783533"></trkpt>
      <trkpt lat="35.719781" lon="139.783532"></trkpt>
      <trkpt lat="35.719848" lon="139.783512"></trkpt>
      <trkpt lat="35.719865" lon="139.783499"></trkpt>
      <trkpt lat="35.719896" lon="139.783476"></trkpt>
      <trkpt lat="35.719934" lon="139.783504"></trkpt>
      <trkpt lat="35.719949" lon="139.783453"></trkpt>
      <trkpt lat="35.720062" lon="139.783098"></trkpt>
      <trkpt lat="35.720349" lon="139.782199"></trkpt>
      <trkpt lat="35.720367" lon="139.782142"></trkpt>
      <trkpt lat="35.720498" lon="139.781714"></trkpt>
      <trkpt lat="35.720532" lon="139.781612"></trkpt>
      <trkpt lat="35.720573" lon="139.781498"></trkpt>
      <trkpt lat="35.720655" lon="139.781348"></trkpt>
      <trkpt lat="35.720746" lon="139.781195"></trkpt>
      <trkpt lat="35.720787" lon="139.781129"></trkpt>
      <trkpt lat="35.720944" lon="139.780912"></trkpt>
      <trkpt lat="35.721" lon="139.780842"></trkpt>
      <trkpt lat="35.721071" lon="139.78077"></trkpt>
      <trkpt lat="35.721168" lon="139.780677"></trkpt>
      <trkpt lat="35.721299" lon="139.780556"></trkpt>
      <trkpt lat="35.721421" lon="139.780446"></trkpt>
      <trkpt lat="35.721715" lon="139.780192"></trkpt>
      <trkpt lat="35.721916" lon="139.77994"></trkpt>
      <trkpt lat="35.722111" lon="139.779733"></trkpt>
      <trkpt lat="35.722247" lon="139.779596"></trkpt>
      <trkpt lat="35.722368" lon="139.779477"></trkpt>
      <trkpt lat="35.722512" lon="139.779321"></trkpt>
      <trkpt lat="35.722601" lon="139.779204"></trkpt>
      <trkpt lat="35.722668" lon="139.779093"></trkpt>
      <trkpt lat="35.722712" lon="139.778999"></trkpt>
      <trkpt lat="35.72274" lon="139.778932"></trkpt>
      <trkpt lat="35.722765" lon="139.77887"></trkpt>
      <trkpt lat="35.722965" lon="139.778302"></trkpt>
      <trkpt lat="35.722977" lon="139.77827"></trkpt>
      <trkpt lat="35.723014" lon="139.778171"></trkpt>
      <trkpt lat="35.723206" lon="139.77821"></trkpt>
      <trkpt lat="35.723493" lon="139.778353"></trkpt>
      <trkpt lat="35.72374" lon="139.778472"></trkpt>
      <trkpt lat="35.72384" lon="139.778515"></trkpt>
      <trkpt lat="35.723933" lon="139.778547"></trkpt>
      <trkpt lat="35.72402" lon="139.778624"></trkpt>
      <trkpt lat="35.724071" lon="139.778461"></trkpt>
      <trkpt lat="35.72423" lon="139.778213"></trkpt>
      <trkpt lat="35.724367" lon="139.778001"></trkpt>
      <trkpt lat="35.724392" lon="139.777963"></trkpt>
      <trkpt lat="35.724871" lon="139.777243"></trkpt>
      <trkpt lat="35.724943" lon="139.777133"></trkpt>
      <trkpt lat="35.72502" lon="139.777018"></trkpt>
      <trkpt lat="35.725037" lon="139.776992"></trkpt>
      <trkpt lat="35.725097" lon="139.776901"></trkpt>
      <trkpt lat="35.726007" lon="139.775489"></trkpt>
      <trkpt lat="35.72607" lon="139.775413"></trkpt>
      <trkpt lat="35.726124" lon="139.775356"></trkpt>
      <trkpt lat="35.726254" lon="139.77522"></trkpt>
      <trkpt lat="35.726289" lon="139.775188"></trkpt>
      <trkpt lat="35.72636" lon="139.775123"></trkpt>
      <trkpt lat="35.726408" lon="139.775078"></trkpt>
      <trkpt lat="35.726831" lon="139.774688"></trkpt>
      <trkpt lat="35.727261" lon="139.774286"></trkpt>
      <trkpt lat="35.7273" lon="139.774249"></trkpt>
      <trkpt lat="35.727382" lon="139.774171"></trkpt>
      <trkpt lat="35.727625" lon="139.773945"></trkpt>
      <trkpt lat="35.72803" lon="139.773546"></trkpt>
      <trkpt lat="35.728343" lon="139.773251"></trkpt>
      <trkpt lat="35.728473" lon="139.773121"></trkpt>
      <trkpt lat="35.728465" lon="139.772988"></trkpt>
      <trkpt lat="35.728456" lon="139.772846"></trkpt>
      <trkpt lat="35.728405" lon="139.772181"></trkpt>
      <trkpt lat="35.728388" lon="139.771958"></trkpt>
      <trkpt lat="35.728341" lon="139.771928"></trkpt>
      <trkpt lat="35.728215" lon="139.771912"></trkpt>
      <trkpt lat="35.728146" lon="139.771907"></trkpt>
      <trkpt lat="35.728059" lon="139.771899"></trkpt>
      <trkpt lat="35.728031" lon="139.771896"></trkpt>
      <trkpt lat="35.72799" lon="139.771894"></trkpt>
      <trkpt lat="35.727966" lon="139.771891"></trkpt>
      <trkpt lat="35.727887" lon="139.771801"></trkpt>
      <trkpt lat="35.727871" lon="139.771763"></trkpt>
      <trkpt lat="35.727874" lon="139.771727"></trkpt>
      <trkpt lat="35.728235" lon="139.771305"></trkpt>
    </trkseg>
  </trk>
</gpx>