<?xml version="1.0" encoding="UTF-8"?>
<gpx version="1.1" creator="TokyoCycling2026" xmlns="http://www.topografix.com/GPX/1/1">
  <metadata>
    <name>Day 11: 花火篇：Apt南熱海 ➔ 熱海梅園最晚紅葉 ➔ 熱海銀座商店街 ➔ 晚上 20:20 熱海海上花火大會 (宿 guest house MARUYA)</name>
    <desc>12.2 km | +250m / -250m</desc>
  </metadata>
  <trk>
    <name>Day 11: 花火篇：Apt南熱海 ➔ 熱海梅園最晚紅葉 ➔ 熱海銀座商店街 ➔ 晚上 20:20 熱海海上花火大會 (宿 guest house MARUYA)</name>
    <trkseg>
      <trkpt lat="35.044893" lon="139.081986"></trkpt>
      <trkpt lat="35.045032" lon="139.081689"></trkpt>
      <trkpt lat="35.045255" lon="139.08122"></trkpt>
      <trkpt lat="35.045465" lon="139.080823"></trkpt>
      <trkpt lat="35.046141" lon="139.079804"></trkpt>
      <trkpt lat="35.046311" lon="139.079514"></trkpt>
      <trkpt lat="35.046294" lon="139.079185"></trkpt>
      <trkpt lat="35.04627" lon="139.079023"></trkpt>
      <trkpt lat="35.046235" lon="139.078894"></trkpt>
      <trkpt lat="35.046024" lon="139.078594"></trkpt>
      <trkpt lat="35.045951" lon="139.078452"></trkpt>
      <trkpt lat="35.045897" lon="139.078329"></trkpt>
      <trkpt lat="35.045875" lon="139.078181"></trkpt>
      <trkpt lat="35.045853" lon="139.077813"></trkpt>
      <trkpt lat="35.045862" lon="139.077034"></trkpt>
      <trkpt lat="35.045953" lon="139.075796"></trkpt>
      <trkpt lat="35.045986" lon="139.075453"></trkpt>
      <trkpt lat="35.0461" lon="139.074987"></trkpt>
      <trkpt lat="35.046337" lon="139.074564"></trkpt>
      <trkpt lat="35.046673" lon="139.074119"></trkpt>
      <trkpt lat="35.047075" lon="139.073638"></trkpt>
      <trkpt lat="35.04748" lon="139.073189"></trkpt>
      <trkpt lat="35.047716" lon="139.072962"></trkpt>
      <trkpt lat="35.047885" lon="139.072799"></trkpt>
      <trkpt lat="35.04818" lon="139.072567"></trkpt>
      <trkpt lat="35.048317" lon="139.072449"></trkpt>
      <trkpt lat="35.048516" lon="139.072279"></trkpt>
      <trkpt lat="35.048601" lon="139.072215"></trkpt>
      <trkpt lat="35.048973" lon="139.07194"></trkpt>
      <trkpt lat="35.049255" lon="139.071765"></trkpt>
      <trkpt lat="35.049561" lon="139.071572"></trkpt>
      <trkpt lat="35.050399" lon="139.071155"></trkpt>
      <trkpt lat="35.051024" lon="139.070874"></trkpt>
      <trkpt lat="35.051125" lon="139.070822"></trkpt>
      <trkpt lat="35.051231" lon="139.070762"></trkpt>
      <trkpt lat="35.051423" lon="139.070642"></trkpt>
      <trkpt lat="35.051624" lon="139.070477"></trkpt>
      <trkpt lat="35.051953" lon="139.070161"></trkpt>
      <trkpt lat="35.052544" lon="139.069557"></trkpt>
      <trkpt lat="35.052944" lon="139.069262"></trkpt>
      <trkpt lat="35.053302" lon="139.06904"></trkpt>
      <trkpt lat="35.053452" lon="139.068952"></trkpt>
      <trkpt lat="35.053595" lon="139.06889"></trkpt>
      <trkpt lat="35.054176" lon="139.068673"></trkpt>
      <trkpt lat="35.054282" lon="139.068633"></trkpt>
      <trkpt lat="35.054391" lon="139.068607"></trkpt>
      <trkpt lat="35.054497" lon="139.068587"></trkpt>
      <trkpt lat="35.054577" lon="139.068575"></trkpt>
      <trkpt lat="35.055236" lon="139.068476"></trkpt>
      <trkpt lat="35.055956" lon="139.068456"></trkpt>
      <trkpt lat="35.056122" lon="139.068462"></trkpt>
      <trkpt lat="35.056379" lon="139.06851"></trkpt>
      <trkpt lat="35.056569" lon="139.068589"></trkpt>
      <trkpt lat="35.056754" lon="139.068665"></trkpt>
      <trkpt lat="35.056921" lon="139.06876"></trkpt>
      <trkpt lat="35.057204" lon="139.069002"></trkpt>
      <trkpt lat="35.057486" lon="139.069288"></trkpt>
      <trkpt lat="35.057618" lon="139.069412"></trkpt>
      <trkpt lat="35.057844" lon="139.069599"></trkpt>
      <trkpt lat="35.058034" lon="139.069739"></trkpt>
      <trkpt lat="35.058537" lon="139.070111"></trkpt>
      <trkpt lat="35.058857" lon="139.07046"></trkpt>
      <trkpt lat="35.059093" lon="139.070848"></trkpt>
      <trkpt lat="35.05933" lon="139.071382"></trkpt>
      <trkpt lat="35.059346" lon="139.071419"></trkpt>
      <trkpt lat="35.059408" lon="139.071569"></trkpt>
      <trkpt lat="35.059606" lon="139.072042"></trkpt>
      <trkpt lat="35.059735" lon="139.072303"></trkpt>
      <trkpt lat="35.059946" lon="139.072605"></trkpt>
      <trkpt lat="35.06023" lon="139.072941"></trkpt>
      <trkpt lat="35.060504" lon="139.073146"></trkpt>
      <trkpt lat="35.060573" lon="139.073204"></trkpt>
      <trkpt lat="35.060638" lon="139.073252"></trkpt>
      <trkpt lat="35.060944" lon="139.073426"></trkpt>
      <trkpt lat="35.061391" lon="139.073595"></trkpt>
      <trkpt lat="35.062375" lon="139.073982"></trkpt>
      <trkpt lat="35.062447" lon="139.07401"></trkpt>
      <trkpt lat="35.063126" lon="139.074264"></trkpt>
      <trkpt lat="35.063602" lon="139.074404"></trkpt>
      <trkpt lat="35.064223" lon="139.074564"></trkpt>
      <trkpt lat="35.064677" lon="139.074722"></trkpt>
      <trkpt lat="35.065225" lon="139.074955"></trkpt>
      <trkpt lat="35.065339" lon="139.075003"></trkpt>
      <trkpt lat="35.065599" lon="139.075138"></trkpt>
      <trkpt lat="35.06618" lon="139.075478"></trkpt>
      <trkpt lat="35.066216" lon="139.075499"></trkpt>
      <trkpt lat="35.066513" lon="139.07562"></trkpt>
      <trkpt lat="35.066892" lon="139.07572"></trkpt>
      <trkpt lat="35.067159" lon="139.075775"></trkpt>
      <trkpt lat="35.067412" lon="139.075901"></trkpt>
      <trkpt lat="35.067539" lon="139.076054"></trkpt>
      <trkpt lat="35.067649" lon="139.076186"></trkpt>
      <trkpt lat="35.067734" lon="139.076404"></trkpt>
      <trkpt lat="35.06776" lon="139.076467"></trkpt>
      <trkpt lat="35.06804" lon="139.077145"></trkpt>
      <trkpt lat="35.068125" lon="139.077258"></trkpt>
      <trkpt lat="35.068762" lon="139.0779"></trkpt>
      <trkpt lat="35.068852" lon="139.07795"></trkpt>
      <trkpt lat="35.068897" lon="139.077975"></trkpt>
      <trkpt lat="35.068992" lon="139.077997"></trkpt>
      <trkpt lat="35.069289" lon="139.077977"></trkpt>
      <trkpt lat="35.06977" lon="139.077753"></trkpt>
      <trkpt lat="35.072935" lon="139.076295"></trkpt>
      <trkpt lat="35.073032" lon="139.076254"></trkpt>
      <trkpt lat="35.07306" lon="139.076243"></trkpt>
      <trkpt lat="35.07376" lon="139.075901"></trkpt>
      <trkpt lat="35.073869" lon="139.075834"></trkpt>
      <trkpt lat="35.073936" lon="139.075756"></trkpt>
      <trkpt lat="35.074023" lon="139.075655"></trkpt>
      <trkpt lat="35.07423" lon="139.075397"></trkpt>
      <trkpt lat="35.074668" lon="139.075217"></trkpt>
      <trkpt lat="35.074772" lon="139.075188"></trkpt>
      <trkpt lat="35.074858" lon="139.075122"></trkpt>
      <trkpt lat="35.075107" lon="139.074839"></trkpt>
      <trkpt lat="35.075238" lon="139.07474"></trkpt>
      <trkpt lat="35.075438" lon="139.074538"></trkpt>
      <trkpt lat="35.076207" lon="139.074079"></trkpt>
      <trkpt lat="35.076325" lon="139.074045"></trkpt>
      <trkpt lat="35.076479" lon="139.074045"></trkpt>
      <trkpt lat="35.077013" lon="139.074123"></trkpt>
      <trkpt lat="35.077124" lon="139.074117"></trkpt>
      <trkpt lat="35.077245" lon="139.074079"></trkpt>
      <trkpt lat="35.077985" lon="139.073762"></trkpt>
      <trkpt lat="35.078123" lon="139.073703"></trkpt>
      <trkpt lat="35.078373" lon="139.073635"></trkpt>
      <trkpt lat="35.078927" lon="139.073569"></trkpt>
      <trkpt lat="35.079217" lon="139.073463"></trkpt>
      <trkpt lat="35.079632" lon="139.073181"></trkpt>
      <trkpt lat="35.080142" lon="139.072855"></trkpt>
      <trkpt lat="35.08025" lon="139.07284"></trkpt>
      <trkpt lat="35.080344" lon="139.072874"></trkpt>
      <trkpt lat="35.080463" lon="139.07302"></trkpt>
      <trkpt lat="35.080795" lon="139.073434"></trkpt>
      <trkpt lat="35.080919" lon="139.073555"></trkpt>
      <trkpt lat="35.081434" lon="139.07375"></trkpt>
      <trkpt lat="35.081719" lon="139.073887"></trkpt>
      <trkpt lat="35.081871" lon="139.073998"></trkpt>
      <trkpt lat="35.082003" lon="139.074148"></trkpt>
      <trkpt lat="35.082204" lon="139.074482"></trkpt>
      <trkpt lat="35.082313" lon="139.074788"></trkpt>
      <trkpt lat="35.082381" lon="139.074818"></trkpt>
      <trkpt lat="35.082495" lon="139.074945"></trkpt>
      <trkpt lat="35.082565" lon="139.075015"></trkpt>
      <trkpt lat="35.082809" lon="139.075188"></trkpt>
      <trkpt lat="35.082863" lon="139.075268"></trkpt>
      <trkpt lat="35.082898" lon="139.075351"></trkpt>
      <trkpt lat="35.08298" lon="139.075624"></trkpt>
      <trkpt lat="35.083014" lon="139.07571"></trkpt>
      <trkpt lat="35.083085" lon="139.075912"></trkpt>
      <trkpt lat="35.083157" lon="139.076116"></trkpt>
      <trkpt lat="35.083268" lon="139.07647"></trkpt>
      <trkpt lat="35.083298" lon="139.076622"></trkpt>
      <trkpt lat="35.083314" lon="139.076766"></trkpt>
      <trkpt lat="35.083309" lon="139.076991"></trkpt>
      <trkpt lat="35.083303" lon="139.07715"></trkpt>
      <trkpt lat="35.083299" lon="139.077252"></trkpt>
      <trkpt lat="35.083397" lon="139.077492"></trkpt>
      <trkpt lat="35.083506" lon="139.077639"></trkpt>
      <trkpt lat="35.083667" lon="139.077738"></trkpt>
      <trkpt lat="35.083768" lon="139.077833"></trkpt>
      <trkpt lat="35.08413" lon="139.078152"></trkpt>
      <trkpt lat="35.084202" lon="139.078177"></trkpt>
      <trkpt lat="35.085" lon="139.078356"></trkpt>
      <trkpt lat="35.085132" lon="139.078386"></trkpt>
      <trkpt lat="35.085327" lon="139.07841"></trkpt>
      <trkpt lat="35.085483" lon="139.078424"></trkpt>
      <trkpt lat="35.085538" lon="139.078432"></trkpt>
      <trkpt lat="35.086214" lon="139.078545"></trkpt>
      <trkpt lat="35.086705" lon="139.078602"></trkpt>
      <trkpt lat="35.087042" lon="139.078638"></trkpt>
      <trkpt lat="35.087267" lon="139.078615"></trkpt>
      <trkpt lat="35.087428" lon="139.078545"></trkpt>
      <trkpt lat="35.087519" lon="139.07849"></trkpt>
      <trkpt lat="35.08759" lon="139.078424"></trkpt>
      <trkpt lat="35.087942" lon="139.07784"></trkpt>
      <trkpt lat="35.088282" lon="139.077133"></trkpt>
      <trkpt lat="35.08854" lon="139.076716"></trkpt>
      <trkpt lat="35.08866" lon="139.076505"></trkpt>
      <trkpt lat="35.088797" lon="139.076325"></trkpt>
      <trkpt lat="35.08916" lon="139.075915"></trkpt>
      <trkpt lat="35.089414" lon="139.075579"></trkpt>
      <trkpt lat="35.089593" lon="139.075282"></trkpt>
      <trkpt lat="35.089831" lon="139.074939"></trkpt>
      <trkpt lat="35.089971" lon="139.074589"></trkpt>
      <trkpt lat="35.090229" lon="139.074113"></trkpt>
      <trkpt lat="35.090464" lon="139.073912"></trkpt>
      <trkpt lat="35.090928" lon="139.073667"></trkpt>
      <trkpt lat="35.091092" lon="139.073649"></trkpt>
      <trkpt lat="35.091163" lon="139.073623"></trkpt>
      <trkpt lat="35.091256" lon="139.073562"></trkpt>
      <trkpt lat="35.091908" lon="139.073437"></trkpt>
      <trkpt lat="35.092031" lon="139.073412"></trkpt>
      <trkpt lat="35.09205" lon="139.073408"></trkpt>
      <trkpt lat="35.092157" lon="139.073388"></trkpt>
      <trkpt lat="35.092422" lon="139.07337"></trkpt>
      <trkpt lat="35.092509" lon="139.073366"></trkpt>
      <trkpt lat="35.092876" lon="139.073349"></trkpt>
      <trkpt lat="35.092937" lon="139.073358"></trkpt>
      <trkpt lat="35.093232" lon="139.073407"></trkpt>
      <trkpt lat="35.093336" lon="139.073415"></trkpt>
      <trkpt lat="35.093623" lon="139.073448"></trkpt>
      <trkpt lat="35.093723" lon="139.07346"></trkpt>
      <trkpt lat="35.093842" lon="139.073486"></trkpt>
      <trkpt lat="35.0939" lon="139.0735"></trkpt>
      <trkpt lat="35.094261" lon="139.073593"></trkpt>
      <trkpt lat="35.094291" lon="139.073607"></trkpt>
      <trkpt lat="35.094616" lon="139.073757"></trkpt>
      <trkpt lat="35.094754" lon="139.073812"></trkpt>
      <trkpt lat="35.095061" lon="139.073078"></trkpt>
      <trkpt lat="35.095188" lon="139.072791"></trkpt>
      <trkpt lat="35.095214" lon="139.072737"></trkpt>
      <trkpt lat="35.095319" lon="139.072521"></trkpt>
      <trkpt lat="35.09538" lon="139.072394"></trkpt>
      <trkpt lat="35.095412" lon="139.072319"></trkpt>
      <trkpt lat="35.095417" lon="139.07222"></trkpt>
      <trkpt lat="35.095422" lon="139.072126"></trkpt>
      <trkpt lat="35.095429" lon="139.07196"></trkpt>
      <trkpt lat="35.095437" lon="139.071764"></trkpt>
      <trkpt lat="35.095448" lon="139.071536"></trkpt>
      <trkpt lat="35.095559" lon="139.071292"></trkpt>
      <trkpt lat="35.095667" lon="139.071153"></trkpt>
      <trkpt lat="35.095871" lon="139.070941"></trkpt>
      <trkpt lat="35.096161" lon="139.070697"></trkpt>
      <trkpt lat="35.096266" lon="139.070573"></trkpt>
      <trkpt lat="35.096345" lon="139.070463"></trkpt>
      <trkpt lat="35.096504" lon="139.070264"></trkpt>
      <trkpt lat="35.096662" lon="139.070051"></trkpt>
      <trkpt lat="35.096733" lon="139.069926"></trkpt>
      <trkpt lat="35.096817" lon="139.069751"></trkpt>
      <trkpt lat="35.096902" lon="139.069535"></trkpt>
      <trkpt lat="35.096942" lon="139.069369"></trkpt>
      <trkpt lat="35.096934" lon="139.069277"></trkpt>
      <trkpt lat="35.096907" lon="139.069129"></trkpt>
      <trkpt lat="35.096906" lon="139.06904"></trkpt>
      <trkpt lat="35.096937" lon="139.068955"></trkpt>
      <trkpt lat="35.096995" lon="139.068882"></trkpt>
      <trkpt lat="35.097051" lon="139.068811"></trkpt>
      <trkpt lat="35.097278" lon="139.06853"></trkpt>
      <trkpt lat="35.097515" lon="139.068224"></trkpt>
      <trkpt lat="35.097828" lon="139.06782"></trkpt>
      <trkpt lat="35.097838" lon="139.067807"></trkpt>
      <trkpt lat="35.097927" lon="139.067744"></trkpt>
      <trkpt lat="35.098242" lon="139.067644"></trkpt>
      <trkpt lat="35.098363" lon="139.067592"></trkpt>
      <trkpt lat="35.098443" lon="139.067534"></trkpt>
      <trkpt lat="35.098492" lon="139.067499"></trkpt>
      <trkpt lat="35.098687" lon="139.067324"></trkpt>
      <trkpt lat="35.098866" lon="139.067163"></trkpt>
      <trkpt lat="35.098879" lon="139.067203"></trkpt>
      <trkpt lat="35.098899" lon="139.067294"></trkpt>
      <trkpt lat="35.098935" lon="139.067604"></trkpt>
      <trkpt lat="35.098936" lon="139.067861"></trkpt>
      <trkpt lat="35.098936" lon="139.067937"></trkpt>
      <trkpt lat="35.098961" lon="139.068104"></trkpt>
      <trkpt lat="35.099045" lon="139.068054"></trkpt>
      <trkpt lat="35.099085" lon="139.068047"></trkpt>
      <trkpt lat="35.099325" lon="139.068003"></trkpt>
      <trkpt lat="35.099362" lon="139.067995"></trkpt>
      <trkpt lat="35.099405" lon="139.068011"></trkpt>
      <trkpt lat="35.099513" lon="139.067974"></trkpt>
      <trkpt lat="35.09953" lon="139.067965"></trkpt>
      <trkpt lat="35.099542" lon="139.067956"></trkpt>
      <trkpt lat="35.099551" lon="139.067944"></trkpt>
      <trkpt lat="35.09956" lon="139.06793"></trkpt>
      <trkpt lat="35.099567" lon="139.06791"></trkpt>
      <trkpt lat="35.099569" lon="139.067896"></trkpt>
      <trkpt lat="35.09957" lon="139.067882"></trkpt>
      <trkpt lat="35.09957" lon="139.067867"></trkpt>
      <trkpt lat="35.099459" lon="139.067051"></trkpt>
      <trkpt lat="35.099378" lon="139.06636"></trkpt>
      <trkpt lat="35.099379" lon="139.066162"></trkpt>
      <trkpt lat="35.099403" lon="139.065948"></trkpt>
      <trkpt lat="35.099443" lon="139.065594"></trkpt>
      <trkpt lat="35.099458" lon="139.065382"></trkpt>
      <trkpt lat="35.099518" lon="139.063775"></trkpt>
      <trkpt lat="35.099526" lon="139.063733"></trkpt>
      <trkpt lat="35.099555" lon="139.063582"></trkpt>
      <trkpt lat="35.099559" lon="139.063235"></trkpt>
      <trkpt lat="35.099562" lon="139.062849"></trkpt>
      <trkpt lat="35.099466" lon="139.06278"></trkpt>
      <trkpt lat="35.099399" lon="139.062703"></trkpt>
      <trkpt lat="35.099326" lon="139.062607"></trkpt>
      <trkpt lat="35.09924" lon="139.062463"></trkpt>
      <trkpt lat="35.099187" lon="139.062235"></trkpt>
      <trkpt lat="35.099137" lon="139.062161"></trkpt>
      <trkpt lat="35.099084" lon="139.062122"></trkpt>
      <trkpt lat="35.098619" lon="139.062"></trkpt>
      <trkpt lat="35.098557" lon="139.061992"></trkpt>
      <trkpt lat="35.098418" lon="139.061989"></trkpt>
      <trkpt lat="35.098367" lon="139.061988"></trkpt>
      <trkpt lat="35.098305" lon="139.061974"></trkpt>
      <trkpt lat="35.098191" lon="139.061932"></trkpt>
      <trkpt lat="35.097908" lon="139.061819"></trkpt>
      <trkpt lat="35.097836" lon="139.061779"></trkpt>
      <trkpt lat="35.097765" lon="139.061739"></trkpt>
      <trkpt lat="35.097595" lon="139.061679"></trkpt>
      <trkpt lat="35.097511" lon="139.061652"></trkpt>
      <trkpt lat="35.097448" lon="139.061593"></trkpt>
      <trkpt lat="35.09736" lon="139.061457"></trkpt>
      <trkpt lat="35.097211" lon="139.061174"></trkpt>
      <trkpt lat="35.097158" lon="139.061049"></trkpt>
      <trkpt lat="35.097111" lon="139.060881"></trkpt>
      <trkpt lat="35.097065" lon="139.06072"></trkpt>
      <trkpt lat="35.096924" lon="139.060584"></trkpt>
      <trkpt lat="35.096984" lon="139.060468"></trkpt>
      <trkpt lat="35.097194" lon="139.060023"></trkpt>
      <trkpt lat="35.097207" lon="139.059994"></trkpt>
      <trkpt lat="35.097253" lon="139.059844"></trkpt>
      <trkpt lat="35.097282" lon="139.059658"></trkpt>
      <trkpt lat="35.097281" lon="139.059537"></trkpt>
      <trkpt lat="35.09727" lon="139.059431"></trkpt>
      <trkpt lat="35.097224" lon="139.059386"></trkpt>
      <trkpt lat="35.097215" lon="139.059284"></trkpt>
      <trkpt lat="35.097243" lon="139.059147"></trkpt>
      <trkpt lat="35.097283" lon="139.059056"></trkpt>
      <trkpt lat="35.097303" lon="139.058996"></trkpt>
      <trkpt lat="35.097289" lon="139.058952"></trkpt>
      <trkpt lat="35.097276" lon="139.058936"></trkpt>
      <trkpt lat="35.097248" lon="139.058944"></trkpt>
      <trkpt lat="35.097186" lon="139.059052"></trkpt>
      <trkpt lat="35.097131" lon="139.059097"></trkpt>
      <trkpt lat="35.097084" lon="139.059112"></trkpt>
      <trkpt lat="35.097043" lon="139.059095"></trkpt>
      <trkpt lat="35.097007" lon="139.058987"></trkpt>
      <trkpt lat="35.096962" lon="139.058787"></trkpt>
      <trkpt lat="35.096891" lon="139.058475"></trkpt>
      <trkpt lat="35.096869" lon="139.058312"></trkpt>
      <trkpt lat="35.096875" lon="139.058228"></trkpt>
      <trkpt lat="35.096925" lon="139.058087"></trkpt>
      <trkpt lat="35.096938" lon="139.057997"></trkpt>
      <trkpt lat="35.096937" lon="139.057942"></trkpt>
      <trkpt lat="35.096897" lon="139.057598"></trkpt>
      <trkpt lat="35.096898" lon="139.05738"></trkpt>
      <trkpt lat="35.096903" lon="139.057167"></trkpt>
      <trkpt lat="35.096833" lon="139.056549"></trkpt>
      <trkpt lat="35.09677" lon="139.056233"></trkpt>
      <trkpt lat="35.096795" lon="139.056006"></trkpt>
      <trkpt lat="35.096719" lon="139.05551"></trkpt>
      <trkpt lat="35.096719" lon="139.05551"></trkpt>
      <trkpt lat="35.096795" lon="139.056006"></trkpt>
      <trkpt lat="35.09677" lon="139.056233"></trkpt>
      <trkpt lat="35.096833" lon="139.056549"></trkpt>
      <trkpt lat="35.096903" lon="139.057167"></trkpt>
      <trkpt lat="35.096898" lon="139.05738"></trkpt>
      <trkpt lat="35.096897" lon="139.057598"></trkpt>
      <trkpt lat="35.096937" lon="139.057942"></trkpt>
      <trkpt lat="35.096938" lon="139.057997"></trkpt>
      <trkpt lat="35.096925" lon="139.058087"></trkpt>
      <trkpt lat="35.096875" lon="139.058228"></trkpt>
      <trkpt lat="35.096869" lon="139.058312"></trkpt>
      <trkpt lat="35.096891" lon="139.058475"></trkpt>
      <trkpt lat="35.096962" lon="139.058787"></trkpt>
      <trkpt lat="35.097007" lon="139.058987"></trkpt>
      <trkpt lat="35.097043" lon="139.059095"></trkpt>
      <trkpt lat="35.097084" lon="139.059112"></trkpt>
      <trkpt lat="35.097131" lon="139.059097"></trkpt>
      <trkpt lat="35.097186" lon="139.059052"></trkpt>
      <trkpt lat="35.097248" lon="139.058944"></trkpt>
      <trkpt lat="35.097276" lon="139.058936"></trkpt>
      <trkpt lat="35.097289" lon="139.058952"></trkpt>
      <trkpt lat="35.097303" lon="139.058996"></trkpt>
      <trkpt lat="35.097283" lon="139.059056"></trkpt>
      <trkpt lat="35.097243" lon="139.059147"></trkpt>
      <trkpt lat="35.097215" lon="139.059284"></trkpt>
      <trkpt lat="35.097224" lon="139.059386"></trkpt>
      <trkpt lat="35.09727" lon="139.059431"></trkpt>
      <trkpt lat="35.097281" lon="139.059537"></trkpt>
      <trkpt lat="35.097282" lon="139.059658"></trkpt>
      <trkpt lat="35.097253" lon="139.059844"></trkpt>
      <trkpt lat="35.097207" lon="139.059994"></trkpt>
      <trkpt lat="35.097194" lon="139.060023"></trkpt>
      <trkpt lat="35.096984" lon="139.060468"></trkpt>
      <trkpt lat="35.096924" lon="139.060584"></trkpt>
      <trkpt lat="35.097065" lon="139.06072"></trkpt>
      <trkpt lat="35.097111" lon="139.060881"></trkpt>
      <trkpt lat="35.097158" lon="139.061049"></trkpt>
      <trkpt lat="35.097211" lon="139.061174"></trkpt>
      <trkpt lat="35.09736" lon="139.061457"></trkpt>
      <trkpt lat="35.097448" lon="139.061593"></trkpt>
      <trkpt lat="35.097511" lon="139.061652"></trkpt>
      <trkpt lat="35.097595" lon="139.061679"></trkpt>
      <trkpt lat="35.097765" lon="139.061739"></trkpt>
      <trkpt lat="35.097836" lon="139.061779"></trkpt>
      <trkpt lat="35.097908" lon="139.061819"></trkpt>
      <trkpt lat="35.098191" lon="139.061932"></trkpt>
      <trkpt lat="35.098305" lon="139.061974"></trkpt>
      <trkpt lat="35.098367" lon="139.061988"></trkpt>
      <trkpt lat="35.098418" lon="139.061989"></trkpt>
      <trkpt lat="35.098557" lon="139.061992"></trkpt>
      <trkpt lat="35.098619" lon="139.062"></trkpt>
      <trkpt lat="35.099084" lon="139.062122"></trkpt>
      <trkpt lat="35.099137" lon="139.062161"></trkpt>
      <trkpt lat="35.099187" lon="139.062235"></trkpt>
      <trkpt lat="35.09924" lon="139.062463"></trkpt>
      <trkpt lat="35.099326" lon="139.062607"></trkpt>
      <trkpt lat="35.099399" lon="139.062703"></trkpt>
      <trkpt lat="35.099466" lon="139.06278"></trkpt>
      <trkpt lat="35.099562" lon="139.062849"></trkpt>
      <trkpt lat="35.099559" lon="139.063235"></trkpt>
      <trkpt lat="35.099555" lon="139.063582"></trkpt>
      <trkpt lat="35.099526" lon="139.063733"></trkpt>
      <trkpt lat="35.099518" lon="139.063775"></trkpt>
      <trkpt lat="35.099458" lon="139.065382"></trkpt>
      <trkpt lat="35.099443" lon="139.065594"></trkpt>
      <trkpt lat="35.099403" lon="139.065948"></trkpt>
      <trkpt lat="35.099379" lon="139.066162"></trkpt>
      <trkpt lat="35.099378" lon="139.06636"></trkpt>
      <trkpt lat="35.099459" lon="139.067051"></trkpt>
      <trkpt lat="35.09957" lon="139.067867"></trkpt>
      <trkpt lat="35.09957" lon="139.067882"></trkpt>
      <trkpt lat="35.099569" lon="139.067896"></trkpt>
      <trkpt lat="35.099567" lon="139.06791"></trkpt>
      <trkpt lat="35.09956" lon="139.06793"></trkpt>
      <trkpt lat="35.099551" lon="139.067944"></trkpt>
      <trkpt lat="35.099611" lon="139.068017"></trkpt>
      <trkpt lat="35.099839" lon="139.068112"></trkpt>
      <trkpt lat="35.09988" lon="139.068148"></trkpt>
      <trkpt lat="35.099934" lon="139.06817"></trkpt>
      <trkpt lat="35.10026" lon="139.068174"></trkpt>
      <trkpt lat="35.100395" lon="139.068119"></trkpt>
      <trkpt lat="35.100459" lon="139.068126"></trkpt>
      <trkpt lat="35.100481" lon="139.068142"></trkpt>
      <trkpt lat="35.100503" lon="139.068094"></trkpt>
      <trkpt lat="35.100829" lon="139.067946"></trkpt>
      <trkpt lat="35.100503" lon="139.068094"></trkpt>
      <trkpt lat="35.100481" lon="139.068142"></trkpt>
      <trkpt lat="35.100459" lon="139.068126"></trkpt>
      <trkpt lat="35.100395" lon="139.068119"></trkpt>
      <trkpt lat="35.10026" lon="139.068174"></trkpt>
      <trkpt lat="35.099999" lon="139.068171"></trkpt>
      <trkpt lat="35.099934" lon="139.06817"></trkpt>
      <trkpt lat="35.09988" lon="139.068148"></trkpt>
      <trkpt lat="35.099839" lon="139.068112"></trkpt>
      <trkpt lat="35.099611" lon="139.068017"></trkpt>
      <trkpt lat="35.099551" lon="139.067944"></trkpt>
      <trkpt lat="35.099542" lon="139.067956"></trkpt>
      <trkpt lat="35.09953" lon="139.067965"></trkpt>
      <trkpt lat="35.099513" lon="139.067974"></trkpt>
      <trkpt lat="35.099405" lon="139.068011"></trkpt>
      <trkpt lat="35.099375" lon="139.068058"></trkpt>
      <trkpt lat="35.099335" lon="139.068066"></trkpt>
      <trkpt lat="35.099093" lon="139.068113"></trkpt>
      <trkpt lat="35.099052" lon="139.068121"></trkpt>
      <trkpt lat="35.098961" lon="139.068104"></trkpt>
      <trkpt lat="35.098936" lon="139.067937"></trkpt>
      <trkpt lat="35.098936" lon="139.067861"></trkpt>
      <trkpt lat="35.098935" lon="139.067604"></trkpt>
      <trkpt lat="35.098899" lon="139.067294"></trkpt>
      <trkpt lat="35.098879" lon="139.067203"></trkpt>
      <trkpt lat="35.098866" lon="139.067163"></trkpt>
      <trkpt lat="35.098687" lon="139.067324"></trkpt>
      <trkpt lat="35.098492" lon="139.067499"></trkpt>
      <trkpt lat="35.098443" lon="139.067534"></trkpt>
      <trkpt lat="35.098363" lon="139.067592"></trkpt>
      <trkpt lat="35.098242" lon="139.067644"></trkpt>
      <trkpt lat="35.097927" lon="139.067744"></trkpt>
      <trkpt lat="35.097838" lon="139.067807"></trkpt>
      <trkpt lat="35.097828" lon="139.06782"></trkpt>
      <trkpt lat="35.097515" lon="139.068224"></trkpt>
      <trkpt lat="35.097278" lon="139.06853"></trkpt>
      <trkpt lat="35.097051" lon="139.068811"></trkpt>
      <trkpt lat="35.096995" lon="139.068882"></trkpt>
      <trkpt lat="35.096937" lon="139.068955"></trkpt>
      <trkpt lat="35.096906" lon="139.06904"></trkpt>
      <trkpt lat="35.096907" lon="139.069129"></trkpt>
      <trkpt lat="35.096934" lon="139.069277"></trkpt>
      <trkpt lat="35.096942" lon="139.069369"></trkpt>
      <trkpt lat="35.096902" lon="139.069535"></trkpt>
      <trkpt lat="35.096817" lon="139.069751"></trkpt>
      <trkpt lat="35.096733" lon="139.069926"></trkpt>
      <trkpt lat="35.096662" lon="139.070051"></trkpt>
      <trkpt lat="35.096504" lon="139.070264"></trkpt>
      <trkpt lat="35.096345" lon="139.070463"></trkpt>
      <trkpt lat="35.096266" lon="139.070573"></trkpt>
      <trkpt lat="35.096161" lon="139.070697"></trkpt>
      <trkpt lat="35.095871" lon="139.070941"></trkpt>
      <trkpt lat="35.095667" lon="139.071153"></trkpt>
      <trkpt lat="35.095559" lon="139.071292"></trkpt>
      <trkpt lat="35.095448" lon="139.071536"></trkpt>
      <trkpt lat="35.095211" lon="139.071514"></trkpt>
      <trkpt lat="35.095093" lon="139.071502"></trkpt>
      <trkpt lat="35.094901" lon="139.071423"></trkpt>
      <trkpt lat="35.094875" lon="139.071412"></trkpt>
      <trkpt lat="35.094849" lon="139.07149"></trkpt>
      <trkpt lat="35.09479" lon="139.071649"></trkpt>
      <trkpt lat="35.09471" lon="139.07178"></trkpt>
      <trkpt lat="35.094563" lon="139.072017"></trkpt>
      <trkpt lat="35.094501" lon="139.072116"></trkpt>
      <trkpt lat="35.094333" lon="139.072461"></trkpt>
    </trkseg>
  </trk>
</gpx>