<?xml version="1.0" encoding="UTF-8"?>
<gpx version="1.1" creator="rebuild_routes_brouter.py" xmlns="http://www.topografix.com/GPX/1/1">
<metadata><name>Day 16 rebuilt (trekking)</name></metadata>
<trk><name>Day 16 rebuilt (trekking)</name><trkseg>
<trkpt lat="35.767296" lon="139.865866"><ele>3.8</ele></trkpt>
<trkpt lat="35.767231" lon="139.865878"><ele>3.8</ele></trkpt>
<trkpt lat="35.766962" lon="139.865909"><ele>3.8</ele></trkpt>
<trkpt lat="35.766992" lon="139.866078"><ele>3.8</ele></trkpt>
<trkpt lat="35.766997" lon="139.866106"><ele>3.8</ele></trkpt>
<trkpt lat="35.766950" lon="139.866259"><ele>3.5</ele></trkpt>
<trkpt lat="35.766891" lon="139.866391"><ele>3.5</ele></trkpt>
<trkpt lat="35.766836" lon="139.866473"><ele>3.2</ele></trkpt>
<trkpt lat="35.766832" lon="139.866514"><ele>3.2</ele></trkpt>
<trkpt lat="35.766779" lon="139.867004"><ele>4.0</ele></trkpt>
<trkpt lat="35.766745" lon="139.867245"><ele>5.0</ele></trkpt>
<trkpt lat="35.766711" lon="139.867514"><ele>5.8</ele></trkpt>
<trkpt lat="35.766744" lon="139.867528"><ele>5.8</ele></trkpt>
<trkpt lat="35.767217" lon="139.867718"><ele>5.2</ele></trkpt>
<trkpt lat="35.767404" lon="139.867797"><ele>5.0</ele></trkpt>
<trkpt lat="35.767413" lon="139.867801"><ele>5.0</ele></trkpt>
<trkpt lat="35.767543" lon="139.867853"><ele>5.0</ele></trkpt>
<trkpt lat="35.767639" lon="139.867891"><ele>5.0</ele></trkpt>
<trkpt lat="35.767653" lon="139.867896"><ele>5.0</ele></trkpt>
<trkpt lat="35.767896" lon="139.867992"><ele>5.2</ele></trkpt>
<trkpt lat="35.768042" lon="139.868049"><ele>5.5</ele></trkpt>
<trkpt lat="35.768099" lon="139.868049"><ele>5.5</ele></trkpt>
<trkpt lat="35.768203" lon="139.868021"><ele>5.8</ele></trkpt>
<trkpt lat="35.768428" lon="139.867931"><ele>6.0</ele></trkpt>
<trkpt lat="35.768439" lon="139.867927"><ele>6.0</ele></trkpt>
<trkpt lat="35.768523" lon="139.868483"><ele>6.2</ele></trkpt>
<trkpt lat="35.768554" lon="139.868636"><ele>6.5</ele></trkpt>
<trkpt lat="35.768598" lon="139.868731"><ele>6.5</ele></trkpt>
<trkpt lat="35.768652" lon="139.868815"><ele>6.8</ele></trkpt>
<trkpt lat="35.768682" lon="139.868887"><ele>6.8</ele></trkpt>
<trkpt lat="35.768812" lon="139.869195"><ele>7.0</ele></trkpt>
<trkpt lat="35.768843" lon="139.869272"><ele>7.0</ele></trkpt>
<trkpt lat="35.768857" lon="139.869444"><ele>6.8</ele></trkpt>
<trkpt lat="35.768865" lon="139.869850"><ele>6.5</ele></trkpt>
<trkpt lat="35.768887" lon="139.870408"><ele>5.8</ele></trkpt>
<trkpt lat="35.768881" lon="139.870500"><ele>5.8</ele></trkpt>
<trkpt lat="35.768877" lon="139.870597"><ele>5.5</ele></trkpt>
<trkpt lat="35.768871" lon="139.870674"><ele>5.5</ele></trkpt>
<trkpt lat="35.768867" lon="139.870727"><ele>5.5</ele></trkpt>
<trkpt lat="35.768841" lon="139.871121"><ele>5.2</ele></trkpt>
<trkpt lat="35.768848" lon="139.871262"><ele>5.2</ele></trkpt>
<trkpt lat="35.768893" lon="139.871746"><ele>5.0</ele></trkpt>
<trkpt lat="35.768906" lon="139.871888"><ele>5.2</ele></trkpt>
<trkpt lat="35.768922" lon="139.872050"><ele>5.5</ele></trkpt>
<trkpt lat="35.768944" lon="139.872286"><ele>6.0</ele></trkpt>
<trkpt lat="35.769007" lon="139.872899"><ele>6.0</ele></trkpt>
<trkpt lat="35.769015" lon="139.872970"><ele>5.8</ele></trkpt>
<trkpt lat="35.769087" lon="139.872960"><ele>5.5</ele></trkpt>
<trkpt lat="35.769392" lon="139.872915"><ele>5.0</ele></trkpt>
<trkpt lat="35.769912" lon="139.872844"><ele>5.5</ele></trkpt>
<trkpt lat="35.770099" lon="139.872814"><ele>5.8</ele></trkpt>
<trkpt lat="35.770115" lon="139.872812"><ele>5.8</ele></trkpt>
<trkpt lat="35.770162" lon="139.872803"><ele>6.0</ele></trkpt>
<trkpt lat="35.770174" lon="139.872896"><ele>5.8</ele></trkpt>
<trkpt lat="35.770266" lon="139.873451"><ele>5.5</ele></trkpt>
<trkpt lat="35.770321" lon="139.873783"><ele>5.5</ele></trkpt>
<trkpt lat="35.770414" lon="139.874353"><ele>5.5</ele></trkpt>
<trkpt lat="35.770448" lon="139.874386"><ele>5.5</ele></trkpt>
<trkpt lat="35.770665" lon="139.874597"><ele>5.8</ele></trkpt>
<trkpt lat="35.770785" lon="139.874710"><ele>5.8</ele></trkpt>
<trkpt lat="35.770806" lon="139.874729"><ele>5.8</ele></trkpt>
<trkpt lat="35.771025" lon="139.874932"><ele>6.2</ele></trkpt>
<trkpt lat="35.771061" lon="139.874989"><ele>6.5</ele></trkpt>
<trkpt lat="35.771256" lon="139.875422"><ele>7.2</ele></trkpt>
<trkpt lat="35.771509" lon="139.875848"><ele>7.0</ele></trkpt>
<trkpt lat="35.771628" lon="139.876050"><ele>6.8</ele></trkpt>
<trkpt lat="35.771670" lon="139.876116"><ele>6.5</ele></trkpt>
<trkpt lat="35.771724" lon="139.876192"><ele>6.2</ele></trkpt>
<trkpt lat="35.771770" lon="139.876258"><ele>6.2</ele></trkpt>
<trkpt lat="35.772129" lon="139.876320"><ele>5.8</ele></trkpt>
<trkpt lat="35.772129" lon="139.876610"><ele>5.8</ele></trkpt>
<trkpt lat="35.772103" lon="139.876660"><ele>5.8</ele></trkpt>
<trkpt lat="35.772060" lon="139.876738"><ele>6.0</ele></trkpt>
<trkpt lat="35.772040" lon="139.876806"><ele>6.0</ele></trkpt>
<trkpt lat="35.771956" lon="139.877009"><ele>6.0</ele></trkpt>
<trkpt lat="35.771856" lon="139.877274"><ele>6.0</ele></trkpt>
<trkpt lat="35.771851" lon="139.877304"><ele>6.0</ele></trkpt>
<trkpt lat="35.771852" lon="139.877323"><ele>6.0</ele></trkpt>
<trkpt lat="35.771825" lon="139.877416"><ele>6.0</ele></trkpt>
<trkpt lat="35.771752" lon="139.877645"><ele>6.2</ele></trkpt>
<trkpt lat="35.771689" lon="139.877841"><ele>6.8</ele></trkpt>
<trkpt lat="35.771667" lon="139.877921"><ele>7.0</ele></trkpt>
<trkpt lat="35.771919" lon="139.878032"><ele>6.8</ele></trkpt>
<trkpt lat="35.772206" lon="139.878145"><ele>6.0</ele></trkpt>
<trkpt lat="35.772618" lon="139.878323"><ele>5.0</ele></trkpt>
<trkpt lat="35.772683" lon="139.878367"><ele>5.0</ele></trkpt>
<trkpt lat="35.772758" lon="139.878438"><ele>5.0</ele></trkpt>
<trkpt lat="35.772826" lon="139.878525"><ele>5.0</ele></trkpt>
<trkpt lat="35.772854" lon="139.878575"><ele>5.0</ele></trkpt>
<trkpt lat="35.772900" lon="139.878712"><ele>5.0</ele></trkpt>
<trkpt lat="35.772940" lon="139.878912"><ele>5.2</ele></trkpt>
<trkpt lat="35.773010" lon="139.879307"><ele>5.2</ele></trkpt>
<trkpt lat="35.773045" lon="139.879444"><ele>5.5</ele></trkpt>
<trkpt lat="35.773130" lon="139.879701"><ele>5.5</ele></trkpt>
<trkpt lat="35.773167" lon="139.879804"><ele>5.8</ele></trkpt>
<trkpt lat="35.773310" lon="139.880148"><ele>5.2</ele></trkpt>
<trkpt lat="35.773390" lon="139.880272"><ele>4.5</ele></trkpt>
<trkpt lat="35.773518" lon="139.880380"><ele>4.2</ele></trkpt>
<trkpt lat="35.773637" lon="139.880463"><ele>4.0</ele></trkpt>
<trkpt lat="35.773774" lon="139.880574"><ele>3.8</ele></trkpt>
<trkpt lat="35.774347" lon="139.881080"><ele>3.2</ele></trkpt>
<trkpt lat="35.774578" lon="139.881303"><ele>3.5</ele></trkpt>
<trkpt lat="35.774886" lon="139.881629"><ele>5.2</ele></trkpt>
<trkpt lat="35.775134" lon="139.881907"><ele>5.0</ele></trkpt>
<trkpt lat="35.775253" lon="139.882045"><ele>4.5</ele></trkpt>
<trkpt lat="35.775621" lon="139.882504"><ele>3.8</ele></trkpt>
<trkpt lat="35.775743" lon="139.882638"><ele>4.0</ele></trkpt>
<trkpt lat="35.775794" lon="139.882731"><ele>4.0</ele></trkpt>
<trkpt lat="35.776082" lon="139.883109"><ele>4.5</ele></trkpt>
<trkpt lat="35.776488" lon="139.883722"><ele>4.8</ele></trkpt>
<trkpt lat="35.776636" lon="139.883931"><ele>4.8</ele></trkpt>
<trkpt lat="35.776860" lon="139.884289"><ele>5.0</ele></trkpt>
<trkpt lat="35.777002" lon="139.884523"><ele>5.5</ele></trkpt>
<trkpt lat="35.777538" lon="139.885500"><ele>5.8</ele></trkpt>
<trkpt lat="35.777910" lon="139.886150"><ele>7.5</ele></trkpt>
<trkpt lat="35.778100" lon="139.886478"><ele>9.5</ele></trkpt>
<trkpt lat="35.778261" lon="139.886774"><ele>10.8</ele></trkpt>
<trkpt lat="35.778318" lon="139.886871"><ele>10.8</ele></trkpt>
<trkpt lat="35.778506" lon="139.887214"><ele>8.8</ele></trkpt>
<trkpt lat="35.778565" lon="139.887326"><ele>8.2</ele></trkpt>
<trkpt lat="35.778725" lon="139.887640"><ele>7.5</ele></trkpt>
<trkpt lat="35.778915" lon="139.887981"><ele>6.8</ele></trkpt>
<trkpt lat="35.778981" lon="139.888106"><ele>6.5</ele></trkpt>
<trkpt lat="35.779045" lon="139.888215"><ele>6.2</ele></trkpt>
<trkpt lat="35.779000" lon="139.888259"><ele>6.0</ele></trkpt>
<trkpt lat="35.778981" lon="139.888281"><ele>6.0</ele></trkpt>
<trkpt lat="35.778973" lon="139.888313"><ele>6.0</ele></trkpt>
<trkpt lat="35.778965" lon="139.888352"><ele>5.8</ele></trkpt>
<trkpt lat="35.778967" lon="139.888389"><ele>5.8</ele></trkpt>
<trkpt lat="35.779053" lon="139.888534"><ele>5.0</ele></trkpt>
<trkpt lat="35.779226" lon="139.888791"><ele>4.2</ele></trkpt>
<trkpt lat="35.779481" lon="139.889101"><ele>3.2</ele></trkpt>
<trkpt lat="35.779644" lon="139.889282"><ele>3.2</ele></trkpt>
<trkpt lat="35.779767" lon="139.889408"><ele>3.0</ele></trkpt>
<trkpt lat="35.780019" lon="139.889639"><ele>2.2</ele></trkpt>
<trkpt lat="35.780147" lon="139.889739"><ele>2.0</ele></trkpt>
<trkpt lat="35.780629" lon="139.890047"><ele>3.0</ele></trkpt>
<trkpt lat="35.780761" lon="139.890122"><ele>3.0</ele></trkpt>
<trkpt lat="35.781055" lon="139.890256"><ele>2.0</ele></trkpt>
<trkpt lat="35.781329" lon="139.890319"><ele>1.0</ele></trkpt>
<trkpt lat="35.781456" lon="139.890338"><ele>0.5</ele></trkpt>
<trkpt lat="35.781602" lon="139.890344"><ele>0.2</ele></trkpt>
<trkpt lat="35.781789" lon="139.890340"><ele>0.0</ele></trkpt>
<trkpt lat="35.782117" lon="139.890316"><ele>0.5</ele></trkpt>
<trkpt lat="35.782446" lon="139.890273"><ele>0.5</ele></trkpt>
<trkpt lat="35.782610" lon="139.890244"><ele>0.8</ele></trkpt>
<trkpt lat="35.782890" lon="139.890185"><ele>1.2</ele></trkpt>
<trkpt lat="35.783108" lon="139.890123"><ele>0.8</ele></trkpt>
<trkpt lat="35.783522" lon="139.889993"><ele>-1.0</ele></trkpt>
<trkpt lat="35.783804" lon="139.889895"><ele>-1.0</ele></trkpt>
<trkpt lat="35.784115" lon="139.889780"><ele>-1.0</ele></trkpt>
<trkpt lat="35.785230" lon="139.889353"><ele>2.5</ele></trkpt>
<trkpt lat="35.785387" lon="139.889290"><ele>2.0</ele></trkpt>
<trkpt lat="35.785559" lon="139.889230"><ele>1.2</ele></trkpt>
<trkpt lat="35.788586" lon="139.888117"><ele>8.2</ele></trkpt>
<trkpt lat="35.789894" lon="139.887627"><ele>9.2</ele></trkpt>
<trkpt lat="35.790683" lon="139.887340"><ele>5.5</ele></trkpt>
<trkpt lat="35.791503" lon="139.887052"><ele>5.0</ele></trkpt>
<trkpt lat="35.791857" lon="139.886951"><ele>5.2</ele></trkpt>
<trkpt lat="35.792222" lon="139.886864"><ele>6.0</ele></trkpt>
<trkpt lat="35.792854" lon="139.886745"><ele>5.2</ele></trkpt>
<trkpt lat="35.793155" lon="139.886707"><ele>4.2</ele></trkpt>
<trkpt lat="35.793428" lon="139.886682"><ele>3.8</ele></trkpt>
<trkpt lat="35.793730" lon="139.886678"><ele>3.2</ele></trkpt>
<trkpt lat="35.793861" lon="139.886666"><ele>3.2</ele></trkpt>
<trkpt lat="35.794320" lon="139.886669"><ele>2.8</ele></trkpt>
<trkpt lat="35.794884" lon="139.886716"><ele>2.5</ele></trkpt>
<trkpt lat="35.795270" lon="139.886774"><ele>1.8</ele></trkpt>
<trkpt lat="35.795469" lon="139.886814"><ele>1.2</ele></trkpt>
<trkpt lat="35.795541" lon="139.886823"><ele>1.2</ele></trkpt>
<trkpt lat="35.795683" lon="139.886821"><ele>1.0</ele></trkpt>
<trkpt lat="35.795918" lon="139.886844"><ele>1.2</ele></trkpt>
<trkpt lat="35.796086" lon="139.886876"><ele>2.0</ele></trkpt>
<trkpt lat="35.796193" lon="139.886926"><ele>2.2</ele></trkpt>
<trkpt lat="35.796314" lon="139.886982"><ele>3.0</ele></trkpt>
<trkpt lat="35.796620" lon="139.887148"><ele>6.0</ele></trkpt>
<trkpt lat="35.796788" lon="139.887255"><ele>6.8</ele></trkpt>
<trkpt lat="35.796963" lon="139.887390"><ele>6.8</ele></trkpt>
<trkpt lat="35.797152" lon="139.887522"><ele>6.8</ele></trkpt>
<trkpt lat="35.797331" lon="139.887670"><ele>5.5</ele></trkpt>
<trkpt lat="35.798251" lon="139.888469"><ele>0.0</ele></trkpt>
<trkpt lat="35.799036" lon="139.889105"><ele>2.2</ele></trkpt>
<trkpt lat="35.799347" lon="139.889336"><ele>2.8</ele></trkpt>
<trkpt lat="35.799539" lon="139.889428"><ele>2.5</ele></trkpt>
<trkpt lat="35.799634" lon="139.889458"><ele>2.2</ele></trkpt>
<trkpt lat="35.799740" lon="139.889478"><ele>2.2</ele></trkpt>
<trkpt lat="35.799895" lon="139.889504"><ele>2.5</ele></trkpt>
<trkpt lat="35.800075" lon="139.889524"><ele>2.8</ele></trkpt>
<trkpt lat="35.800468" lon="139.889555"><ele>3.8</ele></trkpt>
<trkpt lat="35.800976" lon="139.889575"><ele>3.5</ele></trkpt>
<trkpt lat="35.801121" lon="139.889568"><ele>2.5</ele></trkpt>
<trkpt lat="35.801280" lon="139.889550"><ele>1.8</ele></trkpt>
<trkpt lat="35.801515" lon="139.889503"><ele>0.8</ele></trkpt>
<trkpt lat="35.801830" lon="139.889403"><ele>2.0</ele></trkpt>
<trkpt lat="35.801991" lon="139.889331"><ele>3.2</ele></trkpt>
<trkpt lat="35.802269" lon="139.889188"><ele>4.5</ele></trkpt>
<trkpt lat="35.802676" lon="139.888950"><ele>5.0</ele></trkpt>
<trkpt lat="35.802930" lon="139.888783"><ele>4.8</ele></trkpt>
<trkpt lat="35.803223" lon="139.888559"><ele>4.2</ele></trkpt>
<trkpt lat="35.803548" lon="139.888257"><ele>4.5</ele></trkpt>
<trkpt lat="35.803702" lon="139.888097"><ele>5.0</ele></trkpt>
<trkpt lat="35.804255" lon="139.887418"><ele>7.5</ele></trkpt>
<trkpt lat="35.804396" lon="139.887243"><ele>8.0</ele></trkpt>
<trkpt lat="35.805019" lon="139.886474"><ele>8.8</ele></trkpt>
<trkpt lat="35.805151" lon="139.886323"><ele>7.2</ele></trkpt>
<trkpt lat="35.805396" lon="139.886053"><ele>5.2</ele></trkpt>
<trkpt lat="35.805647" lon="139.885776"><ele>3.8</ele></trkpt>
<trkpt lat="35.805788" lon="139.885632"><ele>2.8</ele></trkpt>
<trkpt lat="35.805943" lon="139.885481"><ele>1.5</ele></trkpt>
<trkpt lat="35.806098" lon="139.885343"><ele>0.8</ele></trkpt>
<trkpt lat="35.806332" lon="139.885146"><ele>0.0</ele></trkpt>
<trkpt lat="35.806492" lon="139.885047"><ele>0.0</ele></trkpt>
<trkpt lat="35.806667" lon="139.884956"><ele>0.0</ele></trkpt>
<trkpt lat="35.806973" lon="139.884836"><ele>3.0</ele></trkpt>
<trkpt lat="35.807092" lon="139.884805"><ele>3.8</ele></trkpt>
<trkpt lat="35.807284" lon="139.884767"><ele>5.2</ele></trkpt>
<trkpt lat="35.807475" lon="139.884742"><ele>6.5</ele></trkpt>
<trkpt lat="35.807703" lon="139.884730"><ele>6.0</ele></trkpt>
<trkpt lat="35.808057" lon="139.884733"><ele>5.2</ele></trkpt>
<trkpt lat="35.808343" lon="139.884760"><ele>4.5</ele></trkpt>
<trkpt lat="35.808710" lon="139.884817"><ele>3.2</ele></trkpt>
<trkpt lat="35.809070" lon="139.884906"><ele>1.5</ele></trkpt>
<trkpt lat="35.809384" lon="139.885007"><ele>1.8</ele></trkpt>
<trkpt lat="35.809730" lon="139.885152"><ele>3.2</ele></trkpt>
<trkpt lat="35.810073" lon="139.885356"><ele>5.0</ele></trkpt>
<trkpt lat="35.810161" lon="139.885424"><ele>5.0</ele></trkpt>
<trkpt lat="35.810537" lon="139.885737"><ele>4.8</ele></trkpt>
<trkpt lat="35.811250" lon="139.886493"><ele>4.0</ele></trkpt>
<trkpt lat="35.811437" lon="139.886705"><ele>3.0</ele></trkpt>
<trkpt lat="35.811592" lon="139.886851"><ele>2.2</ele></trkpt>
<trkpt lat="35.811712" lon="139.886974"><ele>2.0</ele></trkpt>
<trkpt lat="35.812272" lon="139.887560"><ele>3.8</ele></trkpt>
<trkpt lat="35.812493" lon="139.887771"><ele>5.5</ele></trkpt>
<trkpt lat="35.812678" lon="139.887935"><ele>6.5</ele></trkpt>
<trkpt lat="35.812855" lon="139.888075"><ele>7.2</ele></trkpt>
<trkpt lat="35.813077" lon="139.888208"><ele>7.8</ele></trkpt>
<trkpt lat="35.813292" lon="139.888309"><ele>7.8</ele></trkpt>
<trkpt lat="35.813518" lon="139.888389"><ele>7.5</ele></trkpt>
<trkpt lat="35.813704" lon="139.888446"><ele>7.2</ele></trkpt>
<trkpt lat="35.813986" lon="139.888514"><ele>7.2</ele></trkpt>
<trkpt lat="35.814325" lon="139.888566"><ele>6.5</ele></trkpt>
<trkpt lat="35.814638" lon="139.888595"><ele>5.0</ele></trkpt>
<trkpt lat="35.814962" lon="139.888614"><ele>3.8</ele></trkpt>
<trkpt lat="35.815623" lon="139.888648"><ele>3.0</ele></trkpt>
<trkpt lat="35.815738" lon="139.888630"><ele>3.0</ele></trkpt>
<trkpt lat="35.815808" lon="139.888588"><ele>3.0</ele></trkpt>
<trkpt lat="35.815849" lon="139.888554"><ele>3.0</ele></trkpt>
<trkpt lat="35.815875" lon="139.888522"><ele>3.0</ele></trkpt>
<trkpt lat="35.815926" lon="139.888442"><ele>3.0</ele></trkpt>
<trkpt lat="35.816024" lon="139.888261"><ele>3.0</ele></trkpt>
<trkpt lat="35.816295" lon="139.887730"><ele>2.8</ele></trkpt>
<trkpt lat="35.816372" lon="139.887629"><ele>2.8</ele></trkpt>
<trkpt lat="35.816419" lon="139.887587"><ele>2.8</ele></trkpt>
<trkpt lat="35.816471" lon="139.887552"><ele>2.8</ele></trkpt>
<trkpt lat="35.816517" lon="139.887531"><ele>2.8</ele></trkpt>
<trkpt lat="35.816643" lon="139.887496"><ele>2.8</ele></trkpt>
<trkpt lat="35.816730" lon="139.887503"><ele>3.2</ele></trkpt>
<trkpt lat="35.816794" lon="139.887523"><ele>3.8</ele></trkpt>
<trkpt lat="35.816839" lon="139.887545"><ele>4.0</ele></trkpt>
<trkpt lat="35.816904" lon="139.887593"><ele>4.2</ele></trkpt>
<trkpt lat="35.817211" lon="139.887837"><ele>5.8</ele></trkpt>
<trkpt lat="35.817541" lon="139.888096"><ele>6.5</ele></trkpt>
<trkpt lat="35.817971" lon="139.888426"><ele>6.0</ele></trkpt>
<trkpt lat="35.818016" lon="139.888451"><ele>6.0</ele></trkpt>
<trkpt lat="35.818051" lon="139.888460"><ele>6.0</ele></trkpt>
<trkpt lat="35.818136" lon="139.888446"><ele>6.2</ele></trkpt>
<trkpt lat="35.818311" lon="139.888368"><ele>6.8</ele></trkpt>
<trkpt lat="35.818615" lon="139.888246"><ele>2.8</ele></trkpt>
<trkpt lat="35.819364" lon="139.887911"><ele>-1.2</ele></trkpt>
<trkpt lat="35.820543" lon="139.887348"><ele>3.8</ele></trkpt>
<trkpt lat="35.820703" lon="139.887263"><ele>4.0</ele></trkpt>
<trkpt lat="35.820808" lon="139.887219"><ele>4.2</ele></trkpt>
<trkpt lat="35.821472" lon="139.886907"><ele>5.0</ele></trkpt>
<trkpt lat="35.821888" lon="139.886726"><ele>6.2</ele></trkpt>
<trkpt lat="35.822327" lon="139.886556"><ele>5.8</ele></trkpt>
<trkpt lat="35.822769" lon="139.886408"><ele>4.5</ele></trkpt>
<trkpt lat="35.823497" lon="139.886223"><ele>3.0</ele></trkpt>
<trkpt lat="35.824805" lon="139.885983"><ele>3.2</ele></trkpt>
<trkpt lat="35.825126" lon="139.885935"><ele>3.5</ele></trkpt>
<trkpt lat="35.825568" lon="139.885880"><ele>3.8</ele></trkpt>
<trkpt lat="35.826286" lon="139.885830"><ele>5.5</ele></trkpt>
<trkpt lat="35.826821" lon="139.885838"><ele>6.0</ele></trkpt>
<trkpt lat="35.827135" lon="139.885839"><ele>4.5</ele></trkpt>
<trkpt lat="35.827762" lon="139.885869"><ele>2.5</ele></trkpt>
<trkpt lat="35.828616" lon="139.885969"><ele>2.8</ele></trkpt>
<trkpt lat="35.830305" lon="139.886202"><ele>2.5</ele></trkpt>
<trkpt lat="35.830372" lon="139.886206"><ele>2.8</ele></trkpt>
<trkpt lat="35.830418" lon="139.886182"><ele>2.8</ele></trkpt>
<trkpt lat="35.830478" lon="139.886169"><ele>3.0</ele></trkpt>
<trkpt lat="35.830941" lon="139.886096"><ele>3.5</ele></trkpt>
<trkpt lat="35.830991" lon="139.886097"><ele>3.5</ele></trkpt>
<trkpt lat="35.831230" lon="139.886135"><ele>3.8</ele></trkpt>
<trkpt lat="35.831756" lon="139.886360"><ele>4.0</ele></trkpt>
<trkpt lat="35.831798" lon="139.886397"><ele>4.0</ele></trkpt>
<trkpt lat="35.831842" lon="139.886416"><ele>4.0</ele></trkpt>
<trkpt lat="35.832201" lon="139.886469"><ele>4.2</ele></trkpt>
<trkpt lat="35.832405" lon="139.886504"><ele>4.5</ele></trkpt>
<trkpt lat="35.832551" lon="139.886435"><ele>4.5</ele></trkpt>
<trkpt lat="35.833747" lon="139.886167"><ele>4.5</ele></trkpt>
<trkpt lat="35.833817" lon="139.886103"><ele>4.2</ele></trkpt>
<trkpt lat="35.834098" lon="139.886135"><ele>4.0</ele></trkpt>
<trkpt lat="35.834196" lon="139.886140"><ele>4.0</ele></trkpt>
<trkpt lat="35.834672" lon="139.886153"><ele>4.0</ele></trkpt>
<trkpt lat="35.834935" lon="139.886169"><ele>4.0</ele></trkpt>
<trkpt lat="35.835268" lon="139.886201"><ele>4.0</ele></trkpt>
<trkpt lat="35.835928" lon="139.886299"><ele>3.8</ele></trkpt>
<trkpt lat="35.836796" lon="139.886371"><ele>5.0</ele></trkpt>
<trkpt lat="35.837274" lon="139.886424"><ele>4.8</ele></trkpt>
<trkpt lat="35.837638" lon="139.886473"><ele>5.0</ele></trkpt>
<trkpt lat="35.838431" lon="139.886571"><ele>6.5</ele></trkpt>
<trkpt lat="35.838441" lon="139.886527"><ele>6.2</ele></trkpt>
<trkpt lat="35.838454" lon="139.886471"><ele>5.8</ele></trkpt>
<trkpt lat="35.838463" lon="139.886433"><ele>5.5</ele></trkpt>
<trkpt lat="35.838538" lon="139.886139"><ele>3.8</ele></trkpt>
<trkpt lat="35.838691" lon="139.885583"><ele>2.0</ele></trkpt>
<trkpt lat="35.838770" lon="139.885297"><ele>2.2</ele></trkpt>
<trkpt lat="35.838836" lon="139.885061"><ele>2.2</ele></trkpt>
<trkpt lat="35.839062" lon="139.884738"><ele>3.0</ele></trkpt>
<trkpt lat="35.839161" lon="139.884592"><ele>3.2</ele></trkpt>
<trkpt lat="35.839193" lon="139.884555"><ele>3.5</ele></trkpt>
<trkpt lat="35.839205" lon="139.884536"><ele>3.5</ele></trkpt>
<trkpt lat="35.839217" lon="139.884496"><ele>3.8</ele></trkpt>
<trkpt lat="35.839231" lon="139.884093"><ele>4.8</ele></trkpt>
<trkpt lat="35.839232" lon="139.884048"><ele>4.8</ele></trkpt>
<trkpt lat="35.839409" lon="139.883942"><ele>4.5</ele></trkpt>
<trkpt lat="35.839419" lon="139.883859"><ele>4.5</ele></trkpt>
<trkpt lat="35.839472" lon="139.883429"><ele>4.2</ele></trkpt>
<trkpt lat="35.839498" lon="139.883326"><ele>4.0</ele></trkpt>
<trkpt lat="35.839516" lon="139.883292"><ele>4.0</ele></trkpt>
<trkpt lat="35.839633" lon="139.883108"><ele>4.0</ele></trkpt>
<trkpt lat="35.839935" lon="139.882618"><ele>5.2</ele></trkpt>
<trkpt lat="35.840031" lon="139.882493"><ele>5.8</ele></trkpt>
<trkpt lat="35.840212" lon="139.882309"><ele>5.5</ele></trkpt>
<trkpt lat="35.840050" lon="139.882026"><ele>6.2</ele></trkpt>
<trkpt lat="35.840106" lon="139.881037"><ele>6.2</ele></trkpt>
<trkpt lat="35.840112" lon="139.880924"><ele>6.0</ele></trkpt>
<trkpt lat="35.840157" lon="139.880849"><ele>6.0</ele></trkpt>
<trkpt lat="35.840077" lon="139.880775"><ele>5.8</ele></trkpt>
<trkpt lat="35.840132" lon="139.880692"><ele>5.8</ele></trkpt>
<trkpt lat="35.840134" lon="139.880667"><ele>5.5</ele></trkpt>
<trkpt lat="35.840175" lon="139.880016"><ele>3.8</ele></trkpt>
<trkpt lat="35.840134" lon="139.880667"><ele>5.5</ele></trkpt>
<trkpt lat="35.840132" lon="139.880692"><ele>5.8</ele></trkpt>
<trkpt lat="35.840077" lon="139.880775"><ele>5.8</ele></trkpt>
<trkpt lat="35.839826" lon="139.880558"><ele>5.2</ele></trkpt>
<trkpt lat="35.839619" lon="139.880401"><ele>5.0</ele></trkpt>
<trkpt lat="35.839249" lon="139.880172"><ele>5.0</ele></trkpt>
<trkpt lat="35.839196" lon="139.880138"><ele>5.0</ele></trkpt>
<trkpt lat="35.838744" lon="139.879881"><ele>4.2</ele></trkpt>
<trkpt lat="35.838290" lon="139.879612"><ele>3.8</ele></trkpt>
<trkpt lat="35.838214" lon="139.879570"><ele>3.8</ele></trkpt>
<trkpt lat="35.838043" lon="139.879475"><ele>3.5</ele></trkpt>
<trkpt lat="35.837737" lon="139.879334"><ele>3.5</ele></trkpt>
<trkpt lat="35.837434" lon="139.879233"><ele>3.8</ele></trkpt>
<trkpt lat="35.837358" lon="139.879206"><ele>3.8</ele></trkpt>
<trkpt lat="35.837157" lon="139.879142"><ele>3.8</ele></trkpt>
<trkpt lat="35.836618" lon="139.878930"><ele>3.0</ele></trkpt>
<trkpt lat="35.836483" lon="139.878888"><ele>2.8</ele></trkpt>
<trkpt lat="35.836407" lon="139.878864"><ele>2.8</ele></trkpt>
<trkpt lat="35.836276" lon="139.878730"><ele>2.5</ele></trkpt>
<trkpt lat="35.836208" lon="139.878675"><ele>2.5</ele></trkpt>
<trkpt lat="35.835944" lon="139.878450"><ele>2.8</ele></trkpt>
<trkpt lat="35.835496" lon="139.878049"><ele>3.0</ele></trkpt>
<trkpt lat="35.835451" lon="139.878008"><ele>3.0</ele></trkpt>
<trkpt lat="35.834564" lon="139.877201"><ele>3.0</ele></trkpt>
<trkpt lat="35.833943" lon="139.876635"><ele>3.0</ele></trkpt>
<trkpt lat="35.833874" lon="139.876572"><ele>3.0</ele></trkpt>
<trkpt lat="35.833638" lon="139.876351"><ele>3.0</ele></trkpt>
<trkpt lat="35.833125" lon="139.875896"><ele>3.8</ele></trkpt>
<trkpt lat="35.832820" lon="139.875605"><ele>3.0</ele></trkpt>
<trkpt lat="35.832641" lon="139.875435"><ele>2.2</ele></trkpt>
<trkpt lat="35.832522" lon="139.875322"><ele>1.5</ele></trkpt>
<trkpt lat="35.832404" lon="139.875210"><ele>1.0</ele></trkpt>
<trkpt lat="35.832309" lon="139.875144"><ele>1.0</ele></trkpt>
<trkpt lat="35.832169" lon="139.875019"><ele>1.0</ele></trkpt>
<trkpt lat="35.832146" lon="139.874999"><ele>1.2</ele></trkpt>
<trkpt lat="35.831661" lon="139.874548"><ele>3.5</ele></trkpt>
<trkpt lat="35.831469" lon="139.874338"><ele>3.2</ele></trkpt>
<trkpt lat="35.831397" lon="139.874250"><ele>3.2</ele></trkpt>
<trkpt lat="35.831303" lon="139.874116"><ele>3.0</ele></trkpt>
<trkpt lat="35.831232" lon="139.874000"><ele>3.0</ele></trkpt>
<trkpt lat="35.831195" lon="139.873944"><ele>3.0</ele></trkpt>
<trkpt lat="35.831134" lon="139.873832"><ele>3.2</ele></trkpt>
<trkpt lat="35.831038" lon="139.873617"><ele>3.8</ele></trkpt>
<trkpt lat="35.830942" lon="139.873349"><ele>3.8</ele></trkpt>
<trkpt lat="35.830906" lon="139.873217"><ele>4.0</ele></trkpt>
<trkpt lat="35.830849" lon="139.872969"><ele>4.2</ele></trkpt>
<trkpt lat="35.830748" lon="139.872434"><ele>5.2</ele></trkpt>
<trkpt lat="35.830725" lon="139.872304"><ele>5.0</ele></trkpt>
<trkpt lat="35.830703" lon="139.872174"><ele>4.8</ele></trkpt>
<trkpt lat="35.830595" lon="139.871534"><ele>4.0</ele></trkpt>
<trkpt lat="35.830581" lon="139.871453"><ele>4.0</ele></trkpt>
<trkpt lat="35.830568" lon="139.871378"><ele>3.8</ele></trkpt>
<trkpt lat="35.830403" lon="139.870428"><ele>4.0</ele></trkpt>
<trkpt lat="35.830162" lon="139.869025"><ele>0.0</ele></trkpt>
<trkpt lat="35.830148" lon="139.868940"><ele>0.0</ele></trkpt>
<trkpt lat="35.829829" lon="139.867182"><ele>1.5</ele></trkpt>
<trkpt lat="35.829804" lon="139.867045"><ele>1.5</ele></trkpt>
<trkpt lat="35.829743" lon="139.866668"><ele>1.2</ele></trkpt>
<trkpt lat="35.829712" lon="139.866495"><ele>1.0</ele></trkpt>
<trkpt lat="35.829549" lon="139.865582"><ele>-1.2</ele></trkpt>
<trkpt lat="35.829277" lon="139.864044"><ele>-3.2</ele></trkpt>
<trkpt lat="35.829123" lon="139.863140"><ele>-4.0</ele></trkpt>
<trkpt lat="35.829046" lon="139.862703"><ele>-0.2</ele></trkpt>
<trkpt lat="35.828970" lon="139.862268"><ele>0.5</ele></trkpt>
<trkpt lat="35.828924" lon="139.862050"><ele>0.0</ele></trkpt>
<trkpt lat="35.828860" lon="139.861818"><ele>0.0</ele></trkpt>
<trkpt lat="35.828785" lon="139.861611"><ele>0.0</ele></trkpt>
<trkpt lat="35.828649" lon="139.861332"><ele>1.0</ele></trkpt>
<trkpt lat="35.828580" lon="139.861232"><ele>1.5</ele></trkpt>
<trkpt lat="35.828524" lon="139.861167"><ele>1.5</ele></trkpt>
<trkpt lat="35.828462" lon="139.861120"><ele>2.0</ele></trkpt>
<trkpt lat="35.828367" lon="139.861062"><ele>2.2</ele></trkpt>
<trkpt lat="35.828688" lon="139.860124"><ele>0.8</ele></trkpt>
<trkpt lat="35.828906" lon="139.859450"><ele>0.8</ele></trkpt>
<trkpt lat="35.828834" lon="139.859411"><ele>1.2</ele></trkpt>
<trkpt lat="35.828677" lon="139.859332"><ele>1.8</ele></trkpt>
<trkpt lat="35.828650" lon="139.859301"><ele>2.0</ele></trkpt>
<trkpt lat="35.828625" lon="139.859248"><ele>2.0</ele></trkpt>
<trkpt lat="35.828582" lon="139.859110"><ele>2.0</ele></trkpt>
<trkpt lat="35.828516" lon="139.858935"><ele>1.8</ele></trkpt>
<trkpt lat="35.828460" lon="139.858799"><ele>1.5</ele></trkpt>
<trkpt lat="35.828337" lon="139.858575"><ele>0.8</ele></trkpt>
<trkpt lat="35.828085" lon="139.858183"><ele>1.2</ele></trkpt>
<trkpt lat="35.827951" lon="139.857987"><ele>2.0</ele></trkpt>
<trkpt lat="35.827876" lon="139.857861"><ele>2.8</ele></trkpt>
<trkpt lat="35.828319" lon="139.856762"><ele>1.0</ele></trkpt>
<trkpt lat="35.828635" lon="139.855969"><ele>2.5</ele></trkpt>
<trkpt lat="35.828833" lon="139.855567"><ele>3.0</ele></trkpt>
<trkpt lat="35.829065" lon="139.855255"><ele>3.5</ele></trkpt>
<trkpt lat="35.829381" lon="139.854821"><ele>4.0</ele></trkpt>
<trkpt lat="35.829790" lon="139.854254"><ele>4.5</ele></trkpt>
<trkpt lat="35.829508" lon="139.854102"><ele>4.2</ele></trkpt>
<trkpt lat="35.829477" lon="139.854084"><ele>4.2</ele></trkpt>
<trkpt lat="35.829069" lon="139.853857"><ele>3.8</ele></trkpt>
<trkpt lat="35.828717" lon="139.853649"><ele>3.8</ele></trkpt>
<trkpt lat="35.828621" lon="139.853575"><ele>3.8</ele></trkpt>
<trkpt lat="35.828553" lon="139.853537"><ele>3.8</ele></trkpt>
<trkpt lat="35.828166" lon="139.853350"><ele>4.5</ele></trkpt>
<trkpt lat="35.827670" lon="139.853117"><ele>6.0</ele></trkpt>
<trkpt lat="35.826997" lon="139.852823"><ele>5.5</ele></trkpt>
<trkpt lat="35.823989" lon="139.851360"><ele>3.2</ele></trkpt>
<trkpt lat="35.823075" lon="139.850930"><ele>2.8</ele></trkpt>
<trkpt lat="35.822278" lon="139.850535"><ele>2.8</ele></trkpt>
<trkpt lat="35.822007" lon="139.850399"><ele>2.5</ele></trkpt>
<trkpt lat="35.820642" lon="139.849763"><ele>3.0</ele></trkpt>
<trkpt lat="35.819727" lon="139.849294"><ele>5.2</ele></trkpt>
<trkpt lat="35.819458" lon="139.849165"><ele>6.5</ele></trkpt>
<trkpt lat="35.819184" lon="139.849035"><ele>7.2</ele></trkpt>
<trkpt lat="35.818541" lon="139.848729"><ele>6.2</ele></trkpt>
<trkpt lat="35.818407" lon="139.848661"><ele>6.2</ele></trkpt>
<trkpt lat="35.818315" lon="139.848612"><ele>6.2</ele></trkpt>
<trkpt lat="35.817875" lon="139.848377"><ele>5.2</ele></trkpt>
<trkpt lat="35.817557" lon="139.848204"><ele>5.0</ele></trkpt>
<trkpt lat="35.817233" lon="139.848010"><ele>5.0</ele></trkpt>
<trkpt lat="35.815938" lon="139.847194"><ele>5.8</ele></trkpt>
<trkpt lat="35.815210" lon="139.846695"><ele>5.2</ele></trkpt>
<trkpt lat="35.814996" lon="139.846549"><ele>5.8</ele></trkpt>
<trkpt lat="35.814815" lon="139.846415"><ele>5.2</ele></trkpt>
<trkpt lat="35.814762" lon="139.846375"><ele>5.2</ele></trkpt>
<trkpt lat="35.814027" lon="139.845833"><ele>4.2</ele></trkpt>
<trkpt lat="35.813750" lon="139.845603"><ele>3.8</ele></trkpt>
<trkpt lat="35.813569" lon="139.845415"><ele>4.2</ele></trkpt>
<trkpt lat="35.813366" lon="139.845233"><ele>5.2</ele></trkpt>
<trkpt lat="35.812959" lon="139.844839"><ele>8.0</ele></trkpt>
<trkpt lat="35.812246" lon="139.844205"><ele>6.5</ele></trkpt>
<trkpt lat="35.811905" lon="139.843898"><ele>6.2</ele></trkpt>
<trkpt lat="35.811872" lon="139.843868"><ele>6.2</ele></trkpt>
<trkpt lat="35.811737" lon="139.843741"><ele>6.8</ele></trkpt>
<trkpt lat="35.811521" lon="139.843544"><ele>7.8</ele></trkpt>
<trkpt lat="35.811362" lon="139.843409"><ele>8.2</ele></trkpt>
<trkpt lat="35.810899" lon="139.843107"><ele>8.2</ele></trkpt>
<trkpt lat="35.810490" lon="139.842733"><ele>7.8</ele></trkpt>
<trkpt lat="35.809552" lon="139.841598"><ele>6.8</ele></trkpt>
<trkpt lat="35.809447" lon="139.841476"><ele>6.5</ele></trkpt>
<trkpt lat="35.809359" lon="139.841350"><ele>6.2</ele></trkpt>
<trkpt lat="35.808909" lon="139.840699"><ele>5.8</ele></trkpt>
<trkpt lat="35.808684" lon="139.840219"><ele>5.5</ele></trkpt>
<trkpt lat="35.808549" lon="139.839928"><ele>5.2</ele></trkpt>
<trkpt lat="35.808361" lon="139.839618"><ele>5.2</ele></trkpt>
<trkpt lat="35.808071" lon="139.839156"><ele>5.5</ele></trkpt>
<trkpt lat="35.807807" lon="139.838756"><ele>5.5</ele></trkpt>
<trkpt lat="35.807766" lon="139.838691"><ele>5.5</ele></trkpt>
<trkpt lat="35.807648" lon="139.838492"><ele>5.5</ele></trkpt>
<trkpt lat="35.807048" lon="139.837438"><ele>5.5</ele></trkpt>
<trkpt lat="35.806984" lon="139.837326"><ele>5.5</ele></trkpt>
<trkpt lat="35.806933" lon="139.837228"><ele>5.2</ele></trkpt>
<trkpt lat="35.806131" lon="139.835713"><ele>4.2</ele></trkpt>
<trkpt lat="35.805862" lon="139.835182"><ele>3.8</ele></trkpt>
<trkpt lat="35.805550" lon="139.834598"><ele>4.0</ele></trkpt>
<trkpt lat="35.805024" lon="139.833623"><ele>3.0</ele></trkpt>
<trkpt lat="35.804740" lon="139.833114"><ele>2.5</ele></trkpt>
<trkpt lat="35.804337" lon="139.832434"><ele>2.8</ele></trkpt>
<trkpt lat="35.804100" lon="139.832039"><ele>3.2</ele></trkpt>
<trkpt lat="35.803744" lon="139.831508"><ele>3.5</ele></trkpt>
<trkpt lat="35.803411" lon="139.831027"><ele>4.0</ele></trkpt>
<trkpt lat="35.802726" lon="139.830160"><ele>4.0</ele></trkpt>
<trkpt lat="35.802584" lon="139.829983"><ele>3.8</ele></trkpt>
<trkpt lat="35.802379" lon="139.829769"><ele>3.5</ele></trkpt>
<trkpt lat="35.801882" lon="139.829282"><ele>4.8</ele></trkpt>
<trkpt lat="35.801652" lon="139.829082"><ele>6.0</ele></trkpt>
<trkpt lat="35.801118" lon="139.828677"><ele>6.5</ele></trkpt>
<trkpt lat="35.800736" lon="139.828418"><ele>7.0</ele></trkpt>
<trkpt lat="35.800291" lon="139.828173"><ele>7.0</ele></trkpt>
<trkpt lat="35.800167" lon="139.828019"><ele>6.5</ele></trkpt>
<trkpt lat="35.800044" lon="139.827695"><ele>5.5</ele></trkpt>
<trkpt lat="35.799951" lon="139.827322"><ele>5.0</ele></trkpt>
<trkpt lat="35.799892" lon="139.827091"><ele>5.2</ele></trkpt>
<trkpt lat="35.799850" lon="139.826998"><ele>5.2</ele></trkpt>
<trkpt lat="35.799741" lon="139.826870"><ele>5.0</ele></trkpt>
<trkpt lat="35.799591" lon="139.826740"><ele>4.8</ele></trkpt>
<trkpt lat="35.799494" lon="139.826632"><ele>4.8</ele></trkpt>
<trkpt lat="35.799147" lon="139.826331"><ele>4.2</ele></trkpt>
<trkpt lat="35.799135" lon="139.826320"><ele>4.2</ele></trkpt>
<trkpt lat="35.798823" lon="139.826079"><ele>4.2</ele></trkpt>
<trkpt lat="35.797835" lon="139.825254"><ele>3.5</ele></trkpt>
<trkpt lat="35.797598" lon="139.825067"><ele>3.8</ele></trkpt>
<trkpt lat="35.797398" lon="139.824905"><ele>4.2</ele></trkpt>
<trkpt lat="35.796873" lon="139.824461"><ele>6.0</ele></trkpt>
<trkpt lat="35.796309" lon="139.823994"><ele>6.5</ele></trkpt>
<trkpt lat="35.795500" lon="139.823297"><ele>4.8</ele></trkpt>
<trkpt lat="35.795223" lon="139.823054"><ele>4.5</ele></trkpt>
<trkpt lat="35.795010" lon="139.822868"><ele>4.2</ele></trkpt>
<trkpt lat="35.795088" lon="139.822783"><ele>4.2</ele></trkpt>
<trkpt lat="35.795352" lon="139.822496"><ele>4.0</ele></trkpt>
<trkpt lat="35.795396" lon="139.822451"><ele>4.0</ele></trkpt>
<trkpt lat="35.795467" lon="139.822378"><ele>4.0</ele></trkpt>
<trkpt lat="35.795662" lon="139.822131"><ele>4.5</ele></trkpt>
<trkpt lat="35.795686" lon="139.822101"><ele>4.5</ele></trkpt>
<trkpt lat="35.795713" lon="139.822072"><ele>4.5</ele></trkpt>
<trkpt lat="35.796031" lon="139.821723"><ele>4.8</ele></trkpt>
<trkpt lat="35.796422" lon="139.821314"><ele>5.2</ele></trkpt>
<trkpt lat="35.796605" lon="139.821125"><ele>5.5</ele></trkpt>
<trkpt lat="35.796798" lon="139.820939"><ele>5.5</ele></trkpt>
<trkpt lat="35.797149" lon="139.820620"><ele>5.0</ele></trkpt>
<trkpt lat="35.797416" lon="139.820397"><ele>4.5</ele></trkpt>
<trkpt lat="35.797706" lon="139.820172"><ele>4.0</ele></trkpt>
<trkpt lat="35.797958" lon="139.819876"><ele>3.8</ele></trkpt>
<trkpt lat="35.798170" lon="139.819656"><ele>3.8</ele></trkpt>
<trkpt lat="35.798232" lon="139.819605"><ele>3.8</ele></trkpt>
<trkpt lat="35.798289" lon="139.819569"><ele>3.8</ele></trkpt>
<trkpt lat="35.798447" lon="139.819492"><ele>3.8</ele></trkpt>
<trkpt lat="35.798533" lon="139.819472"><ele>3.8</ele></trkpt>
<trkpt lat="35.798710" lon="139.819447"><ele>3.5</ele></trkpt>
<trkpt lat="35.798892" lon="139.819423"><ele>3.5</ele></trkpt>
<trkpt lat="35.799000" lon="139.819393"><ele>3.5</ele></trkpt>
<trkpt lat="35.799057" lon="139.819377"><ele>3.5</ele></trkpt>
<trkpt lat="35.799332" lon="139.819304"><ele>3.5</ele></trkpt>
<trkpt lat="35.799480" lon="139.819254"><ele>3.2</ele></trkpt>
<trkpt lat="35.799646" lon="139.819186"><ele>3.2</ele></trkpt>
<trkpt lat="35.799737" lon="139.819158"><ele>3.2</ele></trkpt>
<trkpt lat="35.799780" lon="139.819143"><ele>3.2</ele></trkpt>
<trkpt lat="35.800030" lon="139.819069"><ele>3.0</ele></trkpt>
<trkpt lat="35.800215" lon="139.819036"><ele>3.2</ele></trkpt>
<trkpt lat="35.800543" lon="139.819018"><ele>3.5</ele></trkpt>
<trkpt lat="35.800867" lon="139.819001"><ele>3.8</ele></trkpt>
<trkpt lat="35.800920" lon="139.818998"><ele>3.8</ele></trkpt>
<trkpt lat="35.800920" lon="139.818906"><ele>3.8</ele></trkpt>
<trkpt lat="35.800916" lon="139.818053"><ele>4.0</ele></trkpt>
<trkpt lat="35.800915" lon="139.817795"><ele>4.0</ele></trkpt>
<trkpt lat="35.800914" lon="139.817637"><ele>4.0</ele></trkpt>
<trkpt lat="35.800914" lon="139.817497"><ele>4.0</ele></trkpt>
<trkpt lat="35.800917" lon="139.817363"><ele>4.0</ele></trkpt>
<trkpt lat="35.800963" lon="139.815602"><ele>5.0</ele></trkpt>
<trkpt lat="35.800965" lon="139.815524"><ele>5.2</ele></trkpt>
<trkpt lat="35.800991" lon="139.814496"><ele>5.2</ele></trkpt>
<trkpt lat="35.800992" lon="139.814331"><ele>5.0</ele></trkpt>
<trkpt lat="35.800990" lon="139.813515"><ele>5.0</ele></trkpt>
<trkpt lat="35.800975" lon="139.812894"><ele>5.5</ele></trkpt>
<trkpt lat="35.800923" lon="139.811911"><ele>4.5</ele></trkpt>
<trkpt lat="35.800920" lon="139.811855"><ele>4.5</ele></trkpt>
<trkpt lat="35.800871" lon="139.810971"><ele>4.8</ele></trkpt>
<trkpt lat="35.800867" lon="139.810878"><ele>4.8</ele></trkpt>
<trkpt lat="35.800837" lon="139.810246"><ele>6.2</ele></trkpt>
<trkpt lat="35.800829" lon="139.810102"><ele>6.5</ele></trkpt>
<trkpt lat="35.800822" lon="139.809965"><ele>6.8</ele></trkpt>
<trkpt lat="35.800791" lon="139.809419"><ele>6.0</ele></trkpt>
<trkpt lat="35.800761" lon="139.808890"><ele>5.5</ele></trkpt>
<trkpt lat="35.800744" lon="139.808581"><ele>5.5</ele></trkpt>
<trkpt lat="35.800724" lon="139.808218"><ele>5.8</ele></trkpt>
<trkpt lat="35.800704" lon="139.807868"><ele>5.8</ele></trkpt>
<trkpt lat="35.800701" lon="139.807821"><ele>5.8</ele></trkpt>
<trkpt lat="35.800635" lon="139.806635"><ele>7.5</ele></trkpt>
<trkpt lat="35.800630" lon="139.806549"><ele>7.5</ele></trkpt>
<trkpt lat="35.800625" lon="139.806463"><ele>7.2</ele></trkpt>
<trkpt lat="35.800559" lon="139.805279"><ele>5.5</ele></trkpt>
<trkpt lat="35.800549" lon="139.805101"><ele>5.0</ele></trkpt>
<trkpt lat="35.800543" lon="139.804990"><ele>5.0</ele></trkpt>
<trkpt lat="35.800539" lon="139.804928"><ele>5.0</ele></trkpt>
<trkpt lat="35.800533" lon="139.804819"><ele>5.0</ele></trkpt>
<trkpt lat="35.800504" lon="139.804296"><ele>5.0</ele></trkpt>
<trkpt lat="35.800464" lon="139.803575"><ele>5.2</ele></trkpt>
<trkpt lat="35.800430" lon="139.802987"><ele>5.5</ele></trkpt>
<trkpt lat="35.800425" lon="139.802889"><ele>5.8</ele></trkpt>
<trkpt lat="35.800417" lon="139.802740"><ele>5.8</ele></trkpt>
<trkpt lat="35.800401" lon="139.802451"><ele>5.8</ele></trkpt>
<trkpt lat="35.800383" lon="139.802131"><ele>5.2</ele></trkpt>
<trkpt lat="35.800377" lon="139.802028"><ele>5.0</ele></trkpt>
<trkpt lat="35.800370" lon="139.801901"><ele>4.8</ele></trkpt>
<trkpt lat="35.800364" lon="139.801803"><ele>4.8</ele></trkpt>
<trkpt lat="35.800359" lon="139.801666"><ele>4.5</ele></trkpt>
<trkpt lat="35.800349" lon="139.801126"><ele>4.0</ele></trkpt>
<trkpt lat="35.800341" lon="139.800670"><ele>3.8</ele></trkpt>
<trkpt lat="35.800339" lon="139.800571"><ele>3.5</ele></trkpt>
<trkpt lat="35.800291" lon="139.800574"><ele>3.5</ele></trkpt>
<trkpt lat="35.799845" lon="139.800598"><ele>3.2</ele></trkpt>
<trkpt lat="35.799816" lon="139.800594"><ele>3.5</ele></trkpt>
<trkpt lat="35.799805" lon="139.800586"><ele>3.5</ele></trkpt>
<trkpt lat="35.799841" lon="139.800197"><ele>3.5</ele></trkpt>
<trkpt lat="35.799870" lon="139.800037"><ele>3.8</ele></trkpt>
<trkpt lat="35.799873" lon="139.799986"><ele>4.0</ele></trkpt>
<trkpt lat="35.799870" lon="139.800037"><ele>3.8</ele></trkpt>
<trkpt lat="35.799841" lon="139.800197"><ele>3.5</ele></trkpt>
<trkpt lat="35.799805" lon="139.800586"><ele>3.5</ele></trkpt>
<trkpt lat="35.799605" lon="139.800571"><ele>3.8</ele></trkpt>
<trkpt lat="35.799248" lon="139.800590"><ele>4.2</ele></trkpt>
<trkpt lat="35.799128" lon="139.800601"><ele>4.5</ele></trkpt>
<trkpt lat="35.798897" lon="139.800620"><ele>4.8</ele></trkpt>
<trkpt lat="35.798632" lon="139.800635"><ele>5.2</ele></trkpt>
<trkpt lat="35.798455" lon="139.800665"><ele>5.8</ele></trkpt>
<trkpt lat="35.798176" lon="139.800734"><ele>6.5</ele></trkpt>
<trkpt lat="35.798141" lon="139.800745"><ele>6.5</ele></trkpt>
<trkpt lat="35.797879" lon="139.800824"><ele>7.5</ele></trkpt>
<trkpt lat="35.797711" lon="139.800831"><ele>8.0</ele></trkpt>
<trkpt lat="35.797403" lon="139.800872"><ele>8.5</ele></trkpt>
<trkpt lat="35.797197" lon="139.800902"><ele>8.0</ele></trkpt>
<trkpt lat="35.797070" lon="139.800929"><ele>7.8</ele></trkpt>
<trkpt lat="35.796626" lon="139.801145"><ele>6.8</ele></trkpt>
<trkpt lat="35.796602" lon="139.801114"><ele>6.8</ele></trkpt>
<trkpt lat="35.796421" lon="139.800778"><ele>6.5</ele></trkpt>
<trkpt lat="35.796166" lon="139.801019"><ele>6.2</ele></trkpt>
<trkpt lat="35.795992" lon="139.801174"><ele>5.8</ele></trkpt>
<trkpt lat="35.795221" lon="139.801913"><ele>7.0</ele></trkpt>
<trkpt lat="35.795182" lon="139.801876"><ele>7.0</ele></trkpt>
<trkpt lat="35.795067" lon="139.801821"><ele>7.0</ele></trkpt>
<trkpt lat="35.795028" lon="139.801813"><ele>7.2</ele></trkpt>
<trkpt lat="35.794824" lon="139.801804"><ele>7.2</ele></trkpt>
<trkpt lat="35.794774" lon="139.801802"><ele>7.2</ele></trkpt>
<trkpt lat="35.794759" lon="139.802123"><ele>7.8</ele></trkpt>
<trkpt lat="35.794757" lon="139.802239"><ele>8.0</ele></trkpt>
<trkpt lat="35.794760" lon="139.802347"><ele>8.2</ele></trkpt>
<trkpt lat="35.794762" lon="139.802463"><ele>8.5</ele></trkpt>
<trkpt lat="35.794777" lon="139.803018"><ele>7.5</ele></trkpt>
<trkpt lat="35.794777" lon="139.803093"><ele>7.5</ele></trkpt>
<trkpt lat="35.794785" lon="139.803629"><ele>7.2</ele></trkpt>
<trkpt lat="35.794797" lon="139.804298"><ele>8.0</ele></trkpt>
<trkpt lat="35.794815" lon="139.805564"><ele>7.2</ele></trkpt>
<trkpt lat="35.794820" lon="139.805950"><ele>7.0</ele></trkpt>
<trkpt lat="35.794836" lon="139.806874"><ele>7.8</ele></trkpt>
<trkpt lat="35.794836" lon="139.806898"><ele>7.5</ele></trkpt>
<trkpt lat="35.794847" lon="139.807524"><ele>6.8</ele></trkpt>
<trkpt lat="35.794867" lon="139.808427"><ele>6.8</ele></trkpt>
<trkpt lat="35.794876" lon="139.808755"><ele>7.0</ele></trkpt>
<trkpt lat="35.794899" lon="139.809216"><ele>7.8</ele></trkpt>
<trkpt lat="35.794909" lon="139.809417"><ele>8.2</ele></trkpt>
<trkpt lat="35.794930" lon="139.809907"><ele>9.5</ele></trkpt>
<trkpt lat="35.794936" lon="139.810087"><ele>9.5</ele></trkpt>
<trkpt lat="35.794942" lon="139.810277"><ele>9.2</ele></trkpt>
<trkpt lat="35.794962" lon="139.810728"><ele>8.8</ele></trkpt>
<trkpt lat="35.795016" lon="139.811978"><ele>7.0</ele></trkpt>
<trkpt lat="35.795034" lon="139.812383"><ele>4.5</ele></trkpt>
<trkpt lat="35.795030" lon="139.812595"><ele>4.0</ele></trkpt>
<trkpt lat="35.795029" lon="139.812733"><ele>4.0</ele></trkpt>
<trkpt lat="35.795013" lon="139.812916"><ele>4.0</ele></trkpt>
<trkpt lat="35.794996" lon="139.813068"><ele>4.0</ele></trkpt>
<trkpt lat="35.794965" lon="139.813238"><ele>4.0</ele></trkpt>
<trkpt lat="35.794948" lon="139.813334"><ele>4.0</ele></trkpt>
<trkpt lat="35.794821" lon="139.813901"><ele>3.5</ele></trkpt>
<trkpt lat="35.794675" lon="139.814540"><ele>3.8</ele></trkpt>
<trkpt lat="35.794413" lon="139.815678"><ele>3.0</ele></trkpt>
<trkpt lat="35.794400" lon="139.815735"><ele>3.0</ele></trkpt>
<trkpt lat="35.794296" lon="139.816187"><ele>2.2</ele></trkpt>
<trkpt lat="35.794205" lon="139.816614"><ele>1.8</ele></trkpt>
<trkpt lat="35.794157" lon="139.816843"><ele>2.0</ele></trkpt>
<trkpt lat="35.794116" lon="139.816981"><ele>2.0</ele></trkpt>
<trkpt lat="35.794086" lon="139.817096"><ele>2.0</ele></trkpt>
<trkpt lat="35.793820" lon="139.818262"><ele>4.5</ele></trkpt>
<trkpt lat="35.793672" lon="139.818919"><ele>5.0</ele></trkpt>
<trkpt lat="35.793560" lon="139.819421"><ele>5.2</ele></trkpt>
<trkpt lat="35.793541" lon="139.819504"><ele>5.5</ele></trkpt>
<trkpt lat="35.793519" lon="139.819601"><ele>5.5</ele></trkpt>
<trkpt lat="35.793246" lon="139.820809"><ele>5.8</ele></trkpt>
<trkpt lat="35.793111" lon="139.821421"><ele>4.0</ele></trkpt>
<trkpt lat="35.792981" lon="139.822019"><ele>3.2</ele></trkpt>
<trkpt lat="35.792925" lon="139.822191"><ele>3.0</ele></trkpt>
<trkpt lat="35.792866" lon="139.822350"><ele>2.8</ele></trkpt>
<trkpt lat="35.792692" lon="139.822860"><ele>2.8</ele></trkpt>
<trkpt lat="35.792537" lon="139.823367"><ele>3.0</ele></trkpt>
<trkpt lat="35.792111" lon="139.824613"><ele>4.0</ele></trkpt>
<trkpt lat="35.791861" lon="139.825359"><ele>4.2</ele></trkpt>
<trkpt lat="35.791795" lon="139.825558"><ele>4.5</ele></trkpt>
<trkpt lat="35.791742" lon="139.825814"><ele>4.8</ele></trkpt>
<trkpt lat="35.791731" lon="139.825913"><ele>4.8</ele></trkpt>
<trkpt lat="35.791731" lon="139.826127"><ele>5.0</ele></trkpt>
<trkpt lat="35.791751" lon="139.826310"><ele>5.2</ele></trkpt>
<trkpt lat="35.791787" lon="139.826471"><ele>5.5</ele></trkpt>
<trkpt lat="35.792069" lon="139.827563"><ele>4.5</ele></trkpt>
<trkpt lat="35.792104" lon="139.827698"><ele>3.8</ele></trkpt>
<trkpt lat="35.792121" lon="139.827760"><ele>3.5</ele></trkpt>
<trkpt lat="35.792240" lon="139.828207"><ele>1.2</ele></trkpt>
<trkpt lat="35.792276" lon="139.828340"><ele>0.8</ele></trkpt>
<trkpt lat="35.792159" lon="139.828346"><ele>0.5</ele></trkpt>
<trkpt lat="35.792079" lon="139.828349"><ele>0.5</ele></trkpt>
<trkpt lat="35.791978" lon="139.828363"><ele>0.5</ele></trkpt>
<trkpt lat="35.791877" lon="139.828388"><ele>0.2</ele></trkpt>
<trkpt lat="35.791469" lon="139.828495"><ele>1.2</ele></trkpt>
<trkpt lat="35.791396" lon="139.828502"><ele>1.5</ele></trkpt>
<trkpt lat="35.791188" lon="139.828492"><ele>2.2</ele></trkpt>
<trkpt lat="35.791162" lon="139.828490"><ele>2.2</ele></trkpt>
<trkpt lat="35.791156" lon="139.828580"><ele>2.5</ele></trkpt>
<trkpt lat="35.791146" lon="139.828748"><ele>3.0</ele></trkpt>
<trkpt lat="35.791286" lon="139.829380"><ele>4.5</ele></trkpt>
<trkpt lat="35.791241" lon="139.829395"><ele>4.5</ele></trkpt>
<trkpt lat="35.790160" lon="139.829755"><ele>4.5</ele></trkpt>
<trkpt lat="35.790111" lon="139.829772"><ele>4.5</ele></trkpt>
<trkpt lat="35.790059" lon="139.829787"><ele>4.5</ele></trkpt>
<trkpt lat="35.790046" lon="139.829791"><ele>4.5</ele></trkpt>
<trkpt lat="35.789968" lon="139.829775"><ele>4.5</ele></trkpt>
<trkpt lat="35.789666" lon="139.829719"><ele>4.2</ele></trkpt>
<trkpt lat="35.789645" lon="139.830361"><ele>3.8</ele></trkpt>
<trkpt lat="35.789643" lon="139.830461"><ele>3.8</ele></trkpt>
<trkpt lat="35.789642" lon="139.830514"><ele>3.5</ele></trkpt>
<trkpt lat="35.789629" lon="139.831002"><ele>2.8</ele></trkpt>
<trkpt lat="35.789613" lon="139.831629"><ele>2.5</ele></trkpt>
<trkpt lat="35.789596" lon="139.832279"><ele>2.5</ele></trkpt>
<trkpt lat="35.789595" lon="139.832313"><ele>2.5</ele></trkpt>
<trkpt lat="35.789698" lon="139.832785"><ele>2.2</ele></trkpt>
<trkpt lat="35.789799" lon="139.833283"><ele>1.8</ele></trkpt>
<trkpt lat="35.789823" lon="139.833706"><ele>1.5</ele></trkpt>
<trkpt lat="35.789861" lon="139.834181"><ele>1.5</ele></trkpt>
<trkpt lat="35.789872" lon="139.834349"><ele>1.8</ele></trkpt>
<trkpt lat="35.789901" lon="139.834764"><ele>2.5</ele></trkpt>
<trkpt lat="35.789910" lon="139.834809"><ele>2.5</ele></trkpt>
<trkpt lat="35.790055" lon="139.835424"><ele>3.0</ele></trkpt>
<trkpt lat="35.790061" lon="139.835466"><ele>3.0</ele></trkpt>
<trkpt lat="35.790088" lon="139.835667"><ele>3.0</ele></trkpt>
<trkpt lat="35.790104" lon="139.835959"><ele>2.8</ele></trkpt>
<trkpt lat="35.790090" lon="139.836222"><ele>2.8</ele></trkpt>
<trkpt lat="35.790035" lon="139.836494"><ele>2.8</ele></trkpt>
<trkpt lat="35.789841" lon="139.836999"><ele>3.2</ele></trkpt>
<trkpt lat="35.789817" lon="139.837060"><ele>3.2</ele></trkpt>
<trkpt lat="35.789405" lon="139.838116"><ele>3.8</ele></trkpt>
<trkpt lat="35.789382" lon="139.838173"><ele>3.8</ele></trkpt>
<trkpt lat="35.789357" lon="139.838238"><ele>3.5</ele></trkpt>
<trkpt lat="35.789016" lon="139.839110"><ele>3.0</ele></trkpt>
<trkpt lat="35.788634" lon="139.840081"><ele>1.2</ele></trkpt>
<trkpt lat="35.788611" lon="139.840142"><ele>1.2</ele></trkpt>
<trkpt lat="35.788582" lon="139.840208"><ele>1.2</ele></trkpt>
<trkpt lat="35.788487" lon="139.840454"><ele>1.0</ele></trkpt>
<trkpt lat="35.788450" lon="139.840589"><ele>1.0</ele></trkpt>
<trkpt lat="35.788415" lon="139.840775"><ele>1.0</ele></trkpt>
<trkpt lat="35.788397" lon="139.840952"><ele>1.0</ele></trkpt>
<trkpt lat="35.788393" lon="139.841068"><ele>1.0</ele></trkpt>
<trkpt lat="35.788398" lon="139.841253"><ele>1.0</ele></trkpt>
<trkpt lat="35.788399" lon="139.841296"><ele>1.0</ele></trkpt>
<trkpt lat="35.788402" lon="139.841344"><ele>1.0</ele></trkpt>
<trkpt lat="35.788404" lon="139.841398"><ele>1.0</ele></trkpt>
<trkpt lat="35.788409" lon="139.841453"><ele>1.0</ele></trkpt>
<trkpt lat="35.788419" lon="139.841583"><ele>1.0</ele></trkpt>
<trkpt lat="35.788444" lon="139.841904"><ele>1.5</ele></trkpt>
<trkpt lat="35.788503" lon="139.842609"><ele>2.8</ele></trkpt>
<trkpt lat="35.788506" lon="139.842644"><ele>2.8</ele></trkpt>
<trkpt lat="35.788513" lon="139.842714"><ele>2.8</ele></trkpt>
<trkpt lat="35.788449" lon="139.842734"><ele>2.8</ele></trkpt>
<trkpt lat="35.788417" lon="139.842744"><ele>2.8</ele></trkpt>
<trkpt lat="35.788137" lon="139.842817"><ele>2.5</ele></trkpt>
<trkpt lat="35.787824" lon="139.842891"><ele>1.8</ele></trkpt>
<trkpt lat="35.787515" lon="139.842961"><ele>1.0</ele></trkpt>
<trkpt lat="35.787211" lon="139.843039"><ele>0.5</ele></trkpt>
<trkpt lat="35.786830" lon="139.843129"><ele>0.0</ele></trkpt>
<trkpt lat="35.786764" lon="139.843145"><ele>-0.2</ele></trkpt>
<trkpt lat="35.786718" lon="139.843156"><ele>-0.2</ele></trkpt>
<trkpt lat="35.786307" lon="139.843258"><ele>0.8</ele></trkpt>
<trkpt lat="35.786103" lon="139.843311"><ele>1.5</ele></trkpt>
<trkpt lat="35.785810" lon="139.843380"><ele>2.8</ele></trkpt>
<trkpt lat="35.785281" lon="139.843512"><ele>2.0</ele></trkpt>
<trkpt lat="35.784843" lon="139.843641"><ele>1.5</ele></trkpt>
<trkpt lat="35.784805" lon="139.843653"><ele>1.5</ele></trkpt>
<trkpt lat="35.784762" lon="139.843670"><ele>1.5</ele></trkpt>
<trkpt lat="35.784331" lon="139.843794"><ele>1.2</ele></trkpt>
<trkpt lat="35.783989" lon="139.843896"><ele>1.2</ele></trkpt>
<trkpt lat="35.783948" lon="139.843909"><ele>1.2</ele></trkpt>
<trkpt lat="35.783900" lon="139.843920"><ele>1.2</ele></trkpt>
<trkpt lat="35.783525" lon="139.844022"><ele>1.2</ele></trkpt>
<trkpt lat="35.783103" lon="139.844119"><ele>1.8</ele></trkpt>
<trkpt lat="35.782794" lon="139.844197"><ele>3.0</ele></trkpt>
<trkpt lat="35.782751" lon="139.844208"><ele>3.0</ele></trkpt>
<trkpt lat="35.782708" lon="139.844221"><ele>3.2</ele></trkpt>
<trkpt lat="35.782542" lon="139.844270"><ele>4.0</ele></trkpt>
<trkpt lat="35.782284" lon="139.844358"><ele>4.2</ele></trkpt>
<trkpt lat="35.782236" lon="139.844374"><ele>4.2</ele></trkpt>
<trkpt lat="35.781996" lon="139.844458"><ele>4.5</ele></trkpt>
<trkpt lat="35.781941" lon="139.844469"><ele>4.5</ele></trkpt>
<trkpt lat="35.781890" lon="139.844481"><ele>4.8</ele></trkpt>
<trkpt lat="35.781278" lon="139.844628"><ele>4.0</ele></trkpt>
<trkpt lat="35.780898" lon="139.844708"><ele>3.5</ele></trkpt>
<trkpt lat="35.780847" lon="139.844719"><ele>3.5</ele></trkpt>
<trkpt lat="35.780797" lon="139.844731"><ele>4.0</ele></trkpt>
<trkpt lat="35.780431" lon="139.844831"><ele>6.8</ele></trkpt>
<trkpt lat="35.780435" lon="139.844875"><ele>6.5</ele></trkpt>
<trkpt lat="35.780469" lon="139.845383"><ele>5.8</ele></trkpt>
<trkpt lat="35.780469" lon="139.845512"><ele>5.5</ele></trkpt>
<trkpt lat="35.780451" lon="139.845688"><ele>5.2</ele></trkpt>
<trkpt lat="35.780424" lon="139.845833"><ele>5.0</ele></trkpt>
<trkpt lat="35.780442" lon="139.846092"><ele>6.8</ele></trkpt>
<trkpt lat="35.780211" lon="139.846148"><ele>6.2</ele></trkpt>
<trkpt lat="35.780004" lon="139.846286"><ele>6.0</ele></trkpt>
<trkpt lat="35.779840" lon="139.846393"><ele>6.0</ele></trkpt>
<trkpt lat="35.779800" lon="139.846419"><ele>6.0</ele></trkpt>
<trkpt lat="35.779692" lon="139.846518"><ele>6.0</ele></trkpt>
<trkpt lat="35.779308" lon="139.846923"><ele>4.5</ele></trkpt>
<trkpt lat="35.779263" lon="139.846963"><ele>4.2</ele></trkpt>
<trkpt lat="35.779191" lon="139.847000"><ele>4.0</ele></trkpt>
<trkpt lat="35.778868" lon="139.847111"><ele>3.5</ele></trkpt>
<trkpt lat="35.778848" lon="139.847116"><ele>3.5</ele></trkpt>
<trkpt lat="35.778503" lon="139.847222"><ele>3.0</ele></trkpt>
<trkpt lat="35.778372" lon="139.847264"><ele>3.0</ele></trkpt>
<trkpt lat="35.778344" lon="139.847271"><ele>3.0</ele></trkpt>
<trkpt lat="35.777819" lon="139.847437"><ele>3.0</ele></trkpt>
<trkpt lat="35.777784" lon="139.847462"><ele>3.0</ele></trkpt>
<trkpt lat="35.777722" lon="139.847512"><ele>2.8</ele></trkpt>
<trkpt lat="35.777532" lon="139.847669"><ele>2.8</ele></trkpt>
<trkpt lat="35.777424" lon="139.847767"><ele>2.8</ele></trkpt>
<trkpt lat="35.777317" lon="139.847851"><ele>3.0</ele></trkpt>
<trkpt lat="35.777277" lon="139.847872"><ele>3.0</ele></trkpt>
<trkpt lat="35.777227" lon="139.847900"><ele>3.2</ele></trkpt>
<trkpt lat="35.777258" lon="139.848004"><ele>3.0</ele></trkpt>
<trkpt lat="35.777559" lon="139.848931"><ele>2.8</ele></trkpt>
<trkpt lat="35.777809" lon="139.849681"><ele>2.5</ele></trkpt>
<trkpt lat="35.777917" lon="139.849956"><ele>2.5</ele></trkpt>
<trkpt lat="35.778056" lon="139.850229"><ele>2.5</ele></trkpt>
<trkpt lat="35.778230" lon="139.850503"><ele>2.5</ele></trkpt>
<trkpt lat="35.779365" lon="139.852133"><ele>2.2</ele></trkpt>
<trkpt lat="35.779436" lon="139.852249"><ele>2.2</ele></trkpt>
<trkpt lat="35.779487" lon="139.852360"><ele>2.5</ele></trkpt>
<trkpt lat="35.779530" lon="139.852473"><ele>2.8</ele></trkpt>
<trkpt lat="35.779563" lon="139.852582"><ele>2.8</ele></trkpt>
<trkpt lat="35.779600" lon="139.852735"><ele>2.8</ele></trkpt>
<trkpt lat="35.779581" lon="139.852959"><ele>2.2</ele></trkpt>
<trkpt lat="35.779469" lon="139.853036"><ele>2.0</ele></trkpt>
<trkpt lat="35.779272" lon="139.853133"><ele>1.2</ele></trkpt>
<trkpt lat="35.779129" lon="139.853196"><ele>1.0</ele></trkpt>
<trkpt lat="35.779003" lon="139.853274"><ele>1.0</ele></trkpt>
<trkpt lat="35.778802" lon="139.853410"><ele>0.8</ele></trkpt>
<trkpt lat="35.778777" lon="139.853427"><ele>0.8</ele></trkpt>
<trkpt lat="35.778850" lon="139.854141"><ele>0.8</ele></trkpt>
<trkpt lat="35.778849" lon="139.854197"><ele>0.8</ele></trkpt>
<trkpt lat="35.778850" lon="139.854259"><ele>1.0</ele></trkpt>
<trkpt lat="35.778884" lon="139.854602"><ele>1.8</ele></trkpt>
<trkpt lat="35.778920" lon="139.854928"><ele>2.8</ele></trkpt>
<trkpt lat="35.778950" lon="139.855233"><ele>3.0</ele></trkpt>
<trkpt lat="35.778960" lon="139.855342"><ele>3.0</ele></trkpt>
<trkpt lat="35.779011" lon="139.855899"><ele>3.2</ele></trkpt>
<trkpt lat="35.779030" lon="139.856087"><ele>3.2</ele></trkpt>
<trkpt lat="35.779033" lon="139.856123"><ele>3.2</ele></trkpt>
<trkpt lat="35.779035" lon="139.856135"><ele>3.2</ele></trkpt>
<trkpt lat="35.779094" lon="139.856718"><ele>2.8</ele></trkpt>
<trkpt lat="35.779149" lon="139.857265"><ele>2.2</ele></trkpt>
<trkpt lat="35.779174" lon="139.857552"><ele>2.0</ele></trkpt>
<trkpt lat="35.779205" lon="139.857909"><ele>3.0</ele></trkpt>
<trkpt lat="35.779217" lon="139.858034"><ele>3.2</ele></trkpt>
<trkpt lat="35.779252" lon="139.858395"><ele>3.8</ele></trkpt>
<trkpt lat="35.779329" lon="139.859136"><ele>3.5</ele></trkpt>
<trkpt lat="35.779337" lon="139.859211"><ele>3.5</ele></trkpt>
<trkpt lat="35.779013" lon="139.859556"><ele>4.5</ele></trkpt>
<trkpt lat="35.778665" lon="139.859929"><ele>4.8</ele></trkpt>
<trkpt lat="35.778591" lon="139.860009"><ele>5.0</ele></trkpt>
<trkpt lat="35.778308" lon="139.860226"><ele>4.8</ele></trkpt>
<trkpt lat="35.778032" lon="139.860488"><ele>4.8</ele></trkpt>
<trkpt lat="35.777989" lon="139.860529"><ele>4.8</ele></trkpt>
<trkpt lat="35.777941" lon="139.860589"><ele>4.8</ele></trkpt>
<trkpt lat="35.777906" lon="139.860630"><ele>4.8</ele></trkpt>
<trkpt lat="35.777889" lon="139.860701"><ele>4.8</ele></trkpt>
<trkpt lat="35.777865" lon="139.860788"><ele>4.8</ele></trkpt>
<trkpt lat="35.777745" lon="139.860885"><ele>4.8</ele></trkpt>
<trkpt lat="35.777678" lon="139.860965"><ele>4.8</ele></trkpt>
<trkpt lat="35.777641" lon="139.861058"><ele>4.5</ele></trkpt>
<trkpt lat="35.777595" lon="139.861199"><ele>4.5</ele></trkpt>
<trkpt lat="35.777555" lon="139.861369"><ele>4.2</ele></trkpt>
<trkpt lat="35.777535" lon="139.861459"><ele>4.0</ele></trkpt>
<trkpt lat="35.777415" lon="139.861616"><ele>3.8</ele></trkpt>
<trkpt lat="35.777320" lon="139.861756"><ele>3.2</ele></trkpt>
<trkpt lat="35.777100" lon="139.862110"><ele>2.8</ele></trkpt>
<trkpt lat="35.776874" lon="139.862382"><ele>2.2</ele></trkpt>
<trkpt lat="35.776509" lon="139.862609"><ele>2.2</ele></trkpt>
<trkpt lat="35.776300" lon="139.862661"><ele>2.5</ele></trkpt>
<trkpt lat="35.776064" lon="139.862732"><ele>2.5</ele></trkpt>
<trkpt lat="35.775666" lon="139.862898"><ele>2.5</ele></trkpt>
<trkpt lat="35.775519" lon="139.862939"><ele>2.8</ele></trkpt>
<trkpt lat="35.775358" lon="139.863005"><ele>3.0</ele></trkpt>
<trkpt lat="35.774556" lon="139.863433"><ele>5.2</ele></trkpt>
<trkpt lat="35.774497" lon="139.863464"><ele>5.5</ele></trkpt>
<trkpt lat="35.774416" lon="139.863512"><ele>5.8</ele></trkpt>
<trkpt lat="35.774112" lon="139.863681"><ele>6.5</ele></trkpt>
<trkpt lat="35.773707" lon="139.863967"><ele>5.8</ele></trkpt>
<trkpt lat="35.773604" lon="139.864084"><ele>5.2</ele></trkpt>
<trkpt lat="35.773536" lon="139.864178"><ele>5.0</ele></trkpt>
<trkpt lat="35.773068" lon="139.864920"><ele>5.0</ele></trkpt>
<trkpt lat="35.772677" lon="139.865475"><ele>3.8</ele></trkpt>
<trkpt lat="35.772522" lon="139.865704"><ele>3.2</ele></trkpt>
<trkpt lat="35.772473" lon="139.865783"><ele>3.0</ele></trkpt>
<trkpt lat="35.772366" lon="139.865730"><ele>3.2</ele></trkpt>
<trkpt lat="35.772248" lon="139.865672"><ele>3.5</ele></trkpt>
<trkpt lat="35.772223" lon="139.865752"><ele>3.2</ele></trkpt>
<trkpt lat="35.772199" lon="139.865826"><ele>3.2</ele></trkpt>
<trkpt lat="35.771948" lon="139.865887"><ele>3.5</ele></trkpt>
<trkpt lat="35.771819" lon="139.865885"><ele>3.8</ele></trkpt>
<trkpt lat="35.771707" lon="139.865864"><ele>3.8</ele></trkpt>
<trkpt lat="35.771558" lon="139.865783"><ele>3.8</ele></trkpt>
<trkpt lat="35.771503" lon="139.865751"><ele>3.8</ele></trkpt>
<trkpt lat="35.771439" lon="139.865732"><ele>3.8</ele></trkpt>
<trkpt lat="35.771243" lon="139.865674"><ele>3.8</ele></trkpt>
<trkpt lat="35.771169" lon="139.865660"><ele>3.8</ele></trkpt>
<trkpt lat="35.771028" lon="139.865656"><ele>3.8</ele></trkpt>
<trkpt lat="35.770953" lon="139.865656"><ele>3.5</ele></trkpt>
<trkpt lat="35.770867" lon="139.865671"><ele>3.5</ele></trkpt>
<trkpt lat="35.770824" lon="139.865685"><ele>3.5</ele></trkpt>
<trkpt lat="35.770744" lon="139.865727"><ele>3.2</ele></trkpt>
<trkpt lat="35.770646" lon="139.865760"><ele>3.2</ele></trkpt>
<trkpt lat="35.770570" lon="139.865776"><ele>3.2</ele></trkpt>
<trkpt lat="35.770494" lon="139.865780"><ele>3.2</ele></trkpt>
<trkpt lat="35.770324" lon="139.865861"><ele>3.5</ele></trkpt>
<trkpt lat="35.770268" lon="139.865944"><ele>3.5</ele></trkpt>
<trkpt lat="35.770170" lon="139.866059"><ele>3.5</ele></trkpt>
<trkpt lat="35.770135" lon="139.866099"><ele>3.5</ele></trkpt>
<trkpt lat="35.769825" lon="139.865639"><ele>3.5</ele></trkpt>
<trkpt lat="35.769802" lon="139.865586"><ele>3.5</ele></trkpt>
<trkpt lat="35.769800" lon="139.865540"><ele>3.5</ele></trkpt>
<trkpt lat="35.769759" lon="139.865542"><ele>3.2</ele></trkpt>
<trkpt lat="35.769734" lon="139.865536"><ele>3.2</ele></trkpt>
<trkpt lat="35.769716" lon="139.865533"><ele>3.2</ele></trkpt>
<trkpt lat="35.769660" lon="139.865489"><ele>3.2</ele></trkpt>
<trkpt lat="35.768997" lon="139.865595"><ele>3.2</ele></trkpt>
<trkpt lat="35.768984" lon="139.865603"><ele>3.2</ele></trkpt>
<trkpt lat="35.768539" lon="139.865678"><ele>4.8</ele></trkpt>
<trkpt lat="35.768506" lon="139.865702"><ele>4.8</ele></trkpt>
<trkpt lat="35.768151" lon="139.865745"><ele>5.0</ele></trkpt>
<trkpt lat="35.768012" lon="139.865762"><ele>4.8</ele></trkpt>
<trkpt lat="35.767751" lon="139.865795"><ele>4.2</ele></trkpt>
<trkpt lat="35.767500" lon="139.865831"><ele>3.8</ele></trkpt>
<trkpt lat="35.767296" lon="139.865866"><ele>3.8</ele></trkpt>
</trkseg></trk></gpx>
