<?xml version="1.0" encoding="UTF-8"?>
<gpx version="1.1" creator="TokyoCycling2026" xmlns="http://www.topografix.com/GPX/1/1">
  <metadata>
    <name>Day 10: 海灣篇：伊東川奈 ➔ 宇佐美 ➔ 避開危險長隧道 (走網代舊街) ➔ Apt南熱海</name>
    <desc>17.4 km | +314m / -352m</desc>
  </metadata>
  <trk>
    <name>Day 10: 海灣篇：伊東川奈 ➔ 宇佐美 ➔ 避開危險長隧道 (走網代舊街) ➔ Apt南熱海</name>
    <trkseg>
      <trkpt lat="34.969817" lon="139.123286"></trkpt>
      <trkpt lat="34.969995" lon="139.123189"></trkpt>
      <trkpt lat="34.970604" lon="139.12285"></trkpt>
      <trkpt lat="34.97076" lon="139.122747"></trkpt>
      <trkpt lat="34.970918" lon="139.122629"></trkpt>
      <trkpt lat="34.971057" lon="139.122498"></trkpt>
      <trkpt lat="34.971186" lon="139.122361"></trkpt>
      <trkpt lat="34.971342" lon="139.122124"></trkpt>
      <trkpt lat="34.971406" lon="139.121994"></trkpt>
      <trkpt lat="34.971431" lon="139.121942"></trkpt>
      <trkpt lat="34.971491" lon="139.121789"></trkpt>
      <trkpt lat="34.971551" lon="139.121611"></trkpt>
      <trkpt lat="34.97166" lon="139.121258"></trkpt>
      <trkpt lat="34.971769" lon="139.120914"></trkpt>
      <trkpt lat="34.97191" lon="139.120585"></trkpt>
      <trkpt lat="34.972065" lon="139.120277"></trkpt>
      <trkpt lat="34.972231" lon="139.119986"></trkpt>
      <trkpt lat="34.97264" lon="139.119223"></trkpt>
      <trkpt lat="34.972761" lon="139.118949"></trkpt>
      <trkpt lat="34.972843" lon="139.118736"></trkpt>
      <trkpt lat="34.97288" lon="139.118549"></trkpt>
      <trkpt lat="34.972907" lon="139.118365"></trkpt>
      <trkpt lat="34.972921" lon="139.118126"></trkpt>
      <trkpt lat="34.97292" lon="139.117829"></trkpt>
      <trkpt lat="34.972898" lon="139.117522"></trkpt>
      <trkpt lat="34.972847" lon="139.117028"></trkpt>
      <trkpt lat="34.972808" lon="139.116584"></trkpt>
      <trkpt lat="34.972781" lon="139.116161"></trkpt>
      <trkpt lat="34.97277" lon="139.115923"></trkpt>
      <trkpt lat="34.972733" lon="139.115324"></trkpt>
      <trkpt lat="34.972731" lon="139.114619"></trkpt>
      <trkpt lat="34.972734" lon="139.114198"></trkpt>
      <trkpt lat="34.972759" lon="139.113774"></trkpt>
      <trkpt lat="34.972795" lon="139.113486"></trkpt>
      <trkpt lat="34.972924" lon="139.11265"></trkpt>
      <trkpt lat="34.972939" lon="139.112514"></trkpt>
      <trkpt lat="34.972942" lon="139.112417"></trkpt>
      <trkpt lat="34.972944" lon="139.112175"></trkpt>
      <trkpt lat="34.972921" lon="139.111928"></trkpt>
      <trkpt lat="34.972892" lon="139.111749"></trkpt>
      <trkpt lat="34.972848" lon="139.111557"></trkpt>
      <trkpt lat="34.972718" lon="139.111075"></trkpt>
      <trkpt lat="34.972653" lon="139.110888"></trkpt>
      <trkpt lat="34.972546" lon="139.110629"></trkpt>
      <trkpt lat="34.972372" lon="139.110285"></trkpt>
      <trkpt lat="34.972296" lon="139.110161"></trkpt>
      <trkpt lat="34.97222" lon="139.110084"></trkpt>
      <trkpt lat="34.971837" lon="139.109582"></trkpt>
      <trkpt lat="34.971094" lon="139.108644"></trkpt>
      <trkpt lat="34.970681" lon="139.108084"></trkpt>
      <trkpt lat="34.970456" lon="139.107834"></trkpt>
      <trkpt lat="34.970301" lon="139.107637"></trkpt>
      <trkpt lat="34.970083" lon="139.10738"></trkpt>
      <trkpt lat="34.969957" lon="139.107222"></trkpt>
      <trkpt lat="34.969811" lon="139.106995"></trkpt>
      <trkpt lat="34.969666" lon="139.106694"></trkpt>
      <trkpt lat="34.969557" lon="139.106397"></trkpt>
      <trkpt lat="34.969495" lon="139.106186"></trkpt>
      <trkpt lat="34.969463" lon="139.105974"></trkpt>
      <trkpt lat="34.969453" lon="139.105839"></trkpt>
      <trkpt lat="34.96946" lon="139.105683"></trkpt>
      <trkpt lat="34.969493" lon="139.105505"></trkpt>
      <trkpt lat="34.96954" lon="139.105292"></trkpt>
      <trkpt lat="34.969699" lon="139.104916"></trkpt>
      <trkpt lat="34.970174" lon="139.103852"></trkpt>
      <trkpt lat="34.970337" lon="139.10348"></trkpt>
      <trkpt lat="34.970538" lon="139.103099"></trkpt>
      <trkpt lat="34.970736" lon="139.102747"></trkpt>
      <trkpt lat="34.970998" lon="139.102263"></trkpt>
      <trkpt lat="34.971354" lon="139.101649"></trkpt>
      <trkpt lat="34.971635" lon="139.101112"></trkpt>
      <trkpt lat="34.971772" lon="139.100818"></trkpt>
      <trkpt lat="34.971814" lon="139.100732"></trkpt>
      <trkpt lat="34.972107" lon="139.100077"></trkpt>
      <trkpt lat="34.972247" lon="139.099775"></trkpt>
      <trkpt lat="34.972333" lon="139.099607"></trkpt>
      <trkpt lat="34.97265" lon="139.099017"></trkpt>
      <trkpt lat="34.972873" lon="139.098677"></trkpt>
      <trkpt lat="34.973078" lon="139.098377"></trkpt>
      <trkpt lat="34.973236" lon="139.098173"></trkpt>
      <trkpt lat="34.973571" lon="139.097766"></trkpt>
      <trkpt lat="34.973622" lon="139.097698"></trkpt>
      <trkpt lat="34.974285" lon="139.096928"></trkpt>
      <trkpt lat="34.974637" lon="139.096514"></trkpt>
      <trkpt lat="34.975057" lon="139.09607"></trkpt>
      <trkpt lat="34.975673" lon="139.095481"></trkpt>
      <trkpt lat="34.976303" lon="139.094915"></trkpt>
      <trkpt lat="34.977544" lon="139.094005"></trkpt>
      <trkpt lat="34.978298" lon="139.093456"></trkpt>
      <trkpt lat="34.978557" lon="139.093274"></trkpt>
      <trkpt lat="34.978715" lon="139.093187"></trkpt>
      <trkpt lat="34.978876" lon="139.093148"></trkpt>
      <trkpt lat="34.979005" lon="139.093133"></trkpt>
      <trkpt lat="34.979141" lon="139.093144"></trkpt>
      <trkpt lat="34.979313" lon="139.093186"></trkpt>
      <trkpt lat="34.979554" lon="139.093266"></trkpt>
      <trkpt lat="34.980862" lon="139.093755"></trkpt>
      <trkpt lat="34.981396" lon="139.093935"></trkpt>
      <trkpt lat="34.981772" lon="139.094058"></trkpt>
      <trkpt lat="34.98217" lon="139.094145"></trkpt>
      <trkpt lat="34.982567" lon="139.09418"></trkpt>
      <trkpt lat="34.982999" lon="139.094231"></trkpt>
      <trkpt lat="34.983427" lon="139.094259"></trkpt>
      <trkpt lat="34.983658" lon="139.094245"></trkpt>
      <trkpt lat="34.983829" lon="139.094208"></trkpt>
      <trkpt lat="34.984096" lon="139.094106"></trkpt>
      <trkpt lat="34.984313" lon="139.094004"></trkpt>
      <trkpt lat="34.984999" lon="139.093623"></trkpt>
      <trkpt lat="34.985216" lon="139.093514"></trkpt>
      <trkpt lat="34.985463" lon="139.093426"></trkpt>
      <trkpt lat="34.985687" lon="139.093366"></trkpt>
      <trkpt lat="34.985901" lon="139.09331"></trkpt>
      <trkpt lat="34.986578" lon="139.093249"></trkpt>
      <trkpt lat="34.986662" lon="139.093238"></trkpt>
      <trkpt lat="34.98737" lon="139.09313"></trkpt>
      <trkpt lat="34.987705" lon="139.093095"></trkpt>
      <trkpt lat="34.988046" lon="139.09303"></trkpt>
      <trkpt lat="34.988281" lon="139.092973"></trkpt>
      <trkpt lat="34.988595" lon="139.092879"></trkpt>
      <trkpt lat="34.989176" lon="139.092649"></trkpt>
      <trkpt lat="34.989615" lon="139.092452"></trkpt>
      <trkpt lat="34.989997" lon="139.092223"></trkpt>
      <trkpt lat="34.990149" lon="139.092122"></trkpt>
      <trkpt lat="34.99044" lon="139.091912"></trkpt>
      <trkpt lat="34.990671" lon="139.091708"></trkpt>
      <trkpt lat="34.99243" lon="139.090036"></trkpt>
      <trkpt lat="34.992598" lon="139.089862"></trkpt>
      <trkpt lat="34.992748" lon="139.089667"></trkpt>
      <trkpt lat="34.992859" lon="139.089503"></trkpt>
      <trkpt lat="34.99301" lon="139.089246"></trkpt>
      <trkpt lat="34.993122" lon="139.089001"></trkpt>
      <trkpt lat="34.993419" lon="139.088161"></trkpt>
      <trkpt lat="34.993516" lon="139.087917"></trkpt>
      <trkpt lat="34.993619" lon="139.087729"></trkpt>
      <trkpt lat="34.993737" lon="139.087537"></trkpt>
      <trkpt lat="34.993907" lon="139.087349"></trkpt>
      <trkpt lat="34.994124" lon="139.08714"></trkpt>
      <trkpt lat="34.994427" lon="139.086925"></trkpt>
      <trkpt lat="34.994674" lon="139.086763"></trkpt>
      <trkpt lat="34.995169" lon="139.086397"></trkpt>
      <trkpt lat="34.995369" lon="139.08624"></trkpt>
      <trkpt lat="34.99555" lon="139.08608"></trkpt>
      <trkpt lat="34.996265" lon="139.085376"></trkpt>
      <trkpt lat="34.996531" lon="139.085108"></trkpt>
      <trkpt lat="34.996883" lon="139.084828"></trkpt>
      <trkpt lat="34.997173" lon="139.084631"></trkpt>
      <trkpt lat="34.997425" lon="139.084486"></trkpt>
      <trkpt lat="34.997614" lon="139.084413"></trkpt>
      <trkpt lat="34.997785" lon="139.084396"></trkpt>
      <trkpt lat="34.998041" lon="139.084404"></trkpt>
      <trkpt lat="34.998477" lon="139.084449"></trkpt>
      <trkpt lat="34.99866" lon="139.084428"></trkpt>
      <trkpt lat="34.9988" lon="139.084397"></trkpt>
      <trkpt lat="34.998967" lon="139.084309"></trkpt>
      <trkpt lat="34.999153" lon="139.084166"></trkpt>
      <trkpt lat="34.999569" lon="139.083764"></trkpt>
      <trkpt lat="34.99972" lon="139.083591"></trkpt>
      <trkpt lat="34.999872" lon="139.083356"></trkpt>
      <trkpt lat="35.000022" lon="139.083134"></trkpt>
      <trkpt lat="35.000224" lon="139.082844"></trkpt>
      <trkpt lat="35.000296" lon="139.082777"></trkpt>
      <trkpt lat="35.000433" lon="139.0827"></trkpt>
      <trkpt lat="35.00057" lon="139.082647"></trkpt>
      <trkpt lat="35.000743" lon="139.082615"></trkpt>
      <trkpt lat="35.000887" lon="139.082621"></trkpt>
      <trkpt lat="35.001056" lon="139.08265"></trkpt>
      <trkpt lat="35.001241" lon="139.082703"></trkpt>
      <trkpt lat="35.002672" lon="139.083068"></trkpt>
      <trkpt lat="35.002831" lon="139.0831"></trkpt>
      <trkpt lat="35.003777" lon="139.083251"></trkpt>
      <trkpt lat="35.004074" lon="139.08333"></trkpt>
      <trkpt lat="35.005153" lon="139.083635"></trkpt>
      <trkpt lat="35.005341" lon="139.083704"></trkpt>
      <trkpt lat="35.005368" lon="139.083714"></trkpt>
      <trkpt lat="35.00538" lon="139.083643"></trkpt>
      <trkpt lat="35.005378" lon="139.083444"></trkpt>
      <trkpt lat="35.00536" lon="139.083302"></trkpt>
      <trkpt lat="35.00536" lon="139.08327"></trkpt>
      <trkpt lat="35.005357" lon="139.0831"></trkpt>
      <trkpt lat="35.005425" lon="139.082731"></trkpt>
      <trkpt lat="35.005514" lon="139.082378"></trkpt>
      <trkpt lat="35.005658" lon="139.081725"></trkpt>
      <trkpt lat="35.005689" lon="139.081554"></trkpt>
      <trkpt lat="35.00581" lon="139.080959"></trkpt>
      <trkpt lat="35.005888" lon="139.080595"></trkpt>
      <trkpt lat="35.005972" lon="139.080273"></trkpt>
      <trkpt lat="35.006012" lon="139.080162"></trkpt>
      <trkpt lat="35.006391" lon="139.080072"></trkpt>
      <trkpt lat="35.006504" lon="139.080049"></trkpt>
      <trkpt lat="35.007006" lon="139.079909"></trkpt>
      <trkpt lat="35.007246" lon="139.079881"></trkpt>
      <trkpt lat="35.007425" lon="139.079895"></trkpt>
      <trkpt lat="35.007541" lon="139.079921"></trkpt>
      <trkpt lat="35.007653" lon="139.079964"></trkpt>
      <trkpt lat="35.007826" lon="139.08004"></trkpt>
      <trkpt lat="35.007966" lon="139.080107"></trkpt>
      <trkpt lat="35.008254" lon="139.080245"></trkpt>
      <trkpt lat="35.008656" lon="139.08045"></trkpt>
      <trkpt lat="35.008966" lon="139.080608"></trkpt>
      <trkpt lat="35.009256" lon="139.080744"></trkpt>
      <trkpt lat="35.009451" lon="139.080848"></trkpt>
      <trkpt lat="35.009626" lon="139.081003"></trkpt>
      <trkpt lat="35.009841" lon="139.081195"></trkpt>
      <trkpt lat="35.010226" lon="139.081605"></trkpt>
      <trkpt lat="35.010276" lon="139.081671"></trkpt>
      <trkpt lat="35.010406" lon="139.081818"></trkpt>
      <trkpt lat="35.010503" lon="139.081919"></trkpt>
      <trkpt lat="35.010618" lon="139.082042"></trkpt>
      <trkpt lat="35.010261" lon="139.082519"></trkpt>
      <trkpt lat="35.009921" lon="139.082979"></trkpt>
      <trkpt lat="35.009734" lon="139.083214"></trkpt>
      <trkpt lat="35.009538" lon="139.083483"></trkpt>
      <trkpt lat="35.009412" lon="139.083644"></trkpt>
      <trkpt lat="35.00937" lon="139.083732"></trkpt>
      <trkpt lat="35.009351" lon="139.083827"></trkpt>
      <trkpt lat="35.009348" lon="139.083881"></trkpt>
      <trkpt lat="35.009348" lon="139.083948"></trkpt>
      <trkpt lat="35.009414" lon="139.083957"></trkpt>
      <trkpt lat="35.009491" lon="139.083978"></trkpt>
      <trkpt lat="35.009579" lon="139.084034"></trkpt>
      <trkpt lat="35.009685" lon="139.084153"></trkpt>
      <trkpt lat="35.009788" lon="139.084323"></trkpt>
      <trkpt lat="35.00986" lon="139.084441"></trkpt>
      <trkpt lat="35.009927" lon="139.084603"></trkpt>
      <trkpt lat="35.009939" lon="139.084696"></trkpt>
      <trkpt lat="35.009941" lon="139.084788"></trkpt>
      <trkpt lat="35.009923" lon="139.08488"></trkpt>
      <trkpt lat="35.009876" lon="139.084976"></trkpt>
      <trkpt lat="35.009788" lon="139.085073"></trkpt>
      <trkpt lat="35.009647" lon="139.085174"></trkpt>
      <trkpt lat="35.009452" lon="139.085317"></trkpt>
      <trkpt lat="35.009241" lon="139.085474"></trkpt>
      <trkpt lat="35.009165" lon="139.085546"></trkpt>
      <trkpt lat="35.009094" lon="139.085655"></trkpt>
      <trkpt lat="35.009052" lon="139.085845"></trkpt>
      <trkpt lat="35.00903" lon="139.086071"></trkpt>
      <trkpt lat="35.009023" lon="139.086261"></trkpt>
      <trkpt lat="35.009066" lon="139.086514"></trkpt>
      <trkpt lat="35.009159" lon="139.086747"></trkpt>
      <trkpt lat="35.009252" lon="139.086929"></trkpt>
      <trkpt lat="35.00928" lon="139.086974"></trkpt>
      <trkpt lat="35.009365" lon="139.087112"></trkpt>
      <trkpt lat="35.009401" lon="139.087157"></trkpt>
      <trkpt lat="35.009439" lon="139.087186"></trkpt>
      <trkpt lat="35.009532" lon="139.087229"></trkpt>
      <trkpt lat="35.009674" lon="139.087239"></trkpt>
      <trkpt lat="35.009686" lon="139.08724"></trkpt>
      <trkpt lat="35.009821" lon="139.087222"></trkpt>
      <trkpt lat="35.009901" lon="139.087197"></trkpt>
      <trkpt lat="35.010015" lon="139.087208"></trkpt>
      <trkpt lat="35.01014" lon="139.08724"></trkpt>
      <trkpt lat="35.010248" lon="139.087292"></trkpt>
      <trkpt lat="35.010488" lon="139.087407"></trkpt>
      <trkpt lat="35.010575" lon="139.08747"></trkpt>
      <trkpt lat="35.010632" lon="139.087601"></trkpt>
      <trkpt lat="35.010646" lon="139.087699"></trkpt>
      <trkpt lat="35.010613" lon="139.087813"></trkpt>
      <trkpt lat="35.010496" lon="139.088008"></trkpt>
      <trkpt lat="35.010464" lon="139.088082"></trkpt>
      <trkpt lat="35.010448" lon="139.08814"></trkpt>
      <trkpt lat="35.010445" lon="139.088201"></trkpt>
      <trkpt lat="35.010453" lon="139.088246"></trkpt>
      <trkpt lat="35.010499" lon="139.088312"></trkpt>
      <trkpt lat="35.010618" lon="139.088429"></trkpt>
      <trkpt lat="35.010747" lon="139.088541"></trkpt>
      <trkpt lat="35.010851" lon="139.08863"></trkpt>
      <trkpt lat="35.010897" lon="139.088658"></trkpt>
      <trkpt lat="35.010958" lon="139.088673"></trkpt>
      <trkpt lat="35.011006" lon="139.088662"></trkpt>
      <trkpt lat="35.011093" lon="139.088603"></trkpt>
      <trkpt lat="35.011188" lon="139.088544"></trkpt>
      <trkpt lat="35.011256" lon="139.088475"></trkpt>
      <trkpt lat="35.011291" lon="139.088396"></trkpt>
      <trkpt lat="35.011305" lon="139.088323"></trkpt>
      <trkpt lat="35.011323" lon="139.088072"></trkpt>
      <trkpt lat="35.011345" lon="139.087991"></trkpt>
      <trkpt lat="35.011382" lon="139.087928"></trkpt>
      <trkpt lat="35.011423" lon="139.087894"></trkpt>
      <trkpt lat="35.011465" lon="139.087878"></trkpt>
      <trkpt lat="35.011533" lon="139.087892"></trkpt>
      <trkpt lat="35.011609" lon="139.087925"></trkpt>
      <trkpt lat="35.011774" lon="139.088057"></trkpt>
      <trkpt lat="35.011877" lon="139.088142"></trkpt>
      <trkpt lat="35.011923" lon="139.088162"></trkpt>
      <trkpt lat="35.012016" lon="139.088188"></trkpt>
      <trkpt lat="35.012163" lon="139.088217"></trkpt>
      <trkpt lat="35.012252" lon="139.088237"></trkpt>
      <trkpt lat="35.012303" lon="139.088284"></trkpt>
      <trkpt lat="35.01233" lon="139.088332"></trkpt>
      <trkpt lat="35.012338" lon="139.088363"></trkpt>
      <trkpt lat="35.012353" lon="139.088419"></trkpt>
      <trkpt lat="35.012354" lon="139.088482"></trkpt>
      <trkpt lat="35.012338" lon="139.088556"></trkpt>
      <trkpt lat="35.012258" lon="139.088681"></trkpt>
      <trkpt lat="35.012099" lon="139.088864"></trkpt>
      <trkpt lat="35.012009" lon="139.089006"></trkpt>
      <trkpt lat="35.011934" lon="139.089138"></trkpt>
      <trkpt lat="35.011621" lon="139.089861"></trkpt>
      <trkpt lat="35.011591" lon="139.090021"></trkpt>
      <trkpt lat="35.011601" lon="139.09014"></trkpt>
      <trkpt lat="35.011641" lon="139.090251"></trkpt>
      <trkpt lat="35.011697" lon="139.090312"></trkpt>
      <trkpt lat="35.011785" lon="139.090358"></trkpt>
      <trkpt lat="35.011977" lon="139.090379"></trkpt>
      <trkpt lat="35.012352" lon="139.090398"></trkpt>
      <trkpt lat="35.012646" lon="139.09045"></trkpt>
      <trkpt lat="35.012859" lon="139.090542"></trkpt>
      <trkpt lat="35.01299" lon="139.090668"></trkpt>
      <trkpt lat="35.013045" lon="139.090745"></trkpt>
      <trkpt lat="35.013292" lon="139.091199"></trkpt>
      <trkpt lat="35.013529" lon="139.091694"></trkpt>
      <trkpt lat="35.01372" lon="139.092115"></trkpt>
      <trkpt lat="35.014061" lon="139.092856"></trkpt>
      <trkpt lat="35.014698" lon="139.094147"></trkpt>
      <trkpt lat="35.015339" lon="139.09491"></trkpt>
      <trkpt lat="35.015884" lon="139.095362"></trkpt>
      <trkpt lat="35.016475" lon="139.095662"></trkpt>
      <trkpt lat="35.017253" lon="139.095886"></trkpt>
      <trkpt lat="35.017672" lon="139.095911"></trkpt>
      <trkpt lat="35.018291" lon="139.095852"></trkpt>
      <trkpt lat="35.018665" lon="139.095748"></trkpt>
      <trkpt lat="35.019041" lon="139.095608"></trkpt>
      <trkpt lat="35.019646" lon="139.095394"></trkpt>
      <trkpt lat="35.020248" lon="139.095284"></trkpt>
      <trkpt lat="35.020637" lon="139.095276"></trkpt>
      <trkpt lat="35.021155" lon="139.09533"></trkpt>
      <trkpt lat="35.0217" lon="139.095473"></trkpt>
      <trkpt lat="35.022077" lon="139.095645"></trkpt>
      <trkpt lat="35.022398" lon="139.09585"></trkpt>
      <trkpt lat="35.022637" lon="139.096021"></trkpt>
      <trkpt lat="35.023751" lon="139.096877"></trkpt>
      <trkpt lat="35.024095" lon="139.097101"></trkpt>
      <trkpt lat="35.024672" lon="139.097557"></trkpt>
      <trkpt lat="35.025405" lon="139.098162"></trkpt>
      <trkpt lat="35.025666" lon="139.098342"></trkpt>
      <trkpt lat="35.025744" lon="139.098368"></trkpt>
      <trkpt lat="35.025916" lon="139.098409"></trkpt>
      <trkpt lat="35.02609" lon="139.09842"></trkpt>
      <trkpt lat="35.026234" lon="139.09839"></trkpt>
      <trkpt lat="35.026338" lon="139.098344"></trkpt>
      <trkpt lat="35.02641" lon="139.098236"></trkpt>
      <trkpt lat="35.026442" lon="139.09816"></trkpt>
      <trkpt lat="35.026461" lon="139.098027"></trkpt>
      <trkpt lat="35.026419" lon="139.097835"></trkpt>
      <trkpt lat="35.02633" lon="139.097558"></trkpt>
      <trkpt lat="35.026301" lon="139.09734"></trkpt>
      <trkpt lat="35.026304" lon="139.097151"></trkpt>
      <trkpt lat="35.026347" lon="139.096915"></trkpt>
      <trkpt lat="35.026454" lon="139.09666"></trkpt>
      <trkpt lat="35.026706" lon="139.09608"></trkpt>
      <trkpt lat="35.026835" lon="139.095832"></trkpt>
      <trkpt lat="35.026929" lon="139.09572"></trkpt>
      <trkpt lat="35.026996" lon="139.095678"></trkpt>
      <trkpt lat="35.027049" lon="139.095658"></trkpt>
      <trkpt lat="35.027149" lon="139.095652"></trkpt>
      <trkpt lat="35.027218" lon="139.095665"></trkpt>
      <trkpt lat="35.027293" lon="139.095696"></trkpt>
      <trkpt lat="35.02739" lon="139.095814"></trkpt>
      <trkpt lat="35.027435" lon="139.09593"></trkpt>
      <trkpt lat="35.027461" lon="139.096132"></trkpt>
      <trkpt lat="35.02747" lon="139.096483"></trkpt>
      <trkpt lat="35.02747" lon="139.096672"></trkpt>
      <trkpt lat="35.027499" lon="139.09681"></trkpt>
      <trkpt lat="35.027551" lon="139.096928"></trkpt>
      <trkpt lat="35.027638" lon="139.096995"></trkpt>
      <trkpt lat="35.027722" lon="139.097029"></trkpt>
      <trkpt lat="35.028449" lon="139.097285"></trkpt>
      <trkpt lat="35.028592" lon="139.097332"></trkpt>
      <trkpt lat="35.028748" lon="139.097339"></trkpt>
      <trkpt lat="35.029013" lon="139.097287"></trkpt>
      <trkpt lat="35.029559" lon="139.097194"></trkpt>
      <trkpt lat="35.029811" lon="139.097132"></trkpt>
      <trkpt lat="35.029919" lon="139.097055"></trkpt>
      <trkpt lat="35.02999" lon="139.096957"></trkpt>
      <trkpt lat="35.030083" lon="139.096749"></trkpt>
      <trkpt lat="35.030217" lon="139.09648"></trkpt>
      <trkpt lat="35.030356" lon="139.096256"></trkpt>
      <trkpt lat="35.03049" lon="139.096097"></trkpt>
      <trkpt lat="35.030591" lon="139.095975"></trkpt>
      <trkpt lat="35.030729" lon="139.095852"></trkpt>
      <trkpt lat="35.030902" lon="139.095767"></trkpt>
      <trkpt lat="35.031013" lon="139.095753"></trkpt>
      <trkpt lat="35.031149" lon="139.095823"></trkpt>
      <trkpt lat="35.03123" lon="139.095927"></trkpt>
      <trkpt lat="35.031254" lon="139.096044"></trkpt>
      <trkpt lat="35.031222" lon="139.096209"></trkpt>
      <trkpt lat="35.031137" lon="139.096513"></trkpt>
      <trkpt lat="35.031121" lon="139.096741"></trkpt>
      <trkpt lat="35.031118" lon="139.09696"></trkpt>
      <trkpt lat="35.031144" lon="139.0972"></trkpt>
      <trkpt lat="35.031192" lon="139.097307"></trkpt>
      <trkpt lat="35.031244" lon="139.097382"></trkpt>
      <trkpt lat="35.031382" lon="139.097514"></trkpt>
      <trkpt lat="35.03149" lon="139.097596"></trkpt>
      <trkpt lat="35.031664" lon="139.097663"></trkpt>
      <trkpt lat="35.0318" lon="139.097669"></trkpt>
      <trkpt lat="35.031968" lon="139.097664"></trkpt>
      <trkpt lat="35.032082" lon="139.097638"></trkpt>
      <trkpt lat="35.032313" lon="139.097481"></trkpt>
      <trkpt lat="35.032502" lon="139.097325"></trkpt>
      <trkpt lat="35.032665" lon="139.097182"></trkpt>
      <trkpt lat="35.032741" lon="139.097086"></trkpt>
      <trkpt lat="35.032862" lon="139.096882"></trkpt>
      <trkpt lat="35.033018" lon="139.096619"></trkpt>
      <trkpt lat="35.033093" lon="139.096538"></trkpt>
      <trkpt lat="35.033223" lon="139.096466"></trkpt>
      <trkpt lat="35.033399" lon="139.096368"></trkpt>
      <trkpt lat="35.033635" lon="139.096256"></trkpt>
      <trkpt lat="35.03378" lon="139.096236"></trkpt>
      <trkpt lat="35.033868" lon="139.09625"></trkpt>
      <trkpt lat="35.033943" lon="139.096283"></trkpt>
      <trkpt lat="35.034041" lon="139.096365"></trkpt>
      <trkpt lat="35.034366" lon="139.096782"></trkpt>
      <trkpt lat="35.034637" lon="139.097127"></trkpt>
      <trkpt lat="35.034735" lon="139.097209"></trkpt>
      <trkpt lat="35.035372" lon="139.097616"></trkpt>
      <trkpt lat="35.03584" lon="139.097895"></trkpt>
      <trkpt lat="35.036017" lon="139.098059"></trkpt>
      <trkpt lat="35.036114" lon="139.098164"></trkpt>
      <trkpt lat="35.036235" lon="139.098269"></trkpt>
      <trkpt lat="35.036313" lon="139.098318"></trkpt>
      <trkpt lat="35.03642" lon="139.098373"></trkpt>
      <trkpt lat="35.036468" lon="139.098385"></trkpt>
      <trkpt lat="35.036714" lon="139.098448"></trkpt>
      <trkpt lat="35.037278" lon="139.098563"></trkpt>
      <trkpt lat="35.037429" lon="139.098584"></trkpt>
      <trkpt lat="35.037619" lon="139.098579"></trkpt>
      <trkpt lat="35.037758" lon="139.098562"></trkpt>
      <trkpt lat="35.037859" lon="139.098545"></trkpt>
      <trkpt lat="35.037932" lon="139.098523"></trkpt>
      <trkpt lat="35.038032" lon="139.098483"></trkpt>
      <trkpt lat="35.038293" lon="139.098363"></trkpt>
      <trkpt lat="35.039151" lon="139.097965"></trkpt>
      <trkpt lat="35.039202" lon="139.097948"></trkpt>
      <trkpt lat="35.039245" lon="139.097943"></trkpt>
      <trkpt lat="35.039316" lon="139.097949"></trkpt>
      <trkpt lat="35.039409" lon="139.098004"></trkpt>
      <trkpt lat="35.039464" lon="139.098057"></trkpt>
      <trkpt lat="35.0395" lon="139.098111"></trkpt>
      <trkpt lat="35.039557" lon="139.098271"></trkpt>
      <trkpt lat="35.039601" lon="139.098423"></trkpt>
      <trkpt lat="35.039653" lon="139.098514"></trkpt>
      <trkpt lat="35.039691" lon="139.098574"></trkpt>
      <trkpt lat="35.039747" lon="139.098631"></trkpt>
      <trkpt lat="35.039865" lon="139.098688"></trkpt>
      <trkpt lat="35.040524" lon="139.098892"></trkpt>
      <trkpt lat="35.040873" lon="139.099002"></trkpt>
      <trkpt lat="35.041091" lon="139.099057"></trkpt>
      <trkpt lat="35.041239" lon="139.099058"></trkpt>
      <trkpt lat="35.04137" lon="139.099035"></trkpt>
      <trkpt lat="35.041468" lon="139.099024"></trkpt>
      <trkpt lat="35.041559" lon="139.099025"></trkpt>
      <trkpt lat="35.041648" lon="139.099053"></trkpt>
      <trkpt lat="35.041709" lon="139.099084"></trkpt>
      <trkpt lat="35.042317" lon="139.099288"></trkpt>
      <trkpt lat="35.042754" lon="139.099446"></trkpt>
      <trkpt lat="35.042882" lon="139.099483"></trkpt>
      <trkpt lat="35.043012" lon="139.099511"></trkpt>
      <trkpt lat="35.043221" lon="139.099529"></trkpt>
      <trkpt lat="35.043362" lon="139.09953"></trkpt>
      <trkpt lat="35.043495" lon="139.099521"></trkpt>
      <trkpt lat="35.043647" lon="139.0995"></trkpt>
      <trkpt lat="35.045406" lon="139.0989"></trkpt>
      <trkpt lat="35.045997" lon="139.098631"></trkpt>
      <trkpt lat="35.046098" lon="139.098575"></trkpt>
      <trkpt lat="35.046267" lon="139.098466"></trkpt>
      <trkpt lat="35.046386" lon="139.098366"></trkpt>
      <trkpt lat="35.046546" lon="139.098211"></trkpt>
      <trkpt lat="35.046707" lon="139.098056"></trkpt>
      <trkpt lat="35.047538" lon="139.097155"></trkpt>
      <trkpt lat="35.04763" lon="139.097037"></trkpt>
      <trkpt lat="35.047686" lon="139.09694"></trkpt>
      <trkpt lat="35.047728" lon="139.09685"></trkpt>
      <trkpt lat="35.047748" lon="139.096748"></trkpt>
      <trkpt lat="35.047759" lon="139.096645"></trkpt>
      <trkpt lat="35.047757" lon="139.096534"></trkpt>
      <trkpt lat="35.047733" lon="139.096398"></trkpt>
      <trkpt lat="35.047697" lon="139.096188"></trkpt>
      <trkpt lat="35.046296" lon="139.090685"></trkpt>
      <trkpt lat="35.046208" lon="139.090294"></trkpt>
      <trkpt lat="35.04619" lon="139.090213"></trkpt>
      <trkpt lat="35.046116" lon="139.089938"></trkpt>
      <trkpt lat="35.046024" lon="139.089594"></trkpt>
      <trkpt lat="35.045931" lon="139.089338"></trkpt>
      <trkpt lat="35.045466" lon="139.088463"></trkpt>
      <trkpt lat="35.04522" lon="139.087814"></trkpt>
      <trkpt lat="35.045025" lon="139.087413"></trkpt>
      <trkpt lat="35.044686" lon="139.086719"></trkpt>
      <trkpt lat="35.044578" lon="139.086473"></trkpt>
      <trkpt lat="35.044552" lon="139.086346"></trkpt>
      <trkpt lat="35.044464" lon="139.086198"></trkpt>
      <trkpt lat="35.044422" lon="139.086102"></trkpt>
      <trkpt lat="35.044347" lon="139.085931"></trkpt>
      <trkpt lat="35.044257" lon="139.085645"></trkpt>
      <trkpt lat="35.044163" lon="139.08517"></trkpt>
      <trkpt lat="35.044156" lon="139.085041"></trkpt>
      <trkpt lat="35.044159" lon="139.084924"></trkpt>
      <trkpt lat="35.0441" lon="139.084956"></trkpt>
      <trkpt lat="35.044031" lon="139.085029"></trkpt>
      <trkpt lat="35.044002" lon="139.085066"></trkpt>
      <trkpt lat="35.043974" lon="139.085081"></trkpt>
      <trkpt lat="35.043634" lon="139.085126"></trkpt>
      <trkpt lat="35.04332" lon="139.0852"></trkpt>
      <trkpt lat="35.043242" lon="139.085234"></trkpt>
      <trkpt lat="35.043178" lon="139.085265"></trkpt>
      <trkpt lat="35.043108" lon="139.08529"></trkpt>
      <trkpt lat="35.043068" lon="139.085319"></trkpt>
      <trkpt lat="35.042976" lon="139.085446"></trkpt>
      <trkpt lat="35.04287" lon="139.085608"></trkpt>
      <trkpt lat="35.042816" lon="139.085677"></trkpt>
      <trkpt lat="35.042757" lon="139.085737"></trkpt>
      <trkpt lat="35.042621" lon="139.085856"></trkpt>
      <trkpt lat="35.042574" lon="139.085885"></trkpt>
      <trkpt lat="35.042403" lon="139.085967"></trkpt>
      <trkpt lat="35.042344" lon="139.086006"></trkpt>
      <trkpt lat="35.042309" lon="139.08605"></trkpt>
      <trkpt lat="35.042283" lon="139.086127"></trkpt>
      <trkpt lat="35.042296" lon="139.08617"></trkpt>
      <trkpt lat="35.042319" lon="139.086196"></trkpt>
      <trkpt lat="35.042375" lon="139.086213"></trkpt>
      <trkpt lat="35.042432" lon="139.086209"></trkpt>
      <trkpt lat="35.042465" lon="139.086222"></trkpt>
      <trkpt lat="35.042489" lon="139.086243"></trkpt>
      <trkpt lat="35.042491" lon="139.086276"></trkpt>
      <trkpt lat="35.042474" lon="139.086328"></trkpt>
      <trkpt lat="35.042402" lon="139.086514"></trkpt>
      <trkpt lat="35.042355" lon="139.086674"></trkpt>
      <trkpt lat="35.042342" lon="139.086754"></trkpt>
      <trkpt lat="35.042332" lon="139.086879"></trkpt>
      <trkpt lat="35.04228" lon="139.087106"></trkpt>
      <trkpt lat="35.04224" lon="139.087225"></trkpt>
      <trkpt lat="35.042185" lon="139.087382"></trkpt>
      <trkpt lat="35.042153" lon="139.087443"></trkpt>
      <trkpt lat="35.042138" lon="139.087464"></trkpt>
      <trkpt lat="35.042099" lon="139.087517"></trkpt>
      <trkpt lat="35.041962" lon="139.087655"></trkpt>
      <trkpt lat="35.041839" lon="139.087808"></trkpt>
      <trkpt lat="35.041816" lon="139.087837"></trkpt>
      <trkpt lat="35.041631" lon="139.088065"></trkpt>
      <trkpt lat="35.041561" lon="139.088154"></trkpt>
      <trkpt lat="35.041542" lon="139.088191"></trkpt>
      <trkpt lat="35.041545" lon="139.08822"></trkpt>
      <trkpt lat="35.041578" lon="139.088231"></trkpt>
      <trkpt lat="35.041655" lon="139.088235"></trkpt>
      <trkpt lat="35.0417" lon="139.088255"></trkpt>
      <trkpt lat="35.041724" lon="139.088278"></trkpt>
      <trkpt lat="35.041734" lon="139.088321"></trkpt>
      <trkpt lat="35.04173" lon="139.088362"></trkpt>
      <trkpt lat="35.041689" lon="139.088448"></trkpt>
      <trkpt lat="35.041632" lon="139.088533"></trkpt>
      <trkpt lat="35.041578" lon="139.088612"></trkpt>
      <trkpt lat="35.041531" lon="139.088691"></trkpt>
      <trkpt lat="35.04145" lon="139.088814"></trkpt>
      <trkpt lat="35.041322" lon="139.08898"></trkpt>
      <trkpt lat="35.041237" lon="139.089072"></trkpt>
      <trkpt lat="35.041168" lon="139.089119"></trkpt>
      <trkpt lat="35.041067" lon="139.08917"></trkpt>
      <trkpt lat="35.04102" lon="139.089203"></trkpt>
      <trkpt lat="35.04099" lon="139.08925"></trkpt>
      <trkpt lat="35.040944" lon="139.089355"></trkpt>
      <trkpt lat="35.040881" lon="139.089455"></trkpt>
      <trkpt lat="35.040841" lon="139.089474"></trkpt>
      <trkpt lat="35.040792" lon="139.089483"></trkpt>
      <trkpt lat="35.040753" lon="139.089485"></trkpt>
      <trkpt lat="35.04071" lon="139.089479"></trkpt>
      <trkpt lat="35.040707" lon="139.089479"></trkpt>
      <trkpt lat="35.040702" lon="139.08949"></trkpt>
      <trkpt lat="35.040701" lon="139.089509"></trkpt>
      <trkpt lat="35.040707" lon="139.089538"></trkpt>
      <trkpt lat="35.040749" lon="139.089583"></trkpt>
      <trkpt lat="35.040793" lon="139.089607"></trkpt>
      <trkpt lat="35.040867" lon="139.089615"></trkpt>
      <trkpt lat="35.04099" lon="139.089603"></trkpt>
      <trkpt lat="35.041078" lon="139.08956"></trkpt>
      <trkpt lat="35.041152" lon="139.089513"></trkpt>
      <trkpt lat="35.041196" lon="139.089499"></trkpt>
      <trkpt lat="35.04125" lon="139.089501"></trkpt>
      <trkpt lat="35.041299" lon="139.089518"></trkpt>
      <trkpt lat="35.041314" lon="139.089553"></trkpt>
      <trkpt lat="35.041309" lon="139.089592"></trkpt>
      <trkpt lat="35.041295" lon="139.089614"></trkpt>
      <trkpt lat="35.041257" lon="139.089667"></trkpt>
      <trkpt lat="35.04122" lon="139.089715"></trkpt>
      <trkpt lat="35.041201" lon="139.089751"></trkpt>
      <trkpt lat="35.041202" lon="139.089848"></trkpt>
      <trkpt lat="35.041198" lon="139.089881"></trkpt>
      <trkpt lat="35.041174" lon="139.089921"></trkpt>
      <trkpt lat="35.041091" lon="139.090002"></trkpt>
      <trkpt lat="35.041017" lon="139.09007"></trkpt>
      <trkpt lat="35.040994" lon="139.090103"></trkpt>
      <trkpt lat="35.040998" lon="139.090133"></trkpt>
      <trkpt lat="35.041018" lon="139.090142"></trkpt>
      <trkpt lat="35.041118" lon="139.090145"></trkpt>
      <trkpt lat="35.041231" lon="139.090134"></trkpt>
      <trkpt lat="35.041338" lon="139.090113"></trkpt>
      <trkpt lat="35.041427" lon="139.090101"></trkpt>
      <trkpt lat="35.041475" lon="139.090119"></trkpt>
      <trkpt lat="35.041512" lon="139.090159"></trkpt>
      <trkpt lat="35.041541" lon="139.090216"></trkpt>
      <trkpt lat="35.041572" lon="139.090309"></trkpt>
      <trkpt lat="35.041541" lon="139.090216"></trkpt>
      <trkpt lat="35.041512" lon="139.090159"></trkpt>
      <trkpt lat="35.041475" lon="139.090119"></trkpt>
      <trkpt lat="35.041427" lon="139.090101"></trkpt>
      <trkpt lat="35.041338" lon="139.090113"></trkpt>
      <trkpt lat="35.041231" lon="139.090134"></trkpt>
      <trkpt lat="35.041118" lon="139.090145"></trkpt>
      <trkpt lat="35.041018" lon="139.090142"></trkpt>
      <trkpt lat="35.040998" lon="139.090133"></trkpt>
      <trkpt lat="35.040994" lon="139.090103"></trkpt>
      <trkpt lat="35.041017" lon="139.09007"></trkpt>
      <trkpt lat="35.041091" lon="139.090002"></trkpt>
      <trkpt lat="35.041174" lon="139.089921"></trkpt>
      <trkpt lat="35.041198" lon="139.089881"></trkpt>
      <trkpt lat="35.041202" lon="139.089848"></trkpt>
      <trkpt lat="35.041201" lon="139.089751"></trkpt>
      <trkpt lat="35.04122" lon="139.089715"></trkpt>
      <trkpt lat="35.041257" lon="139.089667"></trkpt>
      <trkpt lat="35.041295" lon="139.089614"></trkpt>
      <trkpt lat="35.041309" lon="139.089592"></trkpt>
      <trkpt lat="35.041314" lon="139.089553"></trkpt>
      <trkpt lat="35.041299" lon="139.089518"></trkpt>
      <trkpt lat="35.04125" lon="139.089501"></trkpt>
      <trkpt lat="35.041196" lon="139.089499"></trkpt>
      <trkpt lat="35.041152" lon="139.089513"></trkpt>
      <trkpt lat="35.041078" lon="139.08956"></trkpt>
      <trkpt lat="35.04099" lon="139.089603"></trkpt>
      <trkpt lat="35.040867" lon="139.089615"></trkpt>
      <trkpt lat="35.040793" lon="139.089607"></trkpt>
      <trkpt lat="35.040749" lon="139.089583"></trkpt>
      <trkpt lat="35.040707" lon="139.089538"></trkpt>
      <trkpt lat="35.040701" lon="139.089509"></trkpt>
      <trkpt lat="35.040702" lon="139.08949"></trkpt>
      <trkpt lat="35.040707" lon="139.089479"></trkpt>
      <trkpt lat="35.04071" lon="139.089479"></trkpt>
      <trkpt lat="35.040753" lon="139.089485"></trkpt>
      <trkpt lat="35.040792" lon="139.089483"></trkpt>
      <trkpt lat="35.040841" lon="139.089474"></trkpt>
      <trkpt lat="35.040881" lon="139.089455"></trkpt>
      <trkpt lat="35.040944" lon="139.089355"></trkpt>
      <trkpt lat="35.04099" lon="139.08925"></trkpt>
      <trkpt lat="35.04102" lon="139.089203"></trkpt>
      <trkpt lat="35.041067" lon="139.08917"></trkpt>
      <trkpt lat="35.041168" lon="139.089119"></trkpt>
      <trkpt lat="35.041237" lon="139.089072"></trkpt>
      <trkpt lat="35.041322" lon="139.08898"></trkpt>
      <trkpt lat="35.04145" lon="139.088814"></trkpt>
      <trkpt lat="35.041531" lon="139.088691"></trkpt>
      <trkpt lat="35.041578" lon="139.088612"></trkpt>
      <trkpt lat="35.041632" lon="139.088533"></trkpt>
      <trkpt lat="35.041689" lon="139.088448"></trkpt>
      <trkpt lat="35.04173" lon="139.088362"></trkpt>
      <trkpt lat="35.041734" lon="139.088321"></trkpt>
      <trkpt lat="35.041724" lon="139.088278"></trkpt>
      <trkpt lat="35.0417" lon="139.088255"></trkpt>
      <trkpt lat="35.041655" lon="139.088235"></trkpt>
      <trkpt lat="35.041578" lon="139.088231"></trkpt>
      <trkpt lat="35.041545" lon="139.08822"></trkpt>
      <trkpt lat="35.041542" lon="139.088191"></trkpt>
      <trkpt lat="35.041561" lon="139.088154"></trkpt>
      <trkpt lat="35.041631" lon="139.088065"></trkpt>
      <trkpt lat="35.041816" lon="139.087837"></trkpt>
      <trkpt lat="35.041962" lon="139.087655"></trkpt>
      <trkpt lat="35.042099" lon="139.087517"></trkpt>
      <trkpt lat="35.042138" lon="139.087464"></trkpt>
      <trkpt lat="35.042153" lon="139.087443"></trkpt>
      <trkpt lat="35.042185" lon="139.087382"></trkpt>
      <trkpt lat="35.04224" lon="139.087225"></trkpt>
      <trkpt lat="35.04228" lon="139.087106"></trkpt>
      <trkpt lat="35.042332" lon="139.086879"></trkpt>
      <trkpt lat="35.042342" lon="139.086754"></trkpt>
      <trkpt lat="35.042355" lon="139.086674"></trkpt>
      <trkpt lat="35.042402" lon="139.086514"></trkpt>
      <trkpt lat="35.042474" lon="139.086328"></trkpt>
      <trkpt lat="35.042491" lon="139.086276"></trkpt>
      <trkpt lat="35.042489" lon="139.086243"></trkpt>
      <trkpt lat="35.042465" lon="139.086222"></trkpt>
      <trkpt lat="35.042432" lon="139.086209"></trkpt>
      <trkpt lat="35.042375" lon="139.086213"></trkpt>
      <trkpt lat="35.042319" lon="139.086196"></trkpt>
      <trkpt lat="35.042296" lon="139.08617"></trkpt>
      <trkpt lat="35.042283" lon="139.086127"></trkpt>
      <trkpt lat="35.042309" lon="139.08605"></trkpt>
      <trkpt lat="35.042344" lon="139.086006"></trkpt>
      <trkpt lat="35.042403" lon="139.085967"></trkpt>
      <trkpt lat="35.042574" lon="139.085885"></trkpt>
      <trkpt lat="35.042621" lon="139.085856"></trkpt>
      <trkpt lat="35.042757" lon="139.085737"></trkpt>
      <trkpt lat="35.042816" lon="139.085677"></trkpt>
      <trkpt lat="35.04287" lon="139.085608"></trkpt>
      <trkpt lat="35.042976" lon="139.085446"></trkpt>
      <trkpt lat="35.043068" lon="139.085319"></trkpt>
      <trkpt lat="35.043108" lon="139.08529"></trkpt>
      <trkpt lat="35.043178" lon="139.085265"></trkpt>
      <trkpt lat="35.043242" lon="139.085234"></trkpt>
      <trkpt lat="35.04332" lon="139.0852"></trkpt>
      <trkpt lat="35.043634" lon="139.085126"></trkpt>
      <trkpt lat="35.043974" lon="139.085081"></trkpt>
      <trkpt lat="35.044002" lon="139.085066"></trkpt>
      <trkpt lat="35.044031" lon="139.085029"></trkpt>
      <trkpt lat="35.0441" lon="139.084956"></trkpt>
      <trkpt lat="35.044159" lon="139.084924"></trkpt>
      <trkpt lat="35.044211" lon="139.084683"></trkpt>
      <trkpt lat="35.044212" lon="139.08465"></trkpt>
      <trkpt lat="35.044287" lon="139.084167"></trkpt>
      <trkpt lat="35.044303" lon="139.083971"></trkpt>
      <trkpt lat="35.044297" lon="139.083706"></trkpt>
      <trkpt lat="35.044287" lon="139.083298"></trkpt>
      <trkpt lat="35.044306" lon="139.083206"></trkpt>
      <trkpt lat="35.044592" lon="139.082608"></trkpt>
      <trkpt lat="35.044709" lon="139.082372"></trkpt>
      <trkpt lat="35.044756" lon="139.082277"></trkpt>
      <trkpt lat="35.044893" lon="139.081986"></trkpt>
    </trkseg>
  </trk>
</gpx>