<?xml version="1.0" encoding="UTF-8"?>
<gpx version="1.1" creator="rebuild_routes_brouter.py" xmlns="http://www.topografix.com/GPX/1/1">
<metadata><name>Day 15 rebuilt (trekking)</name></metadata>
<trk><name>Day 15 rebuilt (trekking)</name><trkseg>
<trkpt lat="35.630010" lon="139.774988"><ele>6.5</ele></trkpt>
<trkpt lat="35.629994" lon="139.774963"><ele>6.8</ele></trkpt>
<trkpt lat="35.629860" lon="139.774809"><ele>8.0</ele></trkpt>
<trkpt lat="35.629660" lon="139.774597"><ele>9.5</ele></trkpt>
<trkpt lat="35.629491" lon="139.774391"><ele>11.0</ele></trkpt>
<trkpt lat="35.629384" lon="139.774187"><ele>11.5</ele></trkpt>
<trkpt lat="35.629596" lon="139.775093"><ele>11.5</ele></trkpt>
<trkpt lat="35.629660" lon="139.775364"><ele>12.0</ele></trkpt>
<trkpt lat="35.629885" lon="139.775588"><ele>12.0</ele></trkpt>
<trkpt lat="35.630003" lon="139.775708"><ele>12.2</ele></trkpt>
<trkpt lat="35.630057" lon="139.775801"><ele>12.2</ele></trkpt>
<trkpt lat="35.630038" lon="139.775818"><ele>12.2</ele></trkpt>
<trkpt lat="35.629810" lon="139.776011"><ele>12.5</ele></trkpt>
<trkpt lat="35.630035" lon="139.776416"><ele>12.5</ele></trkpt>
<trkpt lat="35.629974" lon="139.776461"><ele>13.5</ele></trkpt>
<trkpt lat="35.630037" lon="139.776585"><ele>13.5</ele></trkpt>
<trkpt lat="35.630093" lon="139.776684"><ele>13.0</ele></trkpt>
<trkpt lat="35.631109" lon="139.778567"><ele>12.5</ele></trkpt>
<trkpt lat="35.631177" lon="139.778693"><ele>11.8</ele></trkpt>
<trkpt lat="35.631058" lon="139.778767"><ele>11.8</ele></trkpt>
<trkpt lat="35.630707" lon="139.778956"><ele>11.0</ele></trkpt>
<trkpt lat="35.630362" lon="139.779189"><ele>8.8</ele></trkpt>
<trkpt lat="35.630245" lon="139.779286"><ele>8.2</ele></trkpt>
<trkpt lat="35.630332" lon="139.779434"><ele>8.8</ele></trkpt>
<trkpt lat="35.630665" lon="139.779966"><ele>9.8</ele></trkpt>
<trkpt lat="35.630821" lon="139.780191"><ele>9.8</ele></trkpt>
<trkpt lat="35.630988" lon="139.780407"><ele>9.8</ele></trkpt>
<trkpt lat="35.631168" lon="139.780617"><ele>9.8</ele></trkpt>
<trkpt lat="35.631240" lon="139.780687"><ele>9.8</ele></trkpt>
<trkpt lat="35.631292" lon="139.780737"><ele>9.8</ele></trkpt>
<trkpt lat="35.631384" lon="139.780815"><ele>9.8</ele></trkpt>
<trkpt lat="35.631606" lon="139.780992"><ele>9.8</ele></trkpt>
<trkpt lat="35.632087" lon="139.781345"><ele>9.8</ele></trkpt>
<trkpt lat="35.632452" lon="139.781614"><ele>9.8</ele></trkpt>
<trkpt lat="35.632701" lon="139.781825"><ele>9.8</ele></trkpt>
<trkpt lat="35.633240" lon="139.782385"><ele>9.8</ele></trkpt>
<trkpt lat="35.634158" lon="139.783499"><ele>9.8</ele></trkpt>
<trkpt lat="35.634601" lon="139.784082"><ele>9.8</ele></trkpt>
<trkpt lat="35.634673" lon="139.784186"><ele>8.2</ele></trkpt>
<trkpt lat="35.634747" lon="139.784300"><ele>6.5</ele></trkpt>
<trkpt lat="35.634813" lon="139.784159"><ele>6.0</ele></trkpt>
<trkpt lat="35.634789" lon="139.784128"><ele>6.5</ele></trkpt>
<trkpt lat="35.634815" lon="139.784040"><ele>6.2</ele></trkpt>
<trkpt lat="35.634945" lon="139.783654"><ele>5.5</ele></trkpt>
<trkpt lat="35.635065" lon="139.783236"><ele>6.5</ele></trkpt>
<trkpt lat="35.635185" lon="139.782888"><ele>8.5</ele></trkpt>
<trkpt lat="35.635259" lon="139.782717"><ele>9.5</ele></trkpt>
<trkpt lat="35.635348" lon="139.782553"><ele>10.0</ele></trkpt>
<trkpt lat="35.635385" lon="139.782500"><ele>10.0</ele></trkpt>
<trkpt lat="35.635467" lon="139.782381"><ele>9.0</ele></trkpt>
<trkpt lat="35.635568" lon="139.782253"><ele>7.8</ele></trkpt>
<trkpt lat="35.635692" lon="139.782117"><ele>6.2</ele></trkpt>
<trkpt lat="35.635808" lon="139.782011"><ele>5.0</ele></trkpt>
<trkpt lat="35.636046" lon="139.781811"><ele>4.5</ele></trkpt>
<trkpt lat="35.636218" lon="139.781680"><ele>4.8</ele></trkpt>
<trkpt lat="35.636541" lon="139.781413"><ele>5.8</ele></trkpt>
<trkpt lat="35.636824" lon="139.781181"><ele>7.0</ele></trkpt>
<trkpt lat="35.637071" lon="139.780979"><ele>6.8</ele></trkpt>
<trkpt lat="35.637272" lon="139.780815"><ele>6.2</ele></trkpt>
<trkpt lat="35.637396" lon="139.780729"><ele>5.8</ele></trkpt>
<trkpt lat="35.637619" lon="139.780595"><ele>3.8</ele></trkpt>
<trkpt lat="35.637875" lon="139.780467"><ele>0.0</ele></trkpt>
<trkpt lat="35.637955" lon="139.780411"><ele>0.0</ele></trkpt>
<trkpt lat="35.638255" lon="139.780299"><ele>0.0</ele></trkpt>
<trkpt lat="35.639711" lon="139.779875"><ele>-0.5</ele></trkpt>
<trkpt lat="35.640102" lon="139.779791"><ele>-0.5</ele></trkpt>
<trkpt lat="35.640296" lon="139.779772"><ele>-0.5</ele></trkpt>
<trkpt lat="35.640484" lon="139.779771"><ele>-0.8</ele></trkpt>
<trkpt lat="35.640679" lon="139.779788"><ele>-0.8</ele></trkpt>
<trkpt lat="35.640914" lon="139.779836"><ele>-0.8</ele></trkpt>
<trkpt lat="35.641208" lon="139.779939"><ele>-0.8</ele></trkpt>
<trkpt lat="35.641345" lon="139.780009"><ele>-1.0</ele></trkpt>
<trkpt lat="35.641788" lon="139.780298"><ele>-1.0</ele></trkpt>
<trkpt lat="35.642004" lon="139.780506"><ele>-1.0</ele></trkpt>
<trkpt lat="35.642210" lon="139.780752"><ele>-1.2</ele></trkpt>
<trkpt lat="35.642532" lon="139.781213"><ele>-1.2</ele></trkpt>
<trkpt lat="35.643210" lon="139.782206"><ele>-1.8</ele></trkpt>
<trkpt lat="35.643495" lon="139.782630"><ele>-1.8</ele></trkpt>
<trkpt lat="35.643720" lon="139.782995"><ele>-0.2</ele></trkpt>
<trkpt lat="35.643857" lon="139.783198"><ele>0.2</ele></trkpt>
<trkpt lat="35.643922" lon="139.783320"><ele>0.8</ele></trkpt>
<trkpt lat="35.643957" lon="139.783369"><ele>1.0</ele></trkpt>
<trkpt lat="35.644009" lon="139.783445"><ele>1.5</ele></trkpt>
<trkpt lat="35.644045" lon="139.783503"><ele>1.8</ele></trkpt>
<trkpt lat="35.644167" lon="139.783654"><ele>2.2</ele></trkpt>
<trkpt lat="35.644817" lon="139.784616"><ele>1.8</ele></trkpt>
<trkpt lat="35.644837" lon="139.784648"><ele>1.8</ele></trkpt>
<trkpt lat="35.644947" lon="139.784695"><ele>1.8</ele></trkpt>
<trkpt lat="35.645048" lon="139.784607"><ele>2.0</ele></trkpt>
<trkpt lat="35.645155" lon="139.784761"><ele>2.0</ele></trkpt>
<trkpt lat="35.645240" lon="139.784891"><ele>2.2</ele></trkpt>
<trkpt lat="35.646071" lon="139.786111"><ele>2.5</ele></trkpt>
<trkpt lat="35.647039" lon="139.787559"><ele>1.2</ele></trkpt>
<trkpt lat="35.647891" lon="139.788799"><ele>4.5</ele></trkpt>
<trkpt lat="35.647985" lon="139.788936"><ele>4.5</ele></trkpt>
<trkpt lat="35.648136" lon="139.789153"><ele>4.2</ele></trkpt>
<trkpt lat="35.648207" lon="139.789253"><ele>4.2</ele></trkpt>
<trkpt lat="35.649160" lon="139.790658"><ele>5.0</ele></trkpt>
<trkpt lat="35.649238" lon="139.790773"><ele>4.8</ele></trkpt>
<trkpt lat="35.649324" lon="139.790882"><ele>4.5</ele></trkpt>
<trkpt lat="35.649407" lon="139.790986"><ele>4.2</ele></trkpt>
<trkpt lat="35.649587" lon="139.791185"><ele>4.0</ele></trkpt>
<trkpt lat="35.649834" lon="139.791442"><ele>3.8</ele></trkpt>
<trkpt lat="35.650083" lon="139.791655"><ele>3.8</ele></trkpt>
<trkpt lat="35.651039" lon="139.792404"><ele>6.2</ele></trkpt>
<trkpt lat="35.651464" lon="139.792739"><ele>7.2</ele></trkpt>
<trkpt lat="35.651969" lon="139.793138"><ele>8.8</ele></trkpt>
<trkpt lat="35.652129" lon="139.793280"><ele>8.8</ele></trkpt>
<trkpt lat="35.652293" lon="139.793446"><ele>8.5</ele></trkpt>
<trkpt lat="35.652478" lon="139.793655"><ele>8.0</ele></trkpt>
<trkpt lat="35.652930" lon="139.794240"><ele>5.8</ele></trkpt>
<trkpt lat="35.653048" lon="139.794397"><ele>6.5</ele></trkpt>
<trkpt lat="35.653139" lon="139.794305"><ele>5.5</ele></trkpt>
<trkpt lat="35.653466" lon="139.793974"><ele>4.5</ele></trkpt>
<trkpt lat="35.653945" lon="139.793489"><ele>5.8</ele></trkpt>
<trkpt lat="35.654100" lon="139.793344"><ele>5.8</ele></trkpt>
<trkpt lat="35.654185" lon="139.793274"><ele>6.0</ele></trkpt>
<trkpt lat="35.654322" lon="139.793213"><ele>6.2</ele></trkpt>
<trkpt lat="35.654475" lon="139.793197"><ele>6.5</ele></trkpt>
<trkpt lat="35.654597" lon="139.793222"><ele>6.5</ele></trkpt>
<trkpt lat="35.654737" lon="139.793308"><ele>6.5</ele></trkpt>
<trkpt lat="35.654826" lon="139.793397"><ele>6.8</ele></trkpt>
<trkpt lat="35.655162" lon="139.793893"><ele>7.2</ele></trkpt>
<trkpt lat="35.655227" lon="139.793990"><ele>7.0</ele></trkpt>
<trkpt lat="35.655309" lon="139.793909"><ele>6.8</ele></trkpt>
<trkpt lat="35.656591" lon="139.792635"><ele>6.0</ele></trkpt>
<trkpt lat="35.657217" lon="139.792012"><ele>4.5</ele></trkpt>
<trkpt lat="35.657274" lon="139.791973"><ele>4.5</ele></trkpt>
<trkpt lat="35.657313" lon="139.791960"><ele>4.5</ele></trkpt>
<trkpt lat="35.657391" lon="139.791953"><ele>4.8</ele></trkpt>
<trkpt lat="35.657426" lon="139.791959"><ele>4.8</ele></trkpt>
<trkpt lat="35.657520" lon="139.792009"><ele>5.2</ele></trkpt>
<trkpt lat="35.657584" lon="139.792079"><ele>5.8</ele></trkpt>
<trkpt lat="35.658033" lon="139.792760"><ele>7.5</ele></trkpt>
<trkpt lat="35.658104" lon="139.792867"><ele>7.5</ele></trkpt>
<trkpt lat="35.658198" lon="139.792771"><ele>7.8</ele></trkpt>
<trkpt lat="35.658459" lon="139.792513"><ele>8.5</ele></trkpt>
<trkpt lat="35.658677" lon="139.792360"><ele>9.8</ele></trkpt>
<trkpt lat="35.658892" lon="139.792160"><ele>9.5</ele></trkpt>
<trkpt lat="35.658958" lon="139.792114"><ele>9.5</ele></trkpt>
<trkpt lat="35.659009" lon="139.792096"><ele>9.2</ele></trkpt>
<trkpt lat="35.659058" lon="139.792088"><ele>9.2</ele></trkpt>
<trkpt lat="35.659089" lon="139.792084"><ele>9.2</ele></trkpt>
<trkpt lat="35.659112" lon="139.792080"><ele>9.2</ele></trkpt>
<trkpt lat="35.659131" lon="139.792076"><ele>9.2</ele></trkpt>
<trkpt lat="35.659181" lon="139.792101"><ele>9.5</ele></trkpt>
<trkpt lat="35.659217" lon="139.792128"><ele>9.8</ele></trkpt>
<trkpt lat="35.659272" lon="139.792174"><ele>10.2</ele></trkpt>
<trkpt lat="35.659317" lon="139.792227"><ele>10.5</ele></trkpt>
<trkpt lat="35.659507" lon="139.792432"><ele>12.0</ele></trkpt>
<trkpt lat="35.660276" lon="139.793272"><ele>10.2</ele></trkpt>
<trkpt lat="35.660393" lon="139.793400"><ele>10.2</ele></trkpt>
<trkpt lat="35.660990" lon="139.794103"><ele>14.2</ele></trkpt>
<trkpt lat="35.661087" lon="139.794217"><ele>15.5</ele></trkpt>
<trkpt lat="35.661470" lon="139.794673"><ele>16.5</ele></trkpt>
<trkpt lat="35.661752" lon="139.795023"><ele>13.8</ele></trkpt>
<trkpt lat="35.662491" lon="139.795997"><ele>4.8</ele></trkpt>
<trkpt lat="35.662739" lon="139.796368"><ele>2.8</ele></trkpt>
<trkpt lat="35.663483" lon="139.797600"><ele>5.8</ele></trkpt>
<trkpt lat="35.663554" lon="139.797716"><ele>6.8</ele></trkpt>
<trkpt lat="35.663588" lon="139.797773"><ele>7.0</ele></trkpt>
<trkpt lat="35.663644" lon="139.797869"><ele>7.8</ele></trkpt>
<trkpt lat="35.663998" lon="139.798469"><ele>9.2</ele></trkpt>
<trkpt lat="35.664676" lon="139.799597"><ele>7.5</ele></trkpt>
<trkpt lat="35.665169" lon="139.800418"><ele>4.8</ele></trkpt>
<trkpt lat="35.665298" lon="139.800616"><ele>4.2</ele></trkpt>
<trkpt lat="35.665338" lon="139.800659"><ele>4.2</ele></trkpt>
<trkpt lat="35.665189" lon="139.800973"><ele>4.5</ele></trkpt>
<trkpt lat="35.665178" lon="139.801021"><ele>4.8</ele></trkpt>
<trkpt lat="35.665180" lon="139.801324"><ele>5.0</ele></trkpt>
<trkpt lat="35.665175" lon="139.801725"><ele>5.5</ele></trkpt>
<trkpt lat="35.665174" lon="139.802238"><ele>6.2</ele></trkpt>
<trkpt lat="35.665174" lon="139.802573"><ele>7.0</ele></trkpt>
<trkpt lat="35.665172" lon="139.802761"><ele>7.5</ele></trkpt>
<trkpt lat="35.665140" lon="139.802843"><ele>7.5</ele></trkpt>
<trkpt lat="35.665118" lon="139.802898"><ele>7.5</ele></trkpt>
<trkpt lat="35.665107" lon="139.803537"><ele>8.5</ele></trkpt>
<trkpt lat="35.665079" lon="139.805098"><ele>4.5</ele></trkpt>
<trkpt lat="35.666244" lon="139.805133"><ele>7.0</ele></trkpt>
<trkpt lat="35.666404" lon="139.805139"><ele>7.2</ele></trkpt>
<trkpt lat="35.666993" lon="139.805163"><ele>7.5</ele></trkpt>
<trkpt lat="35.667101" lon="139.805171"><ele>7.2</ele></trkpt>
<trkpt lat="35.667181" lon="139.805177"><ele>7.2</ele></trkpt>
<trkpt lat="35.667964" lon="139.805197"><ele>9.5</ele></trkpt>
<trkpt lat="35.668212" lon="139.805242"><ele>10.5</ele></trkpt>
<trkpt lat="35.668351" lon="139.805286"><ele>10.8</ele></trkpt>
<trkpt lat="35.668477" lon="139.805325"><ele>10.2</ele></trkpt>
<trkpt lat="35.668651" lon="139.805399"><ele>9.5</ele></trkpt>
<trkpt lat="35.668934" lon="139.805521"><ele>8.8</ele></trkpt>
<trkpt lat="35.669097" lon="139.805598"><ele>8.5</ele></trkpt>
<trkpt lat="35.669278" lon="139.805678"><ele>9.0</ele></trkpt>
<trkpt lat="35.669378" lon="139.805726"><ele>9.5</ele></trkpt>
<trkpt lat="35.669486" lon="139.805779"><ele>10.2</ele></trkpt>
<trkpt lat="35.669574" lon="139.805803"><ele>10.8</ele></trkpt>
<trkpt lat="35.669931" lon="139.805885"><ele>13.2</ele></trkpt>
<trkpt lat="35.670431" lon="139.805979"><ele>14.5</ele></trkpt>
<trkpt lat="35.671923" lon="139.806246"><ele>13.8</ele></trkpt>
<trkpt lat="35.672037" lon="139.806266"><ele>12.8</ele></trkpt>
<trkpt lat="35.672528" lon="139.806350"><ele>9.2</ele></trkpt>
<trkpt lat="35.672653" lon="139.806373"><ele>8.8</ele></trkpt>
<trkpt lat="35.673663" lon="139.806564"><ele>7.8</ele></trkpt>
<trkpt lat="35.674634" lon="139.806740"><ele>10.5</ele></trkpt>
<trkpt lat="35.675269" lon="139.806854"><ele>8.2</ele></trkpt>
<trkpt lat="35.675386" lon="139.806874"><ele>7.8</ele></trkpt>
<trkpt lat="35.675449" lon="139.806886"><ele>7.2</ele></trkpt>
<trkpt lat="35.675454" lon="139.807000"><ele>6.5</ele></trkpt>
<trkpt lat="35.675459" lon="139.807152"><ele>5.5</ele></trkpt>
<trkpt lat="35.675561" lon="139.809984"><ele>-0.5</ele></trkpt>
<trkpt lat="35.675587" lon="139.810636"><ele>2.0</ele></trkpt>
<trkpt lat="35.675601" lon="139.810903"><ele>3.5</ele></trkpt>
<trkpt lat="35.675642" lon="139.812110"><ele>10.5</ele></trkpt>
<trkpt lat="35.675647" lon="139.812232"><ele>10.8</ele></trkpt>
<trkpt lat="35.675651" lon="139.812340"><ele>11.2</ele></trkpt>
<trkpt lat="35.675750" lon="139.814738"><ele>6.2</ele></trkpt>
<trkpt lat="35.675793" lon="139.815791"><ele>9.5</ele></trkpt>
<trkpt lat="35.675800" lon="139.815937"><ele>9.2</ele></trkpt>
<trkpt lat="35.675804" lon="139.816042"><ele>9.0</ele></trkpt>
<trkpt lat="35.675808" lon="139.816158"><ele>8.8</ele></trkpt>
<trkpt lat="35.675910" lon="139.818926"><ele>13.8</ele></trkpt>
<trkpt lat="35.675915" lon="139.819054"><ele>15.0</ele></trkpt>
<trkpt lat="35.675955" lon="139.820396"><ele>9.2</ele></trkpt>
<trkpt lat="35.675890" lon="139.820402"><ele>9.5</ele></trkpt>
<trkpt lat="35.675845" lon="139.820406"><ele>9.8</ele></trkpt>
<trkpt lat="35.675829" lon="139.820407"><ele>10.0</ele></trkpt>
<trkpt lat="35.675657" lon="139.820423"><ele>9.8</ele></trkpt>
<trkpt lat="35.675657" lon="139.820559"><ele>9.0</ele></trkpt>
<trkpt lat="35.675353" lon="139.821525"><ele>5.0</ele></trkpt>
<trkpt lat="35.675324" lon="139.821609"><ele>4.8</ele></trkpt>
<trkpt lat="35.675018" lon="139.822492"><ele>5.8</ele></trkpt>
<trkpt lat="35.675002" lon="139.822539"><ele>6.0</ele></trkpt>
<trkpt lat="35.674823" lon="139.823058"><ele>8.2</ele></trkpt>
<trkpt lat="35.674744" lon="139.823281"><ele>8.5</ele></trkpt>
<trkpt lat="35.674607" lon="139.823671"><ele>8.2</ele></trkpt>
<trkpt lat="35.674506" lon="139.823957"><ele>7.8</ele></trkpt>
<trkpt lat="35.674393" lon="139.824279"><ele>7.2</ele></trkpt>
<trkpt lat="35.674272" lon="139.824629"><ele>8.0</ele></trkpt>
<trkpt lat="35.674259" lon="139.824666"><ele>8.2</ele></trkpt>
<trkpt lat="35.674249" lon="139.824697"><ele>8.2</ele></trkpt>
<trkpt lat="35.674067" lon="139.825223"><ele>9.5</ele></trkpt>
<trkpt lat="35.673982" lon="139.825391"><ele>9.0</ele></trkpt>
<trkpt lat="35.673922" lon="139.825565"><ele>8.8</ele></trkpt>
<trkpt lat="35.673831" lon="139.825905"><ele>7.8</ele></trkpt>
<trkpt lat="35.673649" lon="139.826496"><ele>5.2</ele></trkpt>
<trkpt lat="35.673620" lon="139.826592"><ele>4.8</ele></trkpt>
<trkpt lat="35.673588" lon="139.826687"><ele>4.5</ele></trkpt>
<trkpt lat="35.673484" lon="139.826996"><ele>4.2</ele></trkpt>
<trkpt lat="35.673401" lon="139.827249"><ele>4.5</ele></trkpt>
<trkpt lat="35.673294" lon="139.827586"><ele>5.0</ele></trkpt>
<trkpt lat="35.673054" lon="139.828338"><ele>5.2</ele></trkpt>
<trkpt lat="35.672974" lon="139.828561"><ele>4.5</ele></trkpt>
<trkpt lat="35.672889" lon="139.828771"><ele>3.8</ele></trkpt>
<trkpt lat="35.672868" lon="139.828823"><ele>3.5</ele></trkpt>
<trkpt lat="35.672830" lon="139.828920"><ele>3.0</ele></trkpt>
<trkpt lat="35.672817" lon="139.828952"><ele>3.0</ele></trkpt>
<trkpt lat="35.672814" lon="139.829040"><ele>2.5</ele></trkpt>
<trkpt lat="35.672813" lon="139.829101"><ele>2.0</ele></trkpt>
<trkpt lat="35.672807" lon="139.829166"><ele>1.8</ele></trkpt>
<trkpt lat="35.672792" lon="139.829223"><ele>1.8</ele></trkpt>
<trkpt lat="35.672669" lon="139.829607"><ele>0.8</ele></trkpt>
<trkpt lat="35.672553" lon="139.829940"><ele>-0.5</ele></trkpt>
<trkpt lat="35.672508" lon="139.830069"><ele>-0.5</ele></trkpt>
<trkpt lat="35.672407" lon="139.830346"><ele>0.8</ele></trkpt>
<trkpt lat="35.672335" lon="139.830551"><ele>1.5</ele></trkpt>
<trkpt lat="35.672241" lon="139.830818"><ele>2.2</ele></trkpt>
<trkpt lat="35.672075" lon="139.831281"><ele>1.2</ele></trkpt>
<trkpt lat="35.671986" lon="139.831527"><ele>0.8</ele></trkpt>
<trkpt lat="35.671947" lon="139.831616"><ele>0.5</ele></trkpt>
<trkpt lat="35.671704" lon="139.832323"><ele>-0.5</ele></trkpt>
<trkpt lat="35.671652" lon="139.832471"><ele>-0.8</ele></trkpt>
<trkpt lat="35.671612" lon="139.832590"><ele>-0.8</ele></trkpt>
<trkpt lat="35.671544" lon="139.832790"><ele>-0.2</ele></trkpt>
<trkpt lat="35.671483" lon="139.832966"><ele>-0.2</ele></trkpt>
<trkpt lat="35.671193" lon="139.833796"><ele>0.2</ele></trkpt>
<trkpt lat="35.671069" lon="139.834147"><ele>0.8</ele></trkpt>
<trkpt lat="35.671037" lon="139.834236"><ele>0.8</ele></trkpt>
<trkpt lat="35.671024" lon="139.834276"><ele>0.8</ele></trkpt>
<trkpt lat="35.671012" lon="139.834313"><ele>0.8</ele></trkpt>
<trkpt lat="35.670989" lon="139.834377"><ele>0.8</ele></trkpt>
<trkpt lat="35.670948" lon="139.834497"><ele>0.8</ele></trkpt>
<trkpt lat="35.670838" lon="139.834805"><ele>1.5</ele></trkpt>
<trkpt lat="35.670746" lon="139.834962"><ele>2.0</ele></trkpt>
<trkpt lat="35.670591" lon="139.835188"><ele>2.0</ele></trkpt>
<trkpt lat="35.670543" lon="139.835269"><ele>2.2</ele></trkpt>
<trkpt lat="35.670509" lon="139.835325"><ele>2.2</ele></trkpt>
<trkpt lat="35.670325" lon="139.835893"><ele>2.8</ele></trkpt>
<trkpt lat="35.670295" lon="139.835982"><ele>2.8</ele></trkpt>
<trkpt lat="35.670087" lon="139.836562"><ele>3.5</ele></trkpt>
<trkpt lat="35.670076" lon="139.836593"><ele>3.5</ele></trkpt>
<trkpt lat="35.669939" lon="139.836988"><ele>3.8</ele></trkpt>
<trkpt lat="35.669830" lon="139.837554"><ele>3.5</ele></trkpt>
<trkpt lat="35.669794" lon="139.837809"><ele>4.2</ele></trkpt>
<trkpt lat="35.669786" lon="139.837887"><ele>4.8</ele></trkpt>
<trkpt lat="35.669738" lon="139.837893"><ele>4.5</ele></trkpt>
<trkpt lat="35.669263" lon="139.837935"><ele>4.5</ele></trkpt>
<trkpt lat="35.668718" lon="139.837986"><ele>4.2</ele></trkpt>
<trkpt lat="35.668631" lon="139.837994"><ele>4.2</ele></trkpt>
<trkpt lat="35.668555" lon="139.838022"><ele>4.2</ele></trkpt>
<trkpt lat="35.668499" lon="139.838044"><ele>4.2</ele></trkpt>
<trkpt lat="35.668345" lon="139.838050"><ele>4.0</ele></trkpt>
<trkpt lat="35.668183" lon="139.838055"><ele>3.8</ele></trkpt>
<trkpt lat="35.668053" lon="139.838061"><ele>3.5</ele></trkpt>
<trkpt lat="35.667905" lon="139.838065"><ele>3.2</ele></trkpt>
<trkpt lat="35.667641" lon="139.838074"><ele>2.8</ele></trkpt>
<trkpt lat="35.666729" lon="139.838098"><ele>3.8</ele></trkpt>
<trkpt lat="35.666625" lon="139.838062"><ele>4.0</ele></trkpt>
<trkpt lat="35.666468" lon="139.838072"><ele>4.0</ele></trkpt>
<trkpt lat="35.666375" lon="139.838069"><ele>4.0</ele></trkpt>
<trkpt lat="35.666266" lon="139.838052"><ele>4.0</ele></trkpt>
<trkpt lat="35.666213" lon="139.838036"><ele>4.0</ele></trkpt>
<trkpt lat="35.666229" lon="139.838203"><ele>4.0</ele></trkpt>
<trkpt lat="35.666205" lon="139.838270"><ele>4.0</ele></trkpt>
<trkpt lat="35.666255" lon="139.838742"><ele>3.0</ele></trkpt>
<trkpt lat="35.666268" lon="139.839134"><ele>2.0</ele></trkpt>
<trkpt lat="35.666236" lon="139.839567"><ele>2.0</ele></trkpt>
<trkpt lat="35.666214" lon="139.839699"><ele>2.0</ele></trkpt>
<trkpt lat="35.666207" lon="139.840032"><ele>2.0</ele></trkpt>
<trkpt lat="35.666004" lon="139.841621"><ele>2.2</ele></trkpt>
<trkpt lat="35.665915" lon="139.841920"><ele>2.2</ele></trkpt>
<trkpt lat="35.665872" lon="139.842569"><ele>2.5</ele></trkpt>
<trkpt lat="35.665141" lon="139.851300"><ele>3.8</ele></trkpt>
<trkpt lat="35.665027" lon="139.852895"><ele>4.0</ele></trkpt>
<trkpt lat="35.665011" lon="139.852992"><ele>4.0</ele></trkpt>
<trkpt lat="35.664965" lon="139.853138"><ele>4.0</ele></trkpt>
<trkpt lat="35.664836" lon="139.853336"><ele>4.2</ele></trkpt>
<trkpt lat="35.664742" lon="139.853573"><ele>4.2</ele></trkpt>
<trkpt lat="35.664759" lon="139.853579"><ele>4.2</ele></trkpt>
<trkpt lat="35.664742" lon="139.853631"><ele>4.5</ele></trkpt>
<trkpt lat="35.664710" lon="139.853607"><ele>4.5</ele></trkpt>
<trkpt lat="35.664692" lon="139.853596"><ele>4.5</ele></trkpt>
<trkpt lat="35.664654" lon="139.853571"><ele>4.5</ele></trkpt>
<trkpt lat="35.664577" lon="139.853513"><ele>4.2</ele></trkpt>
<trkpt lat="35.664681" lon="139.853219"><ele>3.5</ele></trkpt>
<trkpt lat="35.664738" lon="139.853010"><ele>2.5</ele></trkpt>
<trkpt lat="35.664783" lon="139.852773"><ele>1.8</ele></trkpt>
<trkpt lat="35.664881" lon="139.851905"><ele>0.8</ele></trkpt>
<trkpt lat="35.664923" lon="139.851637"><ele>0.8</ele></trkpt>
<trkpt lat="35.664948" lon="139.851386"><ele>1.0</ele></trkpt>
<trkpt lat="35.664229" lon="139.851346"><ele>-2.2</ele></trkpt>
<trkpt lat="35.660963" lon="139.851153"><ele>7.5</ele></trkpt>
<trkpt lat="35.660115" lon="139.851101"><ele>6.8</ele></trkpt>
<trkpt lat="35.658213" lon="139.850957"><ele>4.2</ele></trkpt>
<trkpt lat="35.657486" lon="139.850913"><ele>7.8</ele></trkpt>
<trkpt lat="35.657422" lon="139.850907"><ele>7.5</ele></trkpt>
<trkpt lat="35.654412" lon="139.850695"><ele>5.2</ele></trkpt>
<trkpt lat="35.654253" lon="139.850686"><ele>4.8</ele></trkpt>
<trkpt lat="35.647924" lon="139.850243"><ele>8.8</ele></trkpt>
<trkpt lat="35.645856" lon="139.850093"><ele>7.5</ele></trkpt>
<trkpt lat="35.644410" lon="139.849989"><ele>6.8</ele></trkpt>
<trkpt lat="35.642895" lon="139.849880"><ele>6.0</ele></trkpt>
<trkpt lat="35.642853" lon="139.849888"><ele>6.0</ele></trkpt>
<trkpt lat="35.642812" lon="139.849907"><ele>5.8</ele></trkpt>
<trkpt lat="35.642780" lon="139.849941"><ele>5.8</ele></trkpt>
<trkpt lat="35.642757" lon="139.849987"><ele>5.8</ele></trkpt>
<trkpt lat="35.642494" lon="139.851984"><ele>5.0</ele></trkpt>
<trkpt lat="35.642486" lon="139.852196"><ele>4.8</ele></trkpt>
<trkpt lat="35.642420" lon="139.853264"><ele>4.5</ele></trkpt>
<trkpt lat="35.642303" lon="139.855158"><ele>4.5</ele></trkpt>
<trkpt lat="35.642247" lon="139.856187"><ele>9.5</ele></trkpt>
<trkpt lat="35.642226" lon="139.856454"><ele>9.8</ele></trkpt>
<trkpt lat="35.642205" lon="139.856767"><ele>9.8</ele></trkpt>
<trkpt lat="35.642160" lon="139.857545"><ele>8.5</ele></trkpt>
<trkpt lat="35.642114" lon="139.858346"><ele>9.8</ele></trkpt>
<trkpt lat="35.642080" lon="139.858922"><ele>10.5</ele></trkpt>
<trkpt lat="35.642081" lon="139.859090"><ele>10.8</ele></trkpt>
<trkpt lat="35.642083" lon="139.859517"><ele>10.5</ele></trkpt>
<trkpt lat="35.642124" lon="139.859661"><ele>10.2</ele></trkpt>
<trkpt lat="35.642246" lon="139.859885"><ele>10.0</ele></trkpt>
<trkpt lat="35.642368" lon="139.859953"><ele>10.0</ele></trkpt>
<trkpt lat="35.642498" lon="139.860023"><ele>9.8</ele></trkpt>
<trkpt lat="35.642668" lon="139.860034"><ele>9.0</ele></trkpt>
<trkpt lat="35.642773" lon="139.860021"><ele>8.5</ele></trkpt>
<trkpt lat="35.642864" lon="139.859982"><ele>8.0</ele></trkpt>
<trkpt lat="35.642941" lon="139.859925"><ele>7.8</ele></trkpt>
<trkpt lat="35.643051" lon="139.859842"><ele>7.0</ele></trkpt>
<trkpt lat="35.643126" lon="139.859630"><ele>6.2</ele></trkpt>
<trkpt lat="35.643156" lon="139.859543"><ele>6.0</ele></trkpt>
<trkpt lat="35.643219" lon="139.859282"><ele>5.0</ele></trkpt>
<trkpt lat="35.643232" lon="139.859229"><ele>4.8</ele></trkpt>
<trkpt lat="35.643257" lon="139.859055"><ele>4.8</ele></trkpt>
<trkpt lat="35.643300" lon="139.858876"><ele>4.8</ele></trkpt>
<trkpt lat="35.643380" lon="139.858699"><ele>5.0</ele></trkpt>
<trkpt lat="35.643507" lon="139.858531"><ele>5.5</ele></trkpt>
<trkpt lat="35.643629" lon="139.858702"><ele>5.0</ele></trkpt>
<trkpt lat="35.643663" lon="139.858749"><ele>4.8</ele></trkpt>
<trkpt lat="35.643741" lon="139.858675"><ele>5.0</ele></trkpt>
<trkpt lat="35.643874" lon="139.858635"><ele>5.0</ele></trkpt>
<trkpt lat="35.644050" lon="139.858615"><ele>5.2</ele></trkpt>
<trkpt lat="35.644228" lon="139.858591"><ele>5.5</ele></trkpt>
<trkpt lat="35.644402" lon="139.858571"><ele>5.8</ele></trkpt>
<trkpt lat="35.644580" lon="139.858547"><ele>6.0</ele></trkpt>
<trkpt lat="35.644757" lon="139.858526"><ele>6.2</ele></trkpt>
<trkpt lat="35.644906" lon="139.858515"><ele>6.5</ele></trkpt>
<trkpt lat="35.644947" lon="139.858443"><ele>6.2</ele></trkpt>
<trkpt lat="35.645051" lon="139.858282"><ele>6.2</ele></trkpt>
<trkpt lat="35.645143" lon="139.858236"><ele>6.8</ele></trkpt>
<trkpt lat="35.645276" lon="139.858191"><ele>7.0</ele></trkpt>
<trkpt lat="35.645385" lon="139.858139"><ele>7.5</ele></trkpt>
<trkpt lat="35.645460" lon="139.858039"><ele>8.2</ele></trkpt>
<trkpt lat="35.645560" lon="139.857654"><ele>11.0</ele></trkpt>
<trkpt lat="35.645589" lon="139.857568"><ele>11.8</ele></trkpt>
<trkpt lat="35.645663" lon="139.857392"><ele>11.8</ele></trkpt>
<trkpt lat="35.645900" lon="139.857467"><ele>11.2</ele></trkpt>
<trkpt lat="35.645874" lon="139.857632"><ele>10.8</ele></trkpt>
<trkpt lat="35.645788" lon="139.858046"><ele>8.0</ele></trkpt>
<trkpt lat="35.645717" lon="139.858338"><ele>6.0</ele></trkpt>
<trkpt lat="35.645611" lon="139.858723"><ele>7.0</ele></trkpt>
<trkpt lat="35.645424" lon="139.859303"><ele>8.8</ele></trkpt>
<trkpt lat="35.645138" lon="139.860076"><ele>4.2</ele></trkpt>
<trkpt lat="35.643113" lon="139.865567"><ele>4.2</ele></trkpt>
<trkpt lat="35.643088" lon="139.865626"><ele>4.2</ele></trkpt>
<trkpt lat="35.642621" lon="139.866906"><ele>5.0</ele></trkpt>
<trkpt lat="35.642786" lon="139.867179"><ele>5.2</ele></trkpt>
<trkpt lat="35.643106" lon="139.867519"><ele>5.5</ele></trkpt>
<trkpt lat="35.643392" lon="139.867651"><ele>5.8</ele></trkpt>
<trkpt lat="35.643588" lon="139.867794"><ele>5.8</ele></trkpt>
<trkpt lat="35.643951" lon="139.868172"><ele>6.2</ele></trkpt>
<trkpt lat="35.644019" lon="139.868260"><ele>6.2</ele></trkpt>
<trkpt lat="35.644148" lon="139.868406"><ele>6.0</ele></trkpt>
<trkpt lat="35.644307" lon="139.868586"><ele>8.5</ele></trkpt>
<trkpt lat="35.644075" lon="139.868905"><ele>12.5</ele></trkpt>
<trkpt lat="35.643829" lon="139.869253"><ele>14.2</ele></trkpt>
<trkpt lat="35.643749" lon="139.869331"><ele>13.5</ele></trkpt>
<trkpt lat="35.643222" lon="139.870025"><ele>8.2</ele></trkpt>
<trkpt lat="35.643160" lon="139.870130"><ele>8.0</ele></trkpt>
<trkpt lat="35.642447" lon="139.871065"><ele>9.8</ele></trkpt>
<trkpt lat="35.642418" lon="139.871137"><ele>9.5</ele></trkpt>
<trkpt lat="35.641618" lon="139.872184"><ele>9.0</ele></trkpt>
<trkpt lat="35.641589" lon="139.872250"><ele>9.0</ele></trkpt>
<trkpt lat="35.641588" lon="139.872332"><ele>9.0</ele></trkpt>
<trkpt lat="35.641612" lon="139.872419"><ele>9.0</ele></trkpt>
<trkpt lat="35.641579" lon="139.872458"><ele>9.0</ele></trkpt>
<trkpt lat="35.641576" lon="139.872517"><ele>9.0</ele></trkpt>
<trkpt lat="35.641581" lon="139.872639"><ele>8.8</ele></trkpt>
<trkpt lat="35.641594" lon="139.872755"><ele>8.8</ele></trkpt>
<trkpt lat="35.641643" lon="139.873052"><ele>8.8</ele></trkpt>
<trkpt lat="35.641675" lon="139.873149"><ele>8.8</ele></trkpt>
<trkpt lat="35.642510" lon="139.875649"><ele>7.8</ele></trkpt>
<trkpt lat="35.642752" lon="139.876371"><ele>7.2</ele></trkpt>
<trkpt lat="35.642849" lon="139.876584"><ele>7.2</ele></trkpt>
<trkpt lat="35.642910" lon="139.876693"><ele>7.2</ele></trkpt>
<trkpt lat="35.642967" lon="139.876780"><ele>7.2</ele></trkpt>
<trkpt lat="35.643187" lon="139.877057"><ele>7.0</ele></trkpt>
<trkpt lat="35.643341" lon="139.877304"><ele>7.0</ele></trkpt>
<trkpt lat="35.643719" lon="139.878106"><ele>6.5</ele></trkpt>
<trkpt lat="35.643881" lon="139.878456"><ele>6.5</ele></trkpt>
<trkpt lat="35.644165" lon="139.879073"><ele>6.0</ele></trkpt>
<trkpt lat="35.644825" lon="139.880466"><ele>5.5</ele></trkpt>
<trkpt lat="35.645052" lon="139.880989"><ele>5.2</ele></trkpt>
<trkpt lat="35.645129" lon="139.881044"><ele>5.2</ele></trkpt>
<trkpt lat="35.645156" lon="139.881063"><ele>5.2</ele></trkpt>
<trkpt lat="35.645195" lon="139.881082"><ele>5.2</ele></trkpt>
<trkpt lat="35.645463" lon="139.881694"><ele>5.0</ele></trkpt>
<trkpt lat="35.645544" lon="139.881819"><ele>4.8</ele></trkpt>
<trkpt lat="35.645625" lon="139.881917"><ele>4.8</ele></trkpt>
<trkpt lat="35.645847" lon="139.882106"><ele>4.8</ele></trkpt>
<trkpt lat="35.646273" lon="139.882487"><ele>4.5</ele></trkpt>
<trkpt lat="35.646371" lon="139.882566"><ele>4.5</ele></trkpt>
<trkpt lat="35.646567" lon="139.882688"><ele>4.2</ele></trkpt>
<trkpt lat="35.646755" lon="139.882779"><ele>4.2</ele></trkpt>
<trkpt lat="35.646946" lon="139.882839"><ele>4.0</ele></trkpt>
<trkpt lat="35.647296" lon="139.882915"><ele>4.0</ele></trkpt>
<trkpt lat="35.647580" lon="139.882977"><ele>3.8</ele></trkpt>
<trkpt lat="35.648480" lon="139.883175"><ele>3.5</ele></trkpt>
<trkpt lat="35.648720" lon="139.883239"><ele>3.2</ele></trkpt>
<trkpt lat="35.649171" lon="139.883389"><ele>3.0</ele></trkpt>
<trkpt lat="35.649261" lon="139.883405"><ele>3.0</ele></trkpt>
<trkpt lat="35.649362" lon="139.883452"><ele>3.0</ele></trkpt>
<trkpt lat="35.649964" lon="139.883659"><ele>2.8</ele></trkpt>
<trkpt lat="35.650116" lon="139.883703"><ele>2.5</ele></trkpt>
<trkpt lat="35.650198" lon="139.883703"><ele>2.5</ele></trkpt>
<trkpt lat="35.650230" lon="139.883718"><ele>2.5</ele></trkpt>
<trkpt lat="35.650261" lon="139.883747"><ele>2.5</ele></trkpt>
<trkpt lat="35.650405" lon="139.883922"><ele>2.5</ele></trkpt>
<trkpt lat="35.650455" lon="139.883965"><ele>2.5</ele></trkpt>
<trkpt lat="35.651142" lon="139.884462"><ele>2.0</ele></trkpt>
<trkpt lat="35.651343" lon="139.884577"><ele>2.0</ele></trkpt>
<trkpt lat="35.651854" lon="139.884803"><ele>1.8</ele></trkpt>
<trkpt lat="35.652358" lon="139.885075"><ele>1.5</ele></trkpt>
<trkpt lat="35.652798" lon="139.885240"><ele>1.2</ele></trkpt>
<trkpt lat="35.652995" lon="139.885327"><ele>1.0</ele></trkpt>
<trkpt lat="35.653190" lon="139.885393"><ele>1.0</ele></trkpt>
<trkpt lat="35.653783" lon="139.885530"><ele>0.8</ele></trkpt>
<trkpt lat="35.654072" lon="139.885637"><ele>0.5</ele></trkpt>
<trkpt lat="35.654307" lon="139.885685"><ele>0.5</ele></trkpt>
<trkpt lat="35.654459" lon="139.885701"><ele>0.5</ele></trkpt>
<trkpt lat="35.654904" lon="139.885771"><ele>0.2</ele></trkpt>
<trkpt lat="35.655035" lon="139.885775"><ele>0.0</ele></trkpt>
<trkpt lat="35.655679" lon="139.885754"><ele>0.0</ele></trkpt>
<trkpt lat="35.655862" lon="139.885725"><ele>0.0</ele></trkpt>
<trkpt lat="35.656078" lon="139.885664"><ele>0.0</ele></trkpt>
<trkpt lat="35.656311" lon="139.885584"><ele>0.2</ele></trkpt>
<trkpt lat="35.656505" lon="139.885543"><ele>0.2</ele></trkpt>
<trkpt lat="35.656595" lon="139.885531"><ele>0.2</ele></trkpt>
<trkpt lat="35.656815" lon="139.885511"><ele>0.2</ele></trkpt>
<trkpt lat="35.656908" lon="139.885515"><ele>0.2</ele></trkpt>
<trkpt lat="35.657039" lon="139.885531"><ele>0.2</ele></trkpt>
<trkpt lat="35.657331" lon="139.885600"><ele>0.2</ele></trkpt>
<trkpt lat="35.657764" lon="139.885744"><ele>0.5</ele></trkpt>
<trkpt lat="35.657852" lon="139.885785"><ele>0.5</ele></trkpt>
<trkpt lat="35.658110" lon="139.885870"><ele>0.5</ele></trkpt>
<trkpt lat="35.658852" lon="139.886095"><ele>0.8</ele></trkpt>
<trkpt lat="35.658909" lon="139.886106"><ele>0.8</ele></trkpt>
<trkpt lat="35.659167" lon="139.886127"><ele>0.8</ele></trkpt>
<trkpt lat="35.660290" lon="139.886201"><ele>1.0</ele></trkpt>
<trkpt lat="35.661286" lon="139.886347"><ele>1.2</ele></trkpt>
<trkpt lat="35.661562" lon="139.886381"><ele>1.2</ele></trkpt>
<trkpt lat="35.661921" lon="139.886410"><ele>1.2</ele></trkpt>
<trkpt lat="35.662181" lon="139.886423"><ele>1.2</ele></trkpt>
<trkpt lat="35.662569" lon="139.886414"><ele>1.5</ele></trkpt>
<trkpt lat="35.662694" lon="139.886404"><ele>1.5</ele></trkpt>
<trkpt lat="35.663039" lon="139.886365"><ele>1.5</ele></trkpt>
<trkpt lat="35.663330" lon="139.886310"><ele>1.5</ele></trkpt>
<trkpt lat="35.663714" lon="139.886225"><ele>1.5</ele></trkpt>
<trkpt lat="35.664042" lon="139.886125"><ele>1.8</ele></trkpt>
<trkpt lat="35.664171" lon="139.886070"><ele>1.5</ele></trkpt>
<trkpt lat="35.664423" lon="139.885953"><ele>2.0</ele></trkpt>
<trkpt lat="35.664771" lon="139.885763"><ele>2.8</ele></trkpt>
<trkpt lat="35.665064" lon="139.885566"><ele>3.0</ele></trkpt>
<trkpt lat="35.665555" lon="139.885180"><ele>2.0</ele></trkpt>
<trkpt lat="35.665568" lon="139.885085"><ele>1.8</ele></trkpt>
<trkpt lat="35.665605" lon="139.884930"><ele>2.0</ele></trkpt>
<trkpt lat="35.665640" lon="139.884921"><ele>1.8</ele></trkpt>
<trkpt lat="35.665902" lon="139.884960"><ele>1.2</ele></trkpt>
<trkpt lat="35.666635" lon="139.884486"><ele>2.0</ele></trkpt>
<trkpt lat="35.666924" lon="139.884290"><ele>1.5</ele></trkpt>
<trkpt lat="35.667686" lon="139.883882"><ele>0.8</ele></trkpt>
<trkpt lat="35.668667" lon="139.883696"><ele>2.2</ele></trkpt>
<trkpt lat="35.668764" lon="139.883693"><ele>2.5</ele></trkpt>
<trkpt lat="35.668864" lon="139.883691"><ele>2.5</ele></trkpt>
<trkpt lat="35.670095" lon="139.883759"><ele>3.2</ele></trkpt>
<trkpt lat="35.670261" lon="139.883810"><ele>3.0</ele></trkpt>
<trkpt lat="35.670614" lon="139.884009"><ele>2.8</ele></trkpt>
<trkpt lat="35.670979" lon="139.884201"><ele>2.5</ele></trkpt>
<trkpt lat="35.671182" lon="139.884282"><ele>2.0</ele></trkpt>
<trkpt lat="35.671413" lon="139.884361"><ele>1.2</ele></trkpt>
<trkpt lat="35.671768" lon="139.884367"><ele>0.5</ele></trkpt>
<trkpt lat="35.671837" lon="139.884262"><ele>0.5</ele></trkpt>
<trkpt lat="35.671933" lon="139.884059"><ele>0.8</ele></trkpt>
<trkpt lat="35.672039" lon="139.884064"><ele>1.2</ele></trkpt>
<trkpt lat="35.672137" lon="139.884056"><ele>1.8</ele></trkpt>
<trkpt lat="35.672168" lon="139.884015"><ele>1.8</ele></trkpt>
<trkpt lat="35.672214" lon="139.883881"><ele>2.2</ele></trkpt>
<trkpt lat="35.672284" lon="139.883562"><ele>3.0</ele></trkpt>
<trkpt lat="35.672313" lon="139.883429"><ele>3.5</ele></trkpt>
<trkpt lat="35.672597" lon="139.883501"><ele>4.2</ele></trkpt>
<trkpt lat="35.672548" lon="139.883813"><ele>3.8</ele></trkpt>
<trkpt lat="35.672562" lon="139.884023"><ele>3.2</ele></trkpt>
<trkpt lat="35.672564" lon="139.884090"><ele>3.0</ele></trkpt>
<trkpt lat="35.672581" lon="139.884135"><ele>3.0</ele></trkpt>
<trkpt lat="35.672626" lon="139.884191"><ele>2.8</ele></trkpt>
<trkpt lat="35.673148" lon="139.884693"><ele>0.2</ele></trkpt>
<trkpt lat="35.673187" lon="139.884710"><ele>0.0</ele></trkpt>
<trkpt lat="35.673346" lon="139.884750"><ele>-0.2</ele></trkpt>
<trkpt lat="35.673513" lon="139.884783"><ele>-0.2</ele></trkpt>
<trkpt lat="35.674354" lon="139.884899"><ele>1.0</ele></trkpt>
<trkpt lat="35.674841" lon="139.884962"><ele>1.0</ele></trkpt>
<trkpt lat="35.675527" lon="139.885152"><ele>1.2</ele></trkpt>
<trkpt lat="35.675806" lon="139.885221"><ele>1.5</ele></trkpt>
<trkpt lat="35.676752" lon="139.885422"><ele>0.8</ele></trkpt>
<trkpt lat="35.676847" lon="139.885432"><ele>1.5</ele></trkpt>
<trkpt lat="35.677817" lon="139.885430"><ele>5.5</ele></trkpt>
<trkpt lat="35.678057" lon="139.885397"><ele>4.0</ele></trkpt>
<trkpt lat="35.678081" lon="139.885356"><ele>4.0</ele></trkpt>
<trkpt lat="35.678239" lon="139.885355"><ele>3.0</ele></trkpt>
<trkpt lat="35.678964" lon="139.885331"><ele>3.5</ele></trkpt>
<trkpt lat="35.678963" lon="139.885266"><ele>3.8</ele></trkpt>
<trkpt lat="35.679145" lon="139.885252"><ele>4.0</ele></trkpt>
<trkpt lat="35.679216" lon="139.885240"><ele>4.0</ele></trkpt>
<trkpt lat="35.679521" lon="139.885171"><ele>4.8</ele></trkpt>
<trkpt lat="35.679583" lon="139.885176"><ele>4.8</ele></trkpt>
<trkpt lat="35.679657" lon="139.885146"><ele>5.0</ele></trkpt>
<trkpt lat="35.680039" lon="139.885162"><ele>5.5</ele></trkpt>
<trkpt lat="35.680160" lon="139.885184"><ele>5.0</ele></trkpt>
<trkpt lat="35.680335" lon="139.885245"><ele>4.5</ele></trkpt>
<trkpt lat="35.680452" lon="139.885291"><ele>4.2</ele></trkpt>
<trkpt lat="35.680767" lon="139.885305"><ele>3.8</ele></trkpt>
<trkpt lat="35.680799" lon="139.885286"><ele>3.5</ele></trkpt>
<trkpt lat="35.680921" lon="139.885213"><ele>3.5</ele></trkpt>
<trkpt lat="35.680960" lon="139.885221"><ele>3.5</ele></trkpt>
<trkpt lat="35.681103" lon="139.885248"><ele>3.5</ele></trkpt>
<trkpt lat="35.682011" lon="139.885248"><ele>3.2</ele></trkpt>
<trkpt lat="35.682261" lon="139.885345"><ele>3.5</ele></trkpt>
<trkpt lat="35.682415" lon="139.885346"><ele>3.8</ele></trkpt>
<trkpt lat="35.682497" lon="139.885387"><ele>3.8</ele></trkpt>
<trkpt lat="35.682682" lon="139.885405"><ele>4.0</ele></trkpt>
<trkpt lat="35.683074" lon="139.885515"><ele>4.5</ele></trkpt>
<trkpt lat="35.683634" lon="139.885515"><ele>4.0</ele></trkpt>
<trkpt lat="35.683721" lon="139.885488"><ele>3.8</ele></trkpt>
<trkpt lat="35.684479" lon="139.885504"><ele>2.0</ele></trkpt>
<trkpt lat="35.684562" lon="139.885547"><ele>2.0</ele></trkpt>
<trkpt lat="35.684852" lon="139.885542"><ele>1.8</ele></trkpt>
<trkpt lat="35.684878" lon="139.885510"><ele>1.8</ele></trkpt>
<trkpt lat="35.685564" lon="139.885520"><ele>0.8</ele></trkpt>
<trkpt lat="35.685960" lon="139.885445"><ele>0.8</ele></trkpt>
<trkpt lat="35.686599" lon="139.885440"><ele>1.2</ele></trkpt>
<trkpt lat="35.687178" lon="139.885595"><ele>1.2</ele></trkpt>
<trkpt lat="35.687433" lon="139.885590"><ele>1.2</ele></trkpt>
<trkpt lat="35.687581" lon="139.885510"><ele>1.0</ele></trkpt>
<trkpt lat="35.688376" lon="139.885499"><ele>0.0</ele></trkpt>
<trkpt lat="35.688638" lon="139.885456"><ele>1.2</ele></trkpt>
<trkpt lat="35.688700" lon="139.885430"><ele>1.5</ele></trkpt>
<trkpt lat="35.688795" lon="139.885414"><ele>2.0</ele></trkpt>
<trkpt lat="35.689282" lon="139.885427"><ele>3.5</ele></trkpt>
<trkpt lat="35.689722" lon="139.885392"><ele>2.5</ele></trkpt>
<trkpt lat="35.689815" lon="139.885435"><ele>2.2</ele></trkpt>
<trkpt lat="35.690143" lon="139.885478"><ele>1.5</ele></trkpt>
<trkpt lat="35.690479" lon="139.885476"><ele>1.0</ele></trkpt>
<trkpt lat="35.690853" lon="139.885400"><ele>1.0</ele></trkpt>
<trkpt lat="35.690894" lon="139.885361"><ele>1.2</ele></trkpt>
<trkpt lat="35.691774" lon="139.885355"><ele>2.5</ele></trkpt>
<trkpt lat="35.692336" lon="139.885296"><ele>3.5</ele></trkpt>
<trkpt lat="35.692973" lon="139.885299"><ele>2.2</ele></trkpt>
<trkpt lat="35.693096" lon="139.885297"><ele>2.0</ele></trkpt>
<trkpt lat="35.696281" lon="139.884989"><ele>0.2</ele></trkpt>
<trkpt lat="35.696868" lon="139.884922"><ele>0.8</ele></trkpt>
<trkpt lat="35.697354" lon="139.884836"><ele>2.5</ele></trkpt>
<trkpt lat="35.697357" lon="139.883855"><ele>2.2</ele></trkpt>
<trkpt lat="35.697358" lon="139.883808"><ele>2.0</ele></trkpt>
<trkpt lat="35.697358" lon="139.883686"><ele>1.8</ele></trkpt>
<trkpt lat="35.697359" lon="139.883480"><ele>1.5</ele></trkpt>
<trkpt lat="35.697360" lon="139.883015"><ele>2.5</ele></trkpt>
<trkpt lat="35.697351" lon="139.882339"><ele>5.2</ele></trkpt>
<trkpt lat="35.697349" lon="139.882201"><ele>5.8</ele></trkpt>
<trkpt lat="35.697346" lon="139.882004"><ele>6.8</ele></trkpt>
<trkpt lat="35.697343" lon="139.881865"><ele>7.2</ele></trkpt>
<trkpt lat="35.697341" lon="139.881758"><ele>7.5</ele></trkpt>
<trkpt lat="35.697339" lon="139.881688"><ele>7.8</ele></trkpt>
<trkpt lat="35.697301" lon="139.880621"><ele>5.5</ele></trkpt>
<trkpt lat="35.697302" lon="139.880390"><ele>5.0</ele></trkpt>
<trkpt lat="35.697317" lon="139.879585"><ele>4.0</ele></trkpt>
<trkpt lat="35.697331" lon="139.878457"><ele>2.2</ele></trkpt>
<trkpt lat="35.697332" lon="139.878397"><ele>2.2</ele></trkpt>
<trkpt lat="35.697351" lon="139.878109"><ele>2.0</ele></trkpt>
<trkpt lat="35.697386" lon="139.877802"><ele>1.8</ele></trkpt>
<trkpt lat="35.697418" lon="139.877592"><ele>1.8</ele></trkpt>
<trkpt lat="35.697457" lon="139.877386"><ele>2.0</ele></trkpt>
<trkpt lat="35.697546" lon="139.876979"><ele>3.0</ele></trkpt>
<trkpt lat="35.697725" lon="139.876223"><ele>3.5</ele></trkpt>
<trkpt lat="35.697890" lon="139.875508"><ele>3.5</ele></trkpt>
<trkpt lat="35.698015" lon="139.874991"><ele>3.2</ele></trkpt>
<trkpt lat="35.698082" lon="139.874711"><ele>2.8</ele></trkpt>
<trkpt lat="35.698247" lon="139.874026"><ele>2.0</ele></trkpt>
<trkpt lat="35.698332" lon="139.873662"><ele>2.0</ele></trkpt>
<trkpt lat="35.698431" lon="139.873244"><ele>1.8</ele></trkpt>
<trkpt lat="35.698629" lon="139.873221"><ele>1.5</ele></trkpt>
<trkpt lat="35.698898" lon="139.873258"><ele>1.2</ele></trkpt>
<trkpt lat="35.699166" lon="139.873276"><ele>1.0</ele></trkpt>
<trkpt lat="35.699336" lon="139.873288"><ele>1.2</ele></trkpt>
<trkpt lat="35.699846" lon="139.873323"><ele>2.5</ele></trkpt>
<trkpt lat="35.699941" lon="139.873304"><ele>2.8</ele></trkpt>
<trkpt lat="35.699979" lon="139.872405"><ele>1.8</ele></trkpt>
<trkpt lat="35.700027" lon="139.871490"><ele>0.5</ele></trkpt>
<trkpt lat="35.700029" lon="139.871434"><ele>0.2</ele></trkpt>
<trkpt lat="35.700044" lon="139.871034"><ele>-0.2</ele></trkpt>
<trkpt lat="35.700090" lon="139.870164"><ele>-0.8</ele></trkpt>
<trkpt lat="35.700098" lon="139.870008"><ele>-0.5</ele></trkpt>
<trkpt lat="35.700090" lon="139.870164"><ele>-0.8</ele></trkpt>
<trkpt lat="35.700323" lon="139.870182"><ele>-0.2</ele></trkpt>
<trkpt lat="35.701135" lon="139.870244"><ele>0.2</ele></trkpt>
<trkpt lat="35.701107" lon="139.870816"><ele>1.5</ele></trkpt>
<trkpt lat="35.701093" lon="139.871114"><ele>1.2</ele></trkpt>
<trkpt lat="35.701079" lon="139.871399"><ele>1.0</ele></trkpt>
<trkpt lat="35.701076" lon="139.871456"><ele>0.8</ele></trkpt>
<trkpt lat="35.701037" lon="139.872253"><ele>1.0</ele></trkpt>
<trkpt lat="35.701026" lon="139.872476"><ele>1.2</ele></trkpt>
<trkpt lat="35.700982" lon="139.873374"><ele>0.8</ele></trkpt>
<trkpt lat="35.701487" lon="139.873409"><ele>0.8</ele></trkpt>
<trkpt lat="35.701501" lon="139.873410"><ele>0.8</ele></trkpt>
<trkpt lat="35.702028" lon="139.873447"><ele>1.2</ele></trkpt>
<trkpt lat="35.702279" lon="139.873464"><ele>1.5</ele></trkpt>
<trkpt lat="35.702543" lon="139.873484"><ele>2.0</ele></trkpt>
<trkpt lat="35.702799" lon="139.873502"><ele>2.2</ele></trkpt>
<trkpt lat="35.703035" lon="139.873518"><ele>2.5</ele></trkpt>
<trkpt lat="35.703125" lon="139.873524"><ele>2.5</ele></trkpt>
<trkpt lat="35.703168" lon="139.873527"><ele>2.8</ele></trkpt>
<trkpt lat="35.703363" lon="139.873542"><ele>2.8</ele></trkpt>
<trkpt lat="35.703620" lon="139.873558"><ele>2.5</ele></trkpt>
<trkpt lat="35.703880" lon="139.873575"><ele>2.2</ele></trkpt>
<trkpt lat="35.704138" lon="139.873592"><ele>2.0</ele></trkpt>
<trkpt lat="35.704393" lon="139.873610"><ele>2.5</ele></trkpt>
<trkpt lat="35.704647" lon="139.873628"><ele>3.2</ele></trkpt>
<trkpt lat="35.705171" lon="139.873663"><ele>4.2</ele></trkpt>
<trkpt lat="35.706137" lon="139.873729"><ele>4.8</ele></trkpt>
<trkpt lat="35.706226" lon="139.873735"><ele>4.8</ele></trkpt>
<trkpt lat="35.706306" lon="139.873741"><ele>5.0</ele></trkpt>
<trkpt lat="35.706524" lon="139.873757"><ele>5.2</ele></trkpt>
<trkpt lat="35.706948" lon="139.873785"><ele>5.0</ele></trkpt>
<trkpt lat="35.707593" lon="139.873831"><ele>3.8</ele></trkpt>
<trkpt lat="35.707689" lon="139.873838"><ele>3.8</ele></trkpt>
<trkpt lat="35.707685" lon="139.873930"><ele>3.2</ele></trkpt>
<trkpt lat="35.707669" lon="139.874319"><ele>2.5</ele></trkpt>
<trkpt lat="35.707659" lon="139.874541"><ele>3.0</ele></trkpt>
<trkpt lat="35.707652" lon="139.874745"><ele>3.5</ele></trkpt>
<trkpt lat="35.707619" lon="139.875422"><ele>4.5</ele></trkpt>
<trkpt lat="35.707608" lon="139.875662"><ele>4.5</ele></trkpt>
<trkpt lat="35.707605" lon="139.875748"><ele>4.8</ele></trkpt>
<trkpt lat="35.707551" lon="139.876933"><ele>4.5</ele></trkpt>
<trkpt lat="35.707550" lon="139.876954"><ele>4.5</ele></trkpt>
<trkpt lat="35.707546" lon="139.877030"><ele>4.2</ele></trkpt>
<trkpt lat="35.707540" lon="139.877134"><ele>4.2</ele></trkpt>
<trkpt lat="35.707493" lon="139.877995"><ele>3.2</ele></trkpt>
<trkpt lat="35.707465" lon="139.878573"><ele>2.8</ele></trkpt>
<trkpt lat="35.707461" lon="139.878658"><ele>2.5</ele></trkpt>
<trkpt lat="35.707423" lon="139.879400"><ele>2.8</ele></trkpt>
<trkpt lat="35.707393" lon="139.880053"><ele>4.8</ele></trkpt>
<trkpt lat="35.707382" lon="139.880171"><ele>4.8</ele></trkpt>
<trkpt lat="35.707375" lon="139.880321"><ele>4.8</ele></trkpt>
<trkpt lat="35.707378" lon="139.880437"><ele>4.8</ele></trkpt>
<trkpt lat="35.707402" lon="139.880847"><ele>5.0</ele></trkpt>
<trkpt lat="35.707442" lon="139.881205"><ele>5.2</ele></trkpt>
<trkpt lat="35.707468" lon="139.881386"><ele>5.5</ele></trkpt>
<trkpt lat="35.707482" lon="139.881480"><ele>5.5</ele></trkpt>
<trkpt lat="35.707576" lon="139.882037"><ele>5.0</ele></trkpt>
<trkpt lat="35.707705" lon="139.883019"><ele>3.5</ele></trkpt>
<trkpt lat="35.707768" lon="139.883006"><ele>3.5</ele></trkpt>
<trkpt lat="35.707777" lon="139.883005"><ele>3.5</ele></trkpt>
<trkpt lat="35.707837" lon="139.883001"><ele>3.8</ele></trkpt>
<trkpt lat="35.707918" lon="139.883021"><ele>3.8</ele></trkpt>
<trkpt lat="35.708407" lon="139.882918"><ele>4.2</ele></trkpt>
<trkpt lat="35.709353" lon="139.882718"><ele>2.5</ele></trkpt>
<trkpt lat="35.710276" lon="139.882511"><ele>2.2</ele></trkpt>
<trkpt lat="35.711082" lon="139.882315"><ele>1.5</ele></trkpt>
<trkpt lat="35.711974" lon="139.882093"><ele>2.8</ele></trkpt>
<trkpt lat="35.712346" lon="139.881991"><ele>3.2</ele></trkpt>
<trkpt lat="35.712562" lon="139.881935"><ele>3.8</ele></trkpt>
<trkpt lat="35.712619" lon="139.881918"><ele>3.8</ele></trkpt>
<trkpt lat="35.712663" lon="139.881907"><ele>3.8</ele></trkpt>
<trkpt lat="35.712686" lon="139.881903"><ele>3.8</ele></trkpt>
<trkpt lat="35.713191" lon="139.881765"><ele>4.5</ele></trkpt>
<trkpt lat="35.713384" lon="139.881715"><ele>4.8</ele></trkpt>
<trkpt lat="35.713432" lon="139.881702"><ele>4.5</ele></trkpt>
<trkpt lat="35.713478" lon="139.881692"><ele>4.5</ele></trkpt>
<trkpt lat="35.713534" lon="139.881672"><ele>4.5</ele></trkpt>
<trkpt lat="35.713574" lon="139.881660"><ele>4.2</ele></trkpt>
<trkpt lat="35.714140" lon="139.881507"><ele>2.8</ele></trkpt>
<trkpt lat="35.714366" lon="139.881435"><ele>2.2</ele></trkpt>
<trkpt lat="35.715431" lon="139.881099"><ele>0.5</ele></trkpt>
<trkpt lat="35.717251" lon="139.880447"><ele>0.8</ele></trkpt>
<trkpt lat="35.717327" lon="139.880423"><ele>1.0</ele></trkpt>
<trkpt lat="35.717333" lon="139.880449"><ele>0.8</ele></trkpt>
<trkpt lat="35.717671" lon="139.881703"><ele>1.8</ele></trkpt>
<trkpt lat="35.717678" lon="139.881728"><ele>1.8</ele></trkpt>
<trkpt lat="35.717757" lon="139.881696"><ele>2.0</ele></trkpt>
<trkpt lat="35.717780" lon="139.881687"><ele>2.0</ele></trkpt>
<trkpt lat="35.718242" lon="139.881510"><ele>3.8</ele></trkpt>
<trkpt lat="35.718558" lon="139.881387"><ele>4.5</ele></trkpt>
<trkpt lat="35.719201" lon="139.881125"><ele>4.5</ele></trkpt>
<trkpt lat="35.720292" lon="139.880657"><ele>3.8</ele></trkpt>
<trkpt lat="35.721076" lon="139.880298"><ele>3.8</ele></trkpt>
<trkpt lat="35.721180" lon="139.880195"><ele>3.8</ele></trkpt>
<trkpt lat="35.721423" lon="139.880046"><ele>4.0</ele></trkpt>
<trkpt lat="35.721845" lon="139.879832"><ele>4.2</ele></trkpt>
<trkpt lat="35.722233" lon="139.879742"><ele>3.5</ele></trkpt>
<trkpt lat="35.723313" lon="139.879202"><ele>2.0</ele></trkpt>
<trkpt lat="35.724173" lon="139.878750"><ele>4.5</ele></trkpt>
<trkpt lat="35.724613" lon="139.878503"><ele>4.2</ele></trkpt>
<trkpt lat="35.725788" lon="139.877819"><ele>4.8</ele></trkpt>
<trkpt lat="35.726306" lon="139.877505"><ele>4.2</ele></trkpt>
<trkpt lat="35.726659" lon="139.877271"><ele>3.5</ele></trkpt>
<trkpt lat="35.726701" lon="139.877240"><ele>3.5</ele></trkpt>
<trkpt lat="35.726741" lon="139.877215"><ele>3.5</ele></trkpt>
<trkpt lat="35.726794" lon="139.877180"><ele>3.5</ele></trkpt>
<trkpt lat="35.726833" lon="139.877169"><ele>3.2</ele></trkpt>
<trkpt lat="35.727193" lon="139.876921"><ele>2.0</ele></trkpt>
<trkpt lat="35.727766" lon="139.876544"><ele>-0.5</ele></trkpt>
<trkpt lat="35.728385" lon="139.876128"><ele>-0.8</ele></trkpt>
<trkpt lat="35.729603" lon="139.875246"><ele>0.5</ele></trkpt>
<trkpt lat="35.729667" lon="139.875196"><ele>0.0</ele></trkpt>
<trkpt lat="35.729710" lon="139.875263"><ele>0.2</ele></trkpt>
<trkpt lat="35.730011" lon="139.875086"><ele>-0.2</ele></trkpt>
<trkpt lat="35.730288" lon="139.874921"><ele>1.8</ele></trkpt>
<trkpt lat="35.730822" lon="139.874525"><ele>6.2</ele></trkpt>
<trkpt lat="35.730952" lon="139.874428"><ele>6.2</ele></trkpt>
<trkpt lat="35.731122" lon="139.874300"><ele>5.8</ele></trkpt>
<trkpt lat="35.731273" lon="139.874182"><ele>5.5</ele></trkpt>
<trkpt lat="35.731667" lon="139.874752"><ele>7.0</ele></trkpt>
<trkpt lat="35.732035" lon="139.875267"><ele>6.2</ele></trkpt>
<trkpt lat="35.732129" lon="139.875464"><ele>6.0</ele></trkpt>
<trkpt lat="35.732142" lon="139.875525"><ele>6.0</ele></trkpt>
<trkpt lat="35.732158" lon="139.875547"><ele>5.8</ele></trkpt>
<trkpt lat="35.732248" lon="139.875548"><ele>5.5</ele></trkpt>
<trkpt lat="35.732366" lon="139.875547"><ele>5.2</ele></trkpt>
<trkpt lat="35.732399" lon="139.875548"><ele>5.2</ele></trkpt>
<trkpt lat="35.732629" lon="139.875548"><ele>4.8</ele></trkpt>
<trkpt lat="35.732715" lon="139.875551"><ele>4.8</ele></trkpt>
<trkpt lat="35.733061" lon="139.875560"><ele>4.5</ele></trkpt>
<trkpt lat="35.733206" lon="139.875564"><ele>4.2</ele></trkpt>
<trkpt lat="35.733262" lon="139.875577"><ele>4.2</ele></trkpt>
<trkpt lat="35.733316" lon="139.875604"><ele>4.2</ele></trkpt>
<trkpt lat="35.733594" lon="139.875775"><ele>4.0</ele></trkpt>
<trkpt lat="35.733817" lon="139.875662"><ele>3.8</ele></trkpt>
<trkpt lat="35.734330" lon="139.875425"><ele>2.8</ele></trkpt>
<trkpt lat="35.734396" lon="139.875395"><ele>2.5</ele></trkpt>
<trkpt lat="35.734459" lon="139.875338"><ele>2.2</ele></trkpt>
<trkpt lat="35.734867" lon="139.875097"><ele>1.2</ele></trkpt>
<trkpt lat="35.735202" lon="139.874882"><ele>1.8</ele></trkpt>
<trkpt lat="35.735257" lon="139.874843"><ele>2.2</ele></trkpt>
<trkpt lat="35.735350" lon="139.874770"><ele>2.5</ele></trkpt>
<trkpt lat="35.735561" lon="139.874607"><ele>3.5</ele></trkpt>
<trkpt lat="35.736037" lon="139.874249"><ele>4.2</ele></trkpt>
<trkpt lat="35.736600" lon="139.873848"><ele>3.2</ele></trkpt>
<trkpt lat="35.736723" lon="139.873760"><ele>3.5</ele></trkpt>
<trkpt lat="35.737395" lon="139.873280"><ele>3.8</ele></trkpt>
<trkpt lat="35.737415" lon="139.873223"><ele>3.8</ele></trkpt>
<trkpt lat="35.737938" lon="139.872854"><ele>2.8</ele></trkpt>
<trkpt lat="35.738393" lon="139.872558"><ele>3.0</ele></trkpt>
<trkpt lat="35.738416" lon="139.872599"><ele>3.0</ele></trkpt>
<trkpt lat="35.738437" lon="139.872638"><ele>3.0</ele></trkpt>
<trkpt lat="35.738803" lon="139.873314"><ele>4.0</ele></trkpt>
<trkpt lat="35.739064" lon="139.873797"><ele>4.8</ele></trkpt>
<trkpt lat="35.739151" lon="139.873958"><ele>4.8</ele></trkpt>
<trkpt lat="35.739294" lon="139.874222"><ele>5.0</ele></trkpt>
<trkpt lat="35.739804" lon="139.875164"><ele>5.8</ele></trkpt>
<trkpt lat="35.739827" lon="139.875207"><ele>5.5</ele></trkpt>
<trkpt lat="35.740202" lon="139.875905"><ele>4.8</ele></trkpt>
<trkpt lat="35.740342" lon="139.876161"><ele>4.0</ele></trkpt>
<trkpt lat="35.740478" lon="139.876421"><ele>3.5</ele></trkpt>
<trkpt lat="35.740489" lon="139.876461"><ele>3.2</ele></trkpt>
<trkpt lat="35.740540" lon="139.876427"><ele>3.5</ele></trkpt>
<trkpt lat="35.740584" lon="139.876423"><ele>3.5</ele></trkpt>
<trkpt lat="35.741002" lon="139.876404"><ele>3.5</ele></trkpt>
<trkpt lat="35.741081" lon="139.876395"><ele>3.5</ele></trkpt>
<trkpt lat="35.741475" lon="139.876308"><ele>3.5</ele></trkpt>
<trkpt lat="35.741651" lon="139.876275"><ele>3.2</ele></trkpt>
<trkpt lat="35.741808" lon="139.876245"><ele>3.5</ele></trkpt>
<trkpt lat="35.742365" lon="139.876141"><ele>4.0</ele></trkpt>
<trkpt lat="35.743024" lon="139.875990"><ele>5.0</ele></trkpt>
<trkpt lat="35.743841" lon="139.875800"><ele>5.8</ele></trkpt>
<trkpt lat="35.743945" lon="139.875778"><ele>5.8</ele></trkpt>
<trkpt lat="35.744211" lon="139.875722"><ele>5.5</ele></trkpt>
<trkpt lat="35.744459" lon="139.875701"><ele>5.2</ele></trkpt>
<trkpt lat="35.744818" lon="139.875703"><ele>4.8</ele></trkpt>
<trkpt lat="35.745724" lon="139.875672"><ele>4.0</ele></trkpt>
<trkpt lat="35.746096" lon="139.875653"><ele>4.5</ele></trkpt>
<trkpt lat="35.746295" lon="139.875643"><ele>4.8</ele></trkpt>
<trkpt lat="35.746617" lon="139.875631"><ele>5.5</ele></trkpt>
<trkpt lat="35.746586" lon="139.876100"><ele>6.0</ele></trkpt>
<trkpt lat="35.746574" lon="139.876211"><ele>6.0</ele></trkpt>
<trkpt lat="35.746622" lon="139.876424"><ele>6.5</ele></trkpt>
<trkpt lat="35.746635" lon="139.876470"><ele>6.5</ele></trkpt>
<trkpt lat="35.746716" lon="139.876647"><ele>6.8</ele></trkpt>
<trkpt lat="35.746815" lon="139.876865"><ele>6.2</ele></trkpt>
<trkpt lat="35.746832" lon="139.876900"><ele>6.2</ele></trkpt>
<trkpt lat="35.746868" lon="139.876966"><ele>6.0</ele></trkpt>
<trkpt lat="35.746918" lon="139.877088"><ele>6.0</ele></trkpt>
<trkpt lat="35.746943" lon="139.877149"><ele>6.0</ele></trkpt>
<trkpt lat="35.747013" lon="139.877313"><ele>5.8</ele></trkpt>
<trkpt lat="35.747017" lon="139.877640"><ele>5.8</ele></trkpt>
<trkpt lat="35.747363" lon="139.877625"><ele>5.8</ele></trkpt>
<trkpt lat="35.747523" lon="139.877615"><ele>5.8</ele></trkpt>
<trkpt lat="35.747562" lon="139.877605"><ele>5.8</ele></trkpt>
<trkpt lat="35.747599" lon="139.877590"><ele>5.8</ele></trkpt>
<trkpt lat="35.747784" lon="139.877464"><ele>5.8</ele></trkpt>
<trkpt lat="35.748002" lon="139.877316"><ele>5.8</ele></trkpt>
<trkpt lat="35.748305" lon="139.877115"><ele>5.8</ele></trkpt>
<trkpt lat="35.748610" lon="139.876907"><ele>6.2</ele></trkpt>
<trkpt lat="35.748954" lon="139.876642"><ele>7.2</ele></trkpt>
<trkpt lat="35.749124" lon="139.876502"><ele>7.5</ele></trkpt>
<trkpt lat="35.749278" lon="139.876385"><ele>7.2</ele></trkpt>
<trkpt lat="35.749633" lon="139.876108"><ele>6.2</ele></trkpt>
<trkpt lat="35.749704" lon="139.876053"><ele>6.0</ele></trkpt>
<trkpt lat="35.749755" lon="139.876003"><ele>5.8</ele></trkpt>
<trkpt lat="35.750100" lon="139.875686"><ele>4.8</ele></trkpt>
<trkpt lat="35.750348" lon="139.875455"><ele>4.8</ele></trkpt>
<trkpt lat="35.750492" lon="139.875323"><ele>4.8</ele></trkpt>
<trkpt lat="35.750521" lon="139.875315"><ele>5.0</ele></trkpt>
<trkpt lat="35.750622" lon="139.875354"><ele>5.0</ele></trkpt>
<trkpt lat="35.751147" lon="139.875577"><ele>5.2</ele></trkpt>
<trkpt lat="35.751186" lon="139.875608"><ele>5.2</ele></trkpt>
<trkpt lat="35.751205" lon="139.875568"><ele>5.2</ele></trkpt>
<trkpt lat="35.751238" lon="139.875588"><ele>5.2</ele></trkpt>
<trkpt lat="35.751575" lon="139.875753"><ele>5.0</ele></trkpt>
<trkpt lat="35.751655" lon="139.875792"><ele>5.0</ele></trkpt>
<trkpt lat="35.751989" lon="139.875959"><ele>4.5</ele></trkpt>
<trkpt lat="35.752255" lon="139.876089"><ele>4.0</ele></trkpt>
<trkpt lat="35.752480" lon="139.876200"><ele>4.0</ele></trkpt>
<trkpt lat="35.752507" lon="139.876213"><ele>4.0</ele></trkpt>
<trkpt lat="35.752776" lon="139.876342"><ele>4.0</ele></trkpt>
<trkpt lat="35.752811" lon="139.876359"><ele>4.0</ele></trkpt>
<trkpt lat="35.753087" lon="139.876491"><ele>4.5</ele></trkpt>
<trkpt lat="35.753385" lon="139.876640"><ele>4.8</ele></trkpt>
<trkpt lat="35.753660" lon="139.876776"><ele>5.0</ele></trkpt>
<trkpt lat="35.753683" lon="139.876787"><ele>5.0</ele></trkpt>
<trkpt lat="35.753962" lon="139.876927"><ele>5.2</ele></trkpt>
<trkpt lat="35.753990" lon="139.876941"><ele>5.5</ele></trkpt>
<trkpt lat="35.754257" lon="139.877070"><ele>5.8</ele></trkpt>
<trkpt lat="35.754412" lon="139.877144"><ele>5.8</ele></trkpt>
<trkpt lat="35.754647" lon="139.877259"><ele>5.8</ele></trkpt>
<trkpt lat="35.754673" lon="139.877272"><ele>5.5</ele></trkpt>
<trkpt lat="35.754713" lon="139.877292"><ele>5.5</ele></trkpt>
<trkpt lat="35.754767" lon="139.877319"><ele>5.5</ele></trkpt>
<trkpt lat="35.755182" lon="139.877519"><ele>4.5</ele></trkpt>
<trkpt lat="35.755692" lon="139.877768"><ele>3.2</ele></trkpt>
<trkpt lat="35.756146" lon="139.877998"><ele>3.2</ele></trkpt>
<trkpt lat="35.756171" lon="139.878013"><ele>3.2</ele></trkpt>
<trkpt lat="35.756304" lon="139.878091"><ele>3.2</ele></trkpt>
<trkpt lat="35.756717" lon="139.878179"><ele>3.5</ele></trkpt>
<trkpt lat="35.756842" lon="139.878201"><ele>3.8</ele></trkpt>
<trkpt lat="35.757003" lon="139.878196"><ele>5.0</ele></trkpt>
<trkpt lat="35.757250" lon="139.878189"><ele>5.0</ele></trkpt>
<trkpt lat="35.757278" lon="139.878174"><ele>5.2</ele></trkpt>
<trkpt lat="35.757281" lon="139.878148"><ele>5.2</ele></trkpt>
<trkpt lat="35.757273" lon="139.878080"><ele>5.2</ele></trkpt>
<trkpt lat="35.757240" lon="139.877948"><ele>5.2</ele></trkpt>
<trkpt lat="35.757148" lon="139.877726"><ele>5.2</ele></trkpt>
<trkpt lat="35.757111" lon="139.877638"><ele>5.2</ele></trkpt>
<trkpt lat="35.757088" lon="139.877552"><ele>5.2</ele></trkpt>
<trkpt lat="35.757097" lon="139.877242"><ele>5.8</ele></trkpt>
<trkpt lat="35.757045" lon="139.877068"><ele>6.0</ele></trkpt>
<trkpt lat="35.756686" lon="139.876889"><ele>6.2</ele></trkpt>
<trkpt lat="35.756643" lon="139.876867"><ele>6.2</ele></trkpt>
<trkpt lat="35.756714" lon="139.876689"><ele>6.8</ele></trkpt>
<trkpt lat="35.756736" lon="139.876636"><ele>6.8</ele></trkpt>
<trkpt lat="35.756757" lon="139.876584"><ele>6.8</ele></trkpt>
<trkpt lat="35.756858" lon="139.876334"><ele>6.8</ele></trkpt>
<trkpt lat="35.756969" lon="139.876089"><ele>6.8</ele></trkpt>
<trkpt lat="35.757063" lon="139.875848"><ele>6.5</ele></trkpt>
<trkpt lat="35.757072" lon="139.875823"><ele>6.5</ele></trkpt>
<trkpt lat="35.757089" lon="139.875657"><ele>6.5</ele></trkpt>
<trkpt lat="35.757093" lon="139.875615"><ele>6.5</ele></trkpt>
<trkpt lat="35.757095" lon="139.875575"><ele>6.5</ele></trkpt>
<trkpt lat="35.757097" lon="139.875537"><ele>6.5</ele></trkpt>
<trkpt lat="35.757098" lon="139.875498"><ele>6.5</ele></trkpt>
<trkpt lat="35.757099" lon="139.875477"><ele>6.5</ele></trkpt>
<trkpt lat="35.757100" lon="139.875446"><ele>6.5</ele></trkpt>
<trkpt lat="35.757101" lon="139.875417"><ele>6.5</ele></trkpt>
<trkpt lat="35.757105" lon="139.875359"><ele>6.5</ele></trkpt>
<trkpt lat="35.757148" lon="139.875111"><ele>6.8</ele></trkpt>
<trkpt lat="35.757157" lon="139.875016"><ele>6.8</ele></trkpt>
<trkpt lat="35.757160" lon="139.874979"><ele>6.8</ele></trkpt>
<trkpt lat="35.757223" lon="139.874327"><ele>7.5</ele></trkpt>
<trkpt lat="35.757238" lon="139.874179"><ele>7.8</ele></trkpt>
<trkpt lat="35.757251" lon="139.874120"><ele>7.8</ele></trkpt>
<trkpt lat="35.757268" lon="139.874036"><ele>7.5</ele></trkpt>
<trkpt lat="35.757218" lon="139.873887"><ele>7.2</ele></trkpt>
<trkpt lat="35.757246" lon="139.873799"><ele>7.0</ele></trkpt>
<trkpt lat="35.757244" lon="139.873584"><ele>6.5</ele></trkpt>
<trkpt lat="35.757262" lon="139.873235"><ele>5.8</ele></trkpt>
<trkpt lat="35.757249" lon="139.873009"><ele>5.0</ele></trkpt>
<trkpt lat="35.757236" lon="139.872825"><ele>4.8</ele></trkpt>
<trkpt lat="35.757177" lon="139.872264"><ele>4.0</ele></trkpt>
<trkpt lat="35.757176" lon="139.872249"><ele>4.0</ele></trkpt>
<trkpt lat="35.757151" lon="139.872085"><ele>4.0</ele></trkpt>
<trkpt lat="35.757150" lon="139.871983"><ele>4.2</ele></trkpt>
<trkpt lat="35.757173" lon="139.871890"><ele>4.2</ele></trkpt>
<trkpt lat="35.757242" lon="139.871700"><ele>4.2</ele></trkpt>
<trkpt lat="35.757354" lon="139.871412"><ele>3.8</ele></trkpt>
<trkpt lat="35.757425" lon="139.871219"><ele>3.5</ele></trkpt>
<trkpt lat="35.757557" lon="139.870836"><ele>3.0</ele></trkpt>
<trkpt lat="35.757579" lon="139.870775"><ele>3.0</ele></trkpt>
<trkpt lat="35.757583" lon="139.870773"><ele>3.0</ele></trkpt>
<trkpt lat="35.757607" lon="139.870764"><ele>3.0</ele></trkpt>
<trkpt lat="35.757717" lon="139.870726"><ele>3.2</ele></trkpt>
<trkpt lat="35.758046" lon="139.870600"><ele>3.5</ele></trkpt>
<trkpt lat="35.758311" lon="139.870463"><ele>3.8</ele></trkpt>
<trkpt lat="35.758641" lon="139.870301"><ele>4.2</ele></trkpt>
<trkpt lat="35.758675" lon="139.870287"><ele>4.2</ele></trkpt>
<trkpt lat="35.759103" lon="139.870101"><ele>4.8</ele></trkpt>
<trkpt lat="35.759349" lon="139.869993"><ele>5.0</ele></trkpt>
<trkpt lat="35.759592" lon="139.869890"><ele>5.5</ele></trkpt>
<trkpt lat="35.760299" lon="139.869577"><ele>5.0</ele></trkpt>
<trkpt lat="35.761255" lon="139.869158"><ele>4.2</ele></trkpt>
<trkpt lat="35.761879" lon="139.868881"><ele>4.0</ele></trkpt>
<trkpt lat="35.762013" lon="139.868822"><ele>3.8</ele></trkpt>
<trkpt lat="35.762232" lon="139.868725"><ele>3.2</ele></trkpt>
<trkpt lat="35.762271" lon="139.868709"><ele>3.2</ele></trkpt>
<trkpt lat="35.762654" lon="139.868540"><ele>3.2</ele></trkpt>
<trkpt lat="35.762732" lon="139.868507"><ele>3.5</ele></trkpt>
<trkpt lat="35.763029" lon="139.868375"><ele>4.2</ele></trkpt>
<trkpt lat="35.763204" lon="139.868299"><ele>4.5</ele></trkpt>
<trkpt lat="35.763841" lon="139.868021"><ele>6.2</ele></trkpt>
<trkpt lat="35.764528" lon="139.867773"><ele>7.5</ele></trkpt>
<trkpt lat="35.764660" lon="139.867728"><ele>7.2</ele></trkpt>
<trkpt lat="35.764762" lon="139.867694"><ele>7.2</ele></trkpt>
<trkpt lat="35.764824" lon="139.867669"><ele>7.2</ele></trkpt>
<trkpt lat="35.764919" lon="139.867640"><ele>7.0</ele></trkpt>
<trkpt lat="35.765005" lon="139.867615"><ele>7.0</ele></trkpt>
<trkpt lat="35.765106" lon="139.867576"><ele>6.8</ele></trkpt>
<trkpt lat="35.765168" lon="139.867540"><ele>6.5</ele></trkpt>
<trkpt lat="35.765230" lon="139.867504"><ele>6.2</ele></trkpt>
<trkpt lat="35.765239" lon="139.867514"><ele>6.2</ele></trkpt>
<trkpt lat="35.765469" lon="139.867787"><ele>6.0</ele></trkpt>
<trkpt lat="35.765628" lon="139.867921"><ele>5.5</ele></trkpt>
<trkpt lat="35.765722" lon="139.867991"><ele>5.2</ele></trkpt>
<trkpt lat="35.765835" lon="139.868048"><ele>5.0</ele></trkpt>
<trkpt lat="35.765962" lon="139.868128"><ele>5.0</ele></trkpt>
<trkpt lat="35.766039" lon="139.868187"><ele>5.0</ele></trkpt>
<trkpt lat="35.766084" lon="139.868244"><ele>5.2</ele></trkpt>
<trkpt lat="35.766128" lon="139.868323"><ele>5.2</ele></trkpt>
<trkpt lat="35.766181" lon="139.868442"><ele>5.5</ele></trkpt>
<trkpt lat="35.766219" lon="139.868439"><ele>5.5</ele></trkpt>
<trkpt lat="35.766309" lon="139.868447"><ele>5.5</ele></trkpt>
<trkpt lat="35.766507" lon="139.868487"><ele>5.8</ele></trkpt>
<trkpt lat="35.766848" lon="139.868564"><ele>5.8</ele></trkpt>
<trkpt lat="35.766900" lon="139.868413"><ele>5.5</ele></trkpt>
<trkpt lat="35.767016" lon="139.868164"><ele>5.5</ele></trkpt>
<trkpt lat="35.767217" lon="139.867718"><ele>5.2</ele></trkpt>
<trkpt lat="35.767331" lon="139.867241"><ele>4.8</ele></trkpt>
<trkpt lat="35.767442" lon="139.866757"><ele>4.0</ele></trkpt>
<trkpt lat="35.767472" lon="139.866657"><ele>3.8</ele></trkpt>
<trkpt lat="35.767472" lon="139.866387"><ele>3.8</ele></trkpt>
<trkpt lat="35.767472" lon="139.866370"><ele>3.8</ele></trkpt>
<trkpt lat="35.767478" lon="139.866259"><ele>3.8</ele></trkpt>
<trkpt lat="35.767500" lon="139.865831"><ele>3.8</ele></trkpt>
<trkpt lat="35.767296" lon="139.865866"><ele>3.8</ele></trkpt>
</trkseg></trk></gpx>
