<?xml version="1.0" encoding="UTF-8"?>
<gpx version="1.1" creator="TokyoCycling2026" xmlns="http://www.topografix.com/GPX/1/1">
  <metadata>
    <name>Day 14: 灣岸篇：橫濱 ➔ 第一京濱/羽田 ➔ 豐洲大橋 ➔ 台場海濱公園</name>
    <desc>38.8 km | +19m / -14m</desc>
  </metadata>
  <trk>
    <name>Day 14: 灣岸篇：橫濱 ➔ 第一京濱/羽田 ➔ 豐洲大橋 ➔ 台場海濱公園</name>
    <trkseg>
      <trkpt lat="35.455214" lon="139.635947"></trkpt>
      <trkpt lat="35.455024" lon="139.636282"></trkpt>
      <trkpt lat="35.454916" lon="139.636471"></trkpt>
      <trkpt lat="35.454859" lon="139.636583"></trkpt>
      <trkpt lat="35.454776" lon="139.636733"></trkpt>
      <trkpt lat="35.454769" lon="139.636745"></trkpt>
      <trkpt lat="35.45452" lon="139.637188"></trkpt>
      <trkpt lat="35.454476" lon="139.637324"></trkpt>
      <trkpt lat="35.454453" lon="139.637399"></trkpt>
      <trkpt lat="35.454503" lon="139.637423"></trkpt>
      <trkpt lat="35.454554" lon="139.637456"></trkpt>
      <trkpt lat="35.454707" lon="139.637584"></trkpt>
      <trkpt lat="35.454955" lon="139.637792"></trkpt>
      <trkpt lat="35.454971" lon="139.637805"></trkpt>
      <trkpt lat="35.455041" lon="139.637918"></trkpt>
      <trkpt lat="35.455049" lon="139.637929"></trkpt>
      <trkpt lat="35.455197" lon="139.637725"></trkpt>
      <trkpt lat="35.45544" lon="139.637391"></trkpt>
      <trkpt lat="35.455635" lon="139.637165"></trkpt>
      <trkpt lat="35.455815" lon="139.636985"></trkpt>
      <trkpt lat="35.455993" lon="139.636829"></trkpt>
      <trkpt lat="35.456144" lon="139.636698"></trkpt>
      <trkpt lat="35.456475" lon="139.636418"></trkpt>
      <trkpt lat="35.456696" lon="139.636238"></trkpt>
      <trkpt lat="35.456781" lon="139.63617"></trkpt>
      <trkpt lat="35.456887" lon="139.636084"></trkpt>
      <trkpt lat="35.456992" lon="139.636"></trkpt>
      <trkpt lat="35.457974" lon="139.635212"></trkpt>
      <trkpt lat="35.458086" lon="139.635122"></trkpt>
      <trkpt lat="35.458163" lon="139.63506"></trkpt>
      <trkpt lat="35.458267" lon="139.634977"></trkpt>
      <trkpt lat="35.459908" lon="139.633651"></trkpt>
      <trkpt lat="35.460009" lon="139.633573"></trkpt>
      <trkpt lat="35.460086" lon="139.633515"></trkpt>
      <trkpt lat="35.460177" lon="139.633452"></trkpt>
      <trkpt lat="35.460476" lon="139.633265"></trkpt>
      <trkpt lat="35.460658" lon="139.633171"></trkpt>
      <trkpt lat="35.46085" lon="139.633086"></trkpt>
      <trkpt lat="35.461057" lon="139.63301"></trkpt>
      <trkpt lat="35.461127" lon="139.632988"></trkpt>
      <trkpt lat="35.461247" lon="139.632952"></trkpt>
      <trkpt lat="35.46134" lon="139.632928"></trkpt>
      <trkpt lat="35.461446" lon="139.632903"></trkpt>
      <trkpt lat="35.461597" lon="139.632874"></trkpt>
      <trkpt lat="35.461851" lon="139.632853"></trkpt>
      <trkpt lat="35.462044" lon="139.632852"></trkpt>
      <trkpt lat="35.462159" lon="139.632853"></trkpt>
      <trkpt lat="35.4624" lon="139.632875"></trkpt>
      <trkpt lat="35.462591" lon="139.632895"></trkpt>
      <trkpt lat="35.462706" lon="139.632909"></trkpt>
      <trkpt lat="35.462794" lon="139.632922"></trkpt>
      <trkpt lat="35.462928" lon="139.63295"></trkpt>
      <trkpt lat="35.463239" lon="139.633042"></trkpt>
      <trkpt lat="35.463586" lon="139.633171"></trkpt>
      <trkpt lat="35.463974" lon="139.633363"></trkpt>
      <trkpt lat="35.464253" lon="139.633532"></trkpt>
      <trkpt lat="35.4644" lon="139.633633"></trkpt>
      <trkpt lat="35.464461" lon="139.633681"></trkpt>
      <trkpt lat="35.464521" lon="139.633734"></trkpt>
      <trkpt lat="35.464641" lon="139.633839"></trkpt>
      <trkpt lat="35.464773" lon="139.633967"></trkpt>
      <trkpt lat="35.464904" lon="139.634101"></trkpt>
      <trkpt lat="35.464996" lon="139.634247"></trkpt>
      <trkpt lat="35.465056" lon="139.634318"></trkpt>
      <trkpt lat="35.465117" lon="139.634389"></trkpt>
      <trkpt lat="35.465228" lon="139.63453"></trkpt>
      <trkpt lat="35.465331" lon="139.634669"></trkpt>
      <trkpt lat="35.465438" lon="139.634826"></trkpt>
      <trkpt lat="35.4655" lon="139.634924"></trkpt>
      <trkpt lat="35.465559" lon="139.635026"></trkpt>
      <trkpt lat="35.465685" lon="139.635258"></trkpt>
      <trkpt lat="35.465747" lon="139.635382"></trkpt>
      <trkpt lat="35.465809" lon="139.635519"></trkpt>
      <trkpt lat="35.465938" lon="139.635843"></trkpt>
      <trkpt lat="35.466098" lon="139.63628"></trkpt>
      <trkpt lat="35.466102" lon="139.636402"></trkpt>
      <trkpt lat="35.466254" lon="139.636322"></trkpt>
      <trkpt lat="35.466867" lon="139.636"></trkpt>
      <trkpt lat="35.467844" lon="139.635488"></trkpt>
      <trkpt lat="35.467952" lon="139.635431"></trkpt>
      <trkpt lat="35.468071" lon="139.635368"></trkpt>
      <trkpt lat="35.468392" lon="139.6352"></trkpt>
      <trkpt lat="35.468733" lon="139.635025"></trkpt>
      <trkpt lat="35.468793" lon="139.634992"></trkpt>
      <trkpt lat="35.468894" lon="139.634916"></trkpt>
      <trkpt lat="35.46894" lon="139.63487"></trkpt>
      <trkpt lat="35.469016" lon="139.634774"></trkpt>
      <trkpt lat="35.47002" lon="139.633402"></trkpt>
      <trkpt lat="35.470279" lon="139.633055"></trkpt>
      <trkpt lat="35.470346" lon="139.632964"></trkpt>
      <trkpt lat="35.470389" lon="139.632906"></trkpt>
      <trkpt lat="35.470621" lon="139.632595"></trkpt>
      <trkpt lat="35.471313" lon="139.631666"></trkpt>
      <trkpt lat="35.471526" lon="139.631424"></trkpt>
      <trkpt lat="35.471741" lon="139.631632"></trkpt>
      <trkpt lat="35.472142" lon="139.632028"></trkpt>
      <trkpt lat="35.472185" lon="139.632071"></trkpt>
      <trkpt lat="35.472213" lon="139.632098"></trkpt>
      <trkpt lat="35.472302" lon="139.632189"></trkpt>
      <trkpt lat="35.472306" lon="139.632193"></trkpt>
      <trkpt lat="35.472642" lon="139.632519"></trkpt>
      <trkpt lat="35.473202" lon="139.633011"></trkpt>
      <trkpt lat="35.473271" lon="139.633076"></trkpt>
      <trkpt lat="35.473781" lon="139.633525"></trkpt>
      <trkpt lat="35.474349" lon="139.634023"></trkpt>
      <trkpt lat="35.474923" lon="139.63454"></trkpt>
      <trkpt lat="35.475512" lon="139.635095"></trkpt>
      <trkpt lat="35.475923" lon="139.635468"></trkpt>
      <trkpt lat="35.476177" lon="139.635705"></trkpt>
      <trkpt lat="35.476272" lon="139.635798"></trkpt>
      <trkpt lat="35.476793" lon="139.636462"></trkpt>
      <trkpt lat="35.47769" lon="139.637366"></trkpt>
      <trkpt lat="35.477923" lon="139.637613"></trkpt>
      <trkpt lat="35.477976" lon="139.637674"></trkpt>
      <trkpt lat="35.478014" lon="139.637723"></trkpt>
      <trkpt lat="35.478062" lon="139.6378"></trkpt>
      <trkpt lat="35.478107" lon="139.637898"></trkpt>
      <trkpt lat="35.478133" lon="139.637972"></trkpt>
      <trkpt lat="35.478147" lon="139.638049"></trkpt>
      <trkpt lat="35.47816" lon="139.638131"></trkpt>
      <trkpt lat="35.478164" lon="139.638234"></trkpt>
      <trkpt lat="35.478143" lon="139.638727"></trkpt>
      <trkpt lat="35.47815" lon="139.638851"></trkpt>
      <trkpt lat="35.478164" lon="139.638938"></trkpt>
      <trkpt lat="35.478186" lon="139.639015"></trkpt>
      <trkpt lat="35.478215" lon="139.639095"></trkpt>
      <trkpt lat="35.478267" lon="139.639174"></trkpt>
      <trkpt lat="35.478473" lon="139.639397"></trkpt>
      <trkpt lat="35.47874" lon="139.639666"></trkpt>
      <trkpt lat="35.479247" lon="139.640217"></trkpt>
      <trkpt lat="35.479407" lon="139.640406"></trkpt>
      <trkpt lat="35.479657" lon="139.640763"></trkpt>
      <trkpt lat="35.479836" lon="139.640995"></trkpt>
      <trkpt lat="35.480002" lon="139.641226"></trkpt>
      <trkpt lat="35.480331" lon="139.641697"></trkpt>
      <trkpt lat="35.48065" lon="139.642169"></trkpt>
      <trkpt lat="35.480821" lon="139.642425"></trkpt>
      <trkpt lat="35.480984" lon="139.642687"></trkpt>
      <trkpt lat="35.481153" lon="139.642984"></trkpt>
      <trkpt lat="35.481315" lon="139.64328"></trkpt>
      <trkpt lat="35.481776" lon="139.644113"></trkpt>
      <trkpt lat="35.481895" lon="139.644339"></trkpt>
      <trkpt lat="35.482008" lon="139.644567"></trkpt>
      <trkpt lat="35.482108" lon="139.644788"></trkpt>
      <trkpt lat="35.482202" lon="139.645009"></trkpt>
      <trkpt lat="35.482299" lon="139.645248"></trkpt>
      <trkpt lat="35.482392" lon="139.645485"></trkpt>
      <trkpt lat="35.482629" lon="139.646109"></trkpt>
      <trkpt lat="35.482891" lon="139.646811"></trkpt>
      <trkpt lat="35.48301" lon="139.647151"></trkpt>
      <trkpt lat="35.483128" lon="139.647526"></trkpt>
      <trkpt lat="35.483234" lon="139.647892"></trkpt>
      <trkpt lat="35.483721" lon="139.649653"></trkpt>
      <trkpt lat="35.48378" lon="139.649847"></trkpt>
      <trkpt lat="35.483842" lon="139.65003"></trkpt>
      <trkpt lat="35.483914" lon="139.65022"></trkpt>
      <trkpt lat="35.484001" lon="139.650428"></trkpt>
      <trkpt lat="35.484369" lon="139.651228"></trkpt>
      <trkpt lat="35.484495" lon="139.651517"></trkpt>
      <trkpt lat="35.484606" lon="139.651784"></trkpt>
      <trkpt lat="35.484699" lon="139.652017"></trkpt>
      <trkpt lat="35.484795" lon="139.652286"></trkpt>
      <trkpt lat="35.484879" lon="139.65254"></trkpt>
      <trkpt lat="35.484992" lon="139.652909"></trkpt>
      <trkpt lat="35.485445" lon="139.654451"></trkpt>
      <trkpt lat="35.486256" lon="139.657207"></trkpt>
      <trkpt lat="35.486433" lon="139.657802"></trkpt>
      <trkpt lat="35.486498" lon="139.65799"></trkpt>
      <trkpt lat="35.486564" lon="139.658161"></trkpt>
      <trkpt lat="35.486636" lon="139.658322"></trkpt>
      <trkpt lat="35.486715" lon="139.658477"></trkpt>
      <trkpt lat="35.486799" lon="139.658625"></trkpt>
      <trkpt lat="35.486896" lon="139.658776"></trkpt>
      <trkpt lat="35.486994" lon="139.65892"></trkpt>
      <trkpt lat="35.488247" lon="139.660598"></trkpt>
      <trkpt lat="35.488391" lon="139.660793"></trkpt>
      <trkpt lat="35.488499" lon="139.660947"></trkpt>
      <trkpt lat="35.48859" lon="139.661087"></trkpt>
      <trkpt lat="35.488661" lon="139.661212"></trkpt>
      <trkpt lat="35.488729" lon="139.661351"></trkpt>
      <trkpt lat="35.48878" lon="139.661476"></trkpt>
      <trkpt lat="35.488831" lon="139.661621"></trkpt>
      <trkpt lat="35.488867" lon="139.661751"></trkpt>
      <trkpt lat="35.4889" lon="139.661891"></trkpt>
      <trkpt lat="35.488924" lon="139.662029"></trkpt>
      <trkpt lat="35.488945" lon="139.662179"></trkpt>
      <trkpt lat="35.488954" lon="139.662317"></trkpt>
      <trkpt lat="35.488959" lon="139.662433"></trkpt>
      <trkpt lat="35.488958" lon="139.662557"></trkpt>
      <trkpt lat="35.488954" lon="139.662694"></trkpt>
      <trkpt lat="35.488946" lon="139.662838"></trkpt>
      <trkpt lat="35.488901" lon="139.663368"></trkpt>
      <trkpt lat="35.488897" lon="139.663537"></trkpt>
      <trkpt lat="35.488895" lon="139.663715"></trkpt>
      <trkpt lat="35.488899" lon="139.663894"></trkpt>
      <trkpt lat="35.488909" lon="139.664075"></trkpt>
      <trkpt lat="35.488928" lon="139.664245"></trkpt>
      <trkpt lat="35.488954" lon="139.664419"></trkpt>
      <trkpt lat="35.488989" lon="139.664592"></trkpt>
      <trkpt lat="35.489025" lon="139.664748"></trkpt>
      <trkpt lat="35.489071" lon="139.664911"></trkpt>
      <trkpt lat="35.489126" lon="139.665078"></trkpt>
      <trkpt lat="35.489178" lon="139.665221"></trkpt>
      <trkpt lat="35.489382" lon="139.665722"></trkpt>
      <trkpt lat="35.490155" lon="139.667661"></trkpt>
      <trkpt lat="35.490546" lon="139.668642"></trkpt>
      <trkpt lat="35.490876" lon="139.669462"></trkpt>
      <trkpt lat="35.491235" lon="139.670328"></trkpt>
      <trkpt lat="35.491291" lon="139.67046"></trkpt>
      <trkpt lat="35.491347" lon="139.670587"></trkpt>
      <trkpt lat="35.491412" lon="139.670726"></trkpt>
      <trkpt lat="35.491555" lon="139.670998"></trkpt>
      <trkpt lat="35.491631" lon="139.67114"></trkpt>
      <trkpt lat="35.491788" lon="139.671458"></trkpt>
      <trkpt lat="35.491885" lon="139.67167"></trkpt>
      <trkpt lat="35.492003" lon="139.671934"></trkpt>
      <trkpt lat="35.492072" lon="139.672099"></trkpt>
      <trkpt lat="35.493488" lon="139.675719"></trkpt>
      <trkpt lat="35.49366" lon="139.676185"></trkpt>
      <trkpt lat="35.496913" lon="139.685036"></trkpt>
      <trkpt lat="35.497216" lon="139.685874"></trkpt>
      <trkpt lat="35.497344" lon="139.686234"></trkpt>
      <trkpt lat="35.497466" lon="139.686601"></trkpt>
      <trkpt lat="35.497575" lon="139.686962"></trkpt>
      <trkpt lat="35.497665" lon="139.687292"></trkpt>
      <trkpt lat="35.497741" lon="139.687586"></trkpt>
      <trkpt lat="35.497811" lon="139.68788"></trkpt>
      <trkpt lat="35.498296" lon="139.68993"></trkpt>
      <trkpt lat="35.498375" lon="139.69023"></trkpt>
      <trkpt lat="35.498454" lon="139.690504"></trkpt>
      <trkpt lat="35.49854" lon="139.69076"></trkpt>
      <trkpt lat="35.498633" lon="139.691"></trkpt>
      <trkpt lat="35.49874" lon="139.691249"></trkpt>
      <trkpt lat="35.499073" lon="139.691975"></trkpt>
      <trkpt lat="35.50026" lon="139.694604"></trkpt>
      <trkpt lat="35.501132" lon="139.696561"></trkpt>
      <trkpt lat="35.501405" lon="139.697148"></trkpt>
      <trkpt lat="35.501642" lon="139.697611"></trkpt>
      <trkpt lat="35.50187" lon="139.698003"></trkpt>
      <trkpt lat="35.502574" lon="139.699032"></trkpt>
      <trkpt lat="35.502964" lon="139.699578"></trkpt>
      <trkpt lat="35.503386" lon="139.700197"></trkpt>
      <trkpt lat="35.503552" lon="139.700462"></trkpt>
      <trkpt lat="35.503678" lon="139.700695"></trkpt>
      <trkpt lat="35.503795" lon="139.700943"></trkpt>
      <trkpt lat="35.503918" lon="139.701226"></trkpt>
      <trkpt lat="35.504302" lon="139.702248"></trkpt>
      <trkpt lat="35.504456" lon="139.702613"></trkpt>
      <trkpt lat="35.504668" lon="139.703055"></trkpt>
      <trkpt lat="35.504958" lon="139.703565"></trkpt>
      <trkpt lat="35.505106" lon="139.703804"></trkpt>
      <trkpt lat="35.507998" lon="139.708435"></trkpt>
      <trkpt lat="35.508139" lon="139.708678"></trkpt>
      <trkpt lat="35.508259" lon="139.708909"></trkpt>
      <trkpt lat="35.508448" lon="139.709282"></trkpt>
      <trkpt lat="35.508804" lon="139.710075"></trkpt>
      <trkpt lat="35.50895" lon="139.710378"></trkpt>
      <trkpt lat="35.509098" lon="139.710636"></trkpt>
      <trkpt lat="35.509226" lon="139.710827"></trkpt>
      <trkpt lat="35.509324" lon="139.710956"></trkpt>
      <trkpt lat="35.50967" lon="139.711352"></trkpt>
      <trkpt lat="35.510016" lon="139.711754"></trkpt>
      <trkpt lat="35.510724" lon="139.712573"></trkpt>
      <trkpt lat="35.511239" lon="139.713184"></trkpt>
      <trkpt lat="35.51137" lon="139.713352"></trkpt>
      <trkpt lat="35.511488" lon="139.713522"></trkpt>
      <trkpt lat="35.511585" lon="139.713688"></trkpt>
      <trkpt lat="35.511686" lon="139.713878"></trkpt>
      <trkpt lat="35.511772" lon="139.714062"></trkpt>
      <trkpt lat="35.511849" lon="139.714251"></trkpt>
      <trkpt lat="35.511934" lon="139.714483"></trkpt>
      <trkpt lat="35.512048" lon="139.714809"></trkpt>
      <trkpt lat="35.512915" lon="139.717379"></trkpt>
      <trkpt lat="35.513706" lon="139.719728"></trkpt>
      <trkpt lat="35.513979" lon="139.720527"></trkpt>
      <trkpt lat="35.514172" lon="139.721066"></trkpt>
      <trkpt lat="35.51424" lon="139.721248"></trkpt>
      <trkpt lat="35.514307" lon="139.721409"></trkpt>
      <trkpt lat="35.514378" lon="139.72156"></trkpt>
      <trkpt lat="35.514466" lon="139.721722"></trkpt>
      <trkpt lat="35.514564" lon="139.721885"></trkpt>
      <trkpt lat="35.514658" lon="139.722019"></trkpt>
      <trkpt lat="35.514786" lon="139.722177"></trkpt>
      <trkpt lat="35.514937" lon="139.722338"></trkpt>
      <trkpt lat="35.515181" lon="139.722572"></trkpt>
      <trkpt lat="35.515823" lon="139.723098"></trkpt>
      <trkpt lat="35.516731" lon="139.723836"></trkpt>
      <trkpt lat="35.517746" lon="139.724665"></trkpt>
      <trkpt lat="35.518028" lon="139.724924"></trkpt>
      <trkpt lat="35.518236" lon="139.725133"></trkpt>
      <trkpt lat="35.518436" lon="139.725352"></trkpt>
      <trkpt lat="35.518599" lon="139.725546"></trkpt>
      <trkpt lat="35.518637" lon="139.725591"></trkpt>
      <trkpt lat="35.518945" lon="139.726003"></trkpt>
      <trkpt lat="35.519245" lon="139.726425"></trkpt>
      <trkpt lat="35.519843" lon="139.727277"></trkpt>
      <trkpt lat="35.520422" lon="139.728097"></trkpt>
      <trkpt lat="35.521016" lon="139.728941"></trkpt>
      <trkpt lat="35.522248" lon="139.730682"></trkpt>
      <trkpt lat="35.522847" lon="139.731539"></trkpt>
      <trkpt lat="35.523454" lon="139.732382"></trkpt>
      <trkpt lat="35.524829" lon="139.734337"></trkpt>
      <trkpt lat="35.525501" lon="139.735283"></trkpt>
      <trkpt lat="35.526052" lon="139.736062"></trkpt>
      <trkpt lat="35.526232" lon="139.736283"></trkpt>
      <trkpt lat="35.526424" lon="139.736505"></trkpt>
      <trkpt lat="35.526558" lon="139.73664"></trkpt>
      <trkpt lat="35.526692" lon="139.736765"></trkpt>
      <trkpt lat="35.526908" lon="139.736952"></trkpt>
      <trkpt lat="35.527198" lon="139.737163"></trkpt>
      <trkpt lat="35.527954" lon="139.73765"></trkpt>
      <trkpt lat="35.528814" lon="139.738202"></trkpt>
      <trkpt lat="35.530428" lon="139.739222"></trkpt>
      <trkpt lat="35.531648" lon="139.739991"></trkpt>
      <trkpt lat="35.53242" lon="139.740487"></trkpt>
      <trkpt lat="35.533202" lon="139.740985"></trkpt>
      <trkpt lat="35.533352" lon="139.741076"></trkpt>
      <trkpt lat="35.533512" lon="139.74116"></trkpt>
      <trkpt lat="35.533658" lon="139.741228"></trkpt>
      <trkpt lat="35.53375" lon="139.741266"></trkpt>
      <trkpt lat="35.53384" lon="139.741295"></trkpt>
      <trkpt lat="35.53395" lon="139.741329"></trkpt>
      <trkpt lat="35.53406" lon="139.741357"></trkpt>
      <trkpt lat="35.534159" lon="139.741377"></trkpt>
      <trkpt lat="35.534234" lon="139.74139"></trkpt>
      <trkpt lat="35.534316" lon="139.7414"></trkpt>
      <trkpt lat="35.534411" lon="139.741405"></trkpt>
      <trkpt lat="35.534541" lon="139.741408"></trkpt>
      <trkpt lat="35.534875" lon="139.741406"></trkpt>
      <trkpt lat="35.536509" lon="139.74135"></trkpt>
      <trkpt lat="35.539216" lon="139.74128"></trkpt>
      <trkpt lat="35.539908" lon="139.741268"></trkpt>
      <trkpt lat="35.540103" lon="139.74127"></trkpt>
      <trkpt lat="35.540236" lon="139.741279"></trkpt>
      <trkpt lat="35.540361" lon="139.741296"></trkpt>
      <trkpt lat="35.540484" lon="139.741318"></trkpt>
      <trkpt lat="35.540603" lon="139.741349"></trkpt>
      <trkpt lat="35.540726" lon="139.74139"></trkpt>
      <trkpt lat="35.540921" lon="139.741461"></trkpt>
      <trkpt lat="35.541138" lon="139.741553"></trkpt>
      <trkpt lat="35.544005" lon="139.74287"></trkpt>
      <trkpt lat="35.544365" lon="139.74303"></trkpt>
      <trkpt lat="35.544676" lon="139.743154"></trkpt>
      <trkpt lat="35.544883" lon="139.743227"></trkpt>
      <trkpt lat="35.545049" lon="139.743278"></trkpt>
      <trkpt lat="35.545226" lon="139.743321"></trkpt>
      <trkpt lat="35.545415" lon="139.743363"></trkpt>
      <trkpt lat="35.545621" lon="139.743399"></trkpt>
      <trkpt lat="35.545779" lon="139.743422"></trkpt>
      <trkpt lat="35.545976" lon="139.743449"></trkpt>
      <trkpt lat="35.546977" lon="139.743567"></trkpt>
      <trkpt lat="35.547283" lon="139.74361"></trkpt>
      <trkpt lat="35.547608" lon="139.743685"></trkpt>
      <trkpt lat="35.547914" lon="139.743777"></trkpt>
      <trkpt lat="35.548276" lon="139.743907"></trkpt>
      <trkpt lat="35.548543" lon="139.744014"></trkpt>
      <trkpt lat="35.548764" lon="139.7441"></trkpt>
      <trkpt lat="35.549105" lon="139.744247"></trkpt>
      <trkpt lat="35.549837" lon="139.744671"></trkpt>
      <trkpt lat="35.550519" lon="139.744989"></trkpt>
      <trkpt lat="35.551297" lon="139.745329"></trkpt>
      <trkpt lat="35.551684" lon="139.74548"></trkpt>
      <trkpt lat="35.551763" lon="139.745509"></trkpt>
      <trkpt lat="35.551771" lon="139.745398"></trkpt>
      <trkpt lat="35.551783" lon="139.745323"></trkpt>
      <trkpt lat="35.551819" lon="139.745043"></trkpt>
      <trkpt lat="35.551889" lon="139.744552"></trkpt>
      <trkpt lat="35.552001" lon="139.743748"></trkpt>
      <trkpt lat="35.552041" lon="139.743408"></trkpt>
      <trkpt lat="35.552077" lon="139.743054"></trkpt>
      <trkpt lat="35.552111" lon="139.742743"></trkpt>
      <trkpt lat="35.552145" lon="139.742414"></trkpt>
      <trkpt lat="35.552172" lon="139.742146"></trkpt>
      <trkpt lat="35.552189" lon="139.741972"></trkpt>
      <trkpt lat="35.552199" lon="139.741862"></trkpt>
      <trkpt lat="35.552206" lon="139.741752"></trkpt>
      <trkpt lat="35.552259" lon="139.741185"></trkpt>
      <trkpt lat="35.552299" lon="139.740714"></trkpt>
      <trkpt lat="35.552308" lon="139.740629"></trkpt>
      <trkpt lat="35.552314" lon="139.740448"></trkpt>
      <trkpt lat="35.552312" lon="139.740321"></trkpt>
      <trkpt lat="35.552302" lon="139.740156"></trkpt>
      <trkpt lat="35.55229" lon="139.739949"></trkpt>
      <trkpt lat="35.552283" lon="139.73979"></trkpt>
      <trkpt lat="35.552277" lon="139.739678"></trkpt>
      <trkpt lat="35.552283" lon="139.739452"></trkpt>
      <trkpt lat="35.552287" lon="139.739412"></trkpt>
      <trkpt lat="35.552311" lon="139.739124"></trkpt>
      <trkpt lat="35.552365" lon="139.738691"></trkpt>
      <trkpt lat="35.552398" lon="139.738424"></trkpt>
      <trkpt lat="35.552408" lon="139.738321"></trkpt>
      <trkpt lat="35.552451" lon="139.737913"></trkpt>
      <trkpt lat="35.552475" lon="139.737687"></trkpt>
      <trkpt lat="35.552574" lon="139.736695"></trkpt>
      <trkpt lat="35.552612" lon="139.736374"></trkpt>
      <trkpt lat="35.552632" lon="139.736203"></trkpt>
      <trkpt lat="35.552666" lon="139.735827"></trkpt>
      <trkpt lat="35.552682" lon="139.735693"></trkpt>
      <trkpt lat="35.5527" lon="139.735573"></trkpt>
      <trkpt lat="35.552707" lon="139.735494"></trkpt>
      <trkpt lat="35.552725" lon="139.73528"></trkpt>
      <trkpt lat="35.552743" lon="139.735116"></trkpt>
      <trkpt lat="35.552798" lon="139.734599"></trkpt>
      <trkpt lat="35.552727" lon="139.734611"></trkpt>
      <trkpt lat="35.552247" lon="139.734683"></trkpt>
      <trkpt lat="35.552204" lon="139.734689"></trkpt>
      <trkpt lat="35.551762" lon="139.73474"></trkpt>
      <trkpt lat="35.551304" lon="139.734804"></trkpt>
      <trkpt lat="35.551257" lon="139.734807"></trkpt>
      <trkpt lat="35.551229" lon="139.734811"></trkpt>
      <trkpt lat="35.551195" lon="139.734811"></trkpt>
      <trkpt lat="35.550753" lon="139.734812"></trkpt>
      <trkpt lat="35.550628" lon="139.734813"></trkpt>
      <trkpt lat="35.550582" lon="139.734813"></trkpt>
      <trkpt lat="35.550266" lon="139.734809"></trkpt>
      <trkpt lat="35.549961" lon="139.734809"></trkpt>
      <trkpt lat="35.549489" lon="139.734811"></trkpt>
      <trkpt lat="35.549442" lon="139.734809"></trkpt>
      <trkpt lat="35.549398" lon="139.734807"></trkpt>
      <trkpt lat="35.548679" lon="139.734745"></trkpt>
      <trkpt lat="35.548646" lon="139.734744"></trkpt>
      <trkpt lat="35.548516" lon="139.734731"></trkpt>
      <trkpt lat="35.548422" lon="139.734721"></trkpt>
      <trkpt lat="35.54793" lon="139.734681"></trkpt>
      <trkpt lat="35.547723" lon="139.734666"></trkpt>
      <trkpt lat="35.547418" lon="139.73464"></trkpt>
      <trkpt lat="35.547249" lon="139.734626"></trkpt>
      <trkpt lat="35.547172" lon="139.734619"></trkpt>
      <trkpt lat="35.547083" lon="139.734624"></trkpt>
      <trkpt lat="35.546958" lon="139.734644"></trkpt>
      <trkpt lat="35.546832" lon="139.734653"></trkpt>
      <trkpt lat="35.546555" lon="139.734692"></trkpt>
      <trkpt lat="35.546321" lon="139.734725"></trkpt>
      <trkpt lat="35.546275" lon="139.73473"></trkpt>
      <trkpt lat="35.546223" lon="139.734737"></trkpt>
      <trkpt lat="35.545577" lon="139.734821"></trkpt>
      <trkpt lat="35.545552" lon="139.734824"></trkpt>
      <trkpt lat="35.545552" lon="139.734824"></trkpt>
      <trkpt lat="35.545577" lon="139.734821"></trkpt>
      <trkpt lat="35.546223" lon="139.734737"></trkpt>
      <trkpt lat="35.546275" lon="139.73473"></trkpt>
      <trkpt lat="35.546262" lon="139.734801"></trkpt>
      <trkpt lat="35.546252" lon="139.73486"></trkpt>
      <trkpt lat="35.546117" lon="139.735653"></trkpt>
      <trkpt lat="35.54611" lon="139.735694"></trkpt>
      <trkpt lat="35.546098" lon="139.735764"></trkpt>
      <trkpt lat="35.546148" lon="139.735778"></trkpt>
      <trkpt lat="35.54632" lon="139.735829"></trkpt>
      <trkpt lat="35.546572" lon="139.735903"></trkpt>
      <trkpt lat="35.546631" lon="139.735921"></trkpt>
      <trkpt lat="35.546689" lon="139.735942"></trkpt>
      <trkpt lat="35.54666" lon="139.736093"></trkpt>
      <trkpt lat="35.546639" lon="139.736213"></trkpt>
      <trkpt lat="35.546595" lon="139.736489"></trkpt>
      <trkpt lat="35.546582" lon="139.736582"></trkpt>
      <trkpt lat="35.546566" lon="139.736661"></trkpt>
      <trkpt lat="35.546563" lon="139.736677"></trkpt>
      <trkpt lat="35.546465" lon="139.737086"></trkpt>
      <trkpt lat="35.546291" lon="139.737923"></trkpt>
      <trkpt lat="35.546091" lon="139.739079"></trkpt>
      <trkpt lat="35.546081" lon="139.739135"></trkpt>
      <trkpt lat="35.546026" lon="139.739524"></trkpt>
      <trkpt lat="35.546025" lon="139.739727"></trkpt>
      <trkpt lat="35.546025" lon="139.739933"></trkpt>
      <trkpt lat="35.546028" lon="139.740262"></trkpt>
      <trkpt lat="35.54602" lon="139.740485"></trkpt>
      <trkpt lat="35.545936" lon="139.740856"></trkpt>
      <trkpt lat="35.545934" lon="139.740981"></trkpt>
      <trkpt lat="35.545937" lon="139.741025"></trkpt>
      <trkpt lat="35.546024" lon="139.741026"></trkpt>
      <trkpt lat="35.546074" lon="139.741027"></trkpt>
      <trkpt lat="35.546314" lon="139.741017"></trkpt>
      <trkpt lat="35.54662" lon="139.741005"></trkpt>
      <trkpt lat="35.546876" lon="139.740988"></trkpt>
      <trkpt lat="35.547015" lon="139.740979"></trkpt>
      <trkpt lat="35.547052" lon="139.740977"></trkpt>
      <trkpt lat="35.54707" lon="139.740976"></trkpt>
      <trkpt lat="35.547199" lon="139.741092"></trkpt>
      <trkpt lat="35.547254" lon="139.741088"></trkpt>
      <trkpt lat="35.547286" lon="139.741083"></trkpt>
      <trkpt lat="35.547492" lon="139.741061"></trkpt>
      <trkpt lat="35.54786" lon="139.741013"></trkpt>
      <trkpt lat="35.54848" lon="139.740935"></trkpt>
      <trkpt lat="35.548935" lon="139.740886"></trkpt>
      <trkpt lat="35.549005" lon="139.740883"></trkpt>
      <trkpt lat="35.549119" lon="139.740866"></trkpt>
      <trkpt lat="35.549237" lon="139.74085"></trkpt>
      <trkpt lat="35.549641" lon="139.740807"></trkpt>
      <trkpt lat="35.550012" lon="139.740771"></trkpt>
      <trkpt lat="35.550176" lon="139.740752"></trkpt>
      <trkpt lat="35.550285" lon="139.74074"></trkpt>
      <trkpt lat="35.550425" lon="139.740724"></trkpt>
      <trkpt lat="35.550761" lon="139.740685"></trkpt>
      <trkpt lat="35.550853" lon="139.740672"></trkpt>
      <trkpt lat="35.550959" lon="139.740662"></trkpt>
      <trkpt lat="35.551094" lon="139.74064"></trkpt>
      <trkpt lat="35.551277" lon="139.740602"></trkpt>
      <trkpt lat="35.551359" lon="139.740582"></trkpt>
      <trkpt lat="35.551489" lon="139.740545"></trkpt>
      <trkpt lat="35.551725" lon="139.740486"></trkpt>
      <trkpt lat="35.551863" lon="139.740454"></trkpt>
      <trkpt lat="35.552127" lon="139.740373"></trkpt>
      <trkpt lat="35.552178" lon="139.740362"></trkpt>
      <trkpt lat="35.552312" lon="139.740321"></trkpt>
      <trkpt lat="35.552403" lon="139.740289"></trkpt>
      <trkpt lat="35.552413" lon="139.740412"></trkpt>
      <trkpt lat="35.552412" lon="139.740589"></trkpt>
      <trkpt lat="35.552396" lon="139.740961"></trkpt>
      <trkpt lat="35.552372" lon="139.741196"></trkpt>
      <trkpt lat="35.552328" lon="139.741635"></trkpt>
      <trkpt lat="35.552316" lon="139.74176"></trkpt>
      <trkpt lat="35.552306" lon="139.741922"></trkpt>
      <trkpt lat="35.552256" lon="139.742436"></trkpt>
      <trkpt lat="35.552189" lon="139.743144"></trkpt>
      <trkpt lat="35.55215" lon="139.743493"></trkpt>
      <trkpt lat="35.552101" lon="139.743852"></trkpt>
      <trkpt lat="35.551996" lon="139.744599"></trkpt>
      <trkpt lat="35.551885" lon="139.745344"></trkpt>
      <trkpt lat="35.551873" lon="139.745435"></trkpt>
      <trkpt lat="35.551859" lon="139.745543"></trkpt>
      <trkpt lat="35.551901" lon="139.745559"></trkpt>
      <trkpt lat="35.552279" lon="139.745699"></trkpt>
      <trkpt lat="35.553376" lon="139.746111"></trkpt>
      <trkpt lat="35.553714" lon="139.746235"></trkpt>
      <trkpt lat="35.553875" lon="139.746305"></trkpt>
      <trkpt lat="35.553981" lon="139.746366"></trkpt>
      <trkpt lat="35.554079" lon="139.746438"></trkpt>
      <trkpt lat="35.554147" lon="139.746498"></trkpt>
      <trkpt lat="35.554349" lon="139.746707"></trkpt>
      <trkpt lat="35.55439" lon="139.746769"></trkpt>
      <trkpt lat="35.554431" lon="139.746839"></trkpt>
      <trkpt lat="35.554484" lon="139.746938"></trkpt>
      <trkpt lat="35.55463" lon="139.747229"></trkpt>
      <trkpt lat="35.555165" lon="139.748384"></trkpt>
      <trkpt lat="35.555658" lon="139.749481"></trkpt>
      <trkpt lat="35.556975" lon="139.752676"></trkpt>
      <trkpt lat="35.557052" lon="139.75285"></trkpt>
      <trkpt lat="35.557129" lon="139.753005"></trkpt>
      <trkpt lat="35.557194" lon="139.753119"></trkpt>
      <trkpt lat="35.55725" lon="139.753213"></trkpt>
      <trkpt lat="35.557309" lon="139.753302"></trkpt>
      <trkpt lat="35.55737" lon="139.753382"></trkpt>
      <trkpt lat="35.557438" lon="139.75346"></trkpt>
      <trkpt lat="35.557513" lon="139.753539"></trkpt>
      <trkpt lat="35.557605" lon="139.753624"></trkpt>
      <trkpt lat="35.557695" lon="139.753694"></trkpt>
      <trkpt lat="35.557784" lon="139.753752"></trkpt>
      <trkpt lat="35.557885" lon="139.753811"></trkpt>
      <trkpt lat="35.558017" lon="139.753872"></trkpt>
      <trkpt lat="35.558524" lon="139.75405"></trkpt>
      <trkpt lat="35.55914" lon="139.754237"></trkpt>
      <trkpt lat="35.559397" lon="139.754309"></trkpt>
      <trkpt lat="35.559682" lon="139.754381"></trkpt>
      <trkpt lat="35.559915" lon="139.754425"></trkpt>
      <trkpt lat="35.560119" lon="139.754457"></trkpt>
      <trkpt lat="35.560323" lon="139.754467"></trkpt>
      <trkpt lat="35.560538" lon="139.754463"></trkpt>
      <trkpt lat="35.560777" lon="139.75444"></trkpt>
      <trkpt lat="35.560934" lon="139.754408"></trkpt>
      <trkpt lat="35.561107" lon="139.75436"></trkpt>
      <trkpt lat="35.561266" lon="139.754301"></trkpt>
      <trkpt lat="35.561423" lon="139.754224"></trkpt>
      <trkpt lat="35.561559" lon="139.754145"></trkpt>
      <trkpt lat="35.561792" lon="139.753979"></trkpt>
      <trkpt lat="35.562138" lon="139.753705"></trkpt>
      <trkpt lat="35.562473" lon="139.753422"></trkpt>
      <trkpt lat="35.563402" lon="139.752571"></trkpt>
      <trkpt lat="35.564505" lon="139.751611"></trkpt>
      <trkpt lat="35.565086" lon="139.751084"></trkpt>
      <trkpt lat="35.565344" lon="139.750846"></trkpt>
      <trkpt lat="35.565797" lon="139.750392"></trkpt>
      <trkpt lat="35.566194" lon="139.749987"></trkpt>
      <trkpt lat="35.566728" lon="139.749507"></trkpt>
      <trkpt lat="35.566947" lon="139.749337"></trkpt>
      <trkpt lat="35.567165" lon="139.749194"></trkpt>
      <trkpt lat="35.56741" lon="139.749059"></trkpt>
      <trkpt lat="35.567636" lon="139.74895"></trkpt>
      <trkpt lat="35.567861" lon="139.748856"></trkpt>
      <trkpt lat="35.568072" lon="139.748777"></trkpt>
      <trkpt lat="35.56829" lon="139.748713"></trkpt>
      <trkpt lat="35.568524" lon="139.748663"></trkpt>
      <trkpt lat="35.568762" lon="139.74863"></trkpt>
      <trkpt lat="35.568885" lon="139.748619"></trkpt>
      <trkpt lat="35.568952" lon="139.748613"></trkpt>
      <trkpt lat="35.569079" lon="139.748605"></trkpt>
      <trkpt lat="35.569176" lon="139.748602"></trkpt>
      <trkpt lat="35.569264" lon="139.748603"></trkpt>
      <trkpt lat="35.569622" lon="139.748574"></trkpt>
      <trkpt lat="35.569795" lon="139.748578"></trkpt>
      <trkpt lat="35.569954" lon="139.748596"></trkpt>
      <trkpt lat="35.570112" lon="139.748626"></trkpt>
      <trkpt lat="35.570715" lon="139.748759"></trkpt>
      <trkpt lat="35.571749" lon="139.748937"></trkpt>
      <trkpt lat="35.571995" lon="139.748983"></trkpt>
      <trkpt lat="35.572172" lon="139.749029"></trkpt>
      <trkpt lat="35.572327" lon="139.74909"></trkpt>
      <trkpt lat="35.57247" lon="139.749164"></trkpt>
      <trkpt lat="35.572612" lon="139.749261"></trkpt>
      <trkpt lat="35.57275" lon="139.749385"></trkpt>
      <trkpt lat="35.572874" lon="139.749538"></trkpt>
      <trkpt lat="35.572996" lon="139.749731"></trkpt>
      <trkpt lat="35.573132" lon="139.749993"></trkpt>
      <trkpt lat="35.573472" lon="139.7507"></trkpt>
      <trkpt lat="35.573573" lon="139.750859"></trkpt>
      <trkpt lat="35.573683" lon="139.751008"></trkpt>
      <trkpt lat="35.573781" lon="139.751131"></trkpt>
      <trkpt lat="35.576983" lon="139.754501"></trkpt>
      <trkpt lat="35.577309" lon="139.754837"></trkpt>
      <trkpt lat="35.577642" lon="139.755162"></trkpt>
      <trkpt lat="35.577865" lon="139.755354"></trkpt>
      <trkpt lat="35.577967" lon="139.755439"></trkpt>
      <trkpt lat="35.578194" lon="139.755596"></trkpt>
      <trkpt lat="35.578414" lon="139.755731"></trkpt>
      <trkpt lat="35.578637" lon="139.755852"></trkpt>
      <trkpt lat="35.578844" lon="139.75595"></trkpt>
      <trkpt lat="35.579048" lon="139.756031"></trkpt>
      <trkpt lat="35.579241" lon="139.756097"></trkpt>
      <trkpt lat="35.579447" lon="139.756152"></trkpt>
      <trkpt lat="35.579662" lon="139.756194"></trkpt>
      <trkpt lat="35.579875" lon="139.756221"></trkpt>
      <trkpt lat="35.580109" lon="139.756232"></trkpt>
      <trkpt lat="35.580326" lon="139.756231"></trkpt>
      <trkpt lat="35.580547" lon="139.756214"></trkpt>
      <trkpt lat="35.580782" lon="139.756183"></trkpt>
      <trkpt lat="35.581003" lon="139.75614"></trkpt>
      <trkpt lat="35.5812" lon="139.756097"></trkpt>
      <trkpt lat="35.581483" lon="139.756027"></trkpt>
      <trkpt lat="35.582704" lon="139.755648"></trkpt>
      <trkpt lat="35.583011" lon="139.755565"></trkpt>
      <trkpt lat="35.583321" lon="139.755491"></trkpt>
      <trkpt lat="35.583674" lon="139.755408"></trkpt>
      <trkpt lat="35.584013" lon="139.755333"></trkpt>
      <trkpt lat="35.584359" lon="139.755264"></trkpt>
      <trkpt lat="35.584614" lon="139.755221"></trkpt>
      <trkpt lat="35.584852" lon="139.755192"></trkpt>
      <trkpt lat="35.585126" lon="139.755177"></trkpt>
      <trkpt lat="35.58577" lon="139.75519"></trkpt>
      <trkpt lat="35.587111" lon="139.755182"></trkpt>
      <trkpt lat="35.587268" lon="139.75513"></trkpt>
      <trkpt lat="35.588209" lon="139.755069"></trkpt>
      <trkpt lat="35.589577" lon="139.755048"></trkpt>
      <trkpt lat="35.59032" lon="139.755032"></trkpt>
      <trkpt lat="35.591044" lon="139.754938"></trkpt>
      <trkpt lat="35.591473" lon="139.754931"></trkpt>
      <trkpt lat="35.591783" lon="139.754847"></trkpt>
      <trkpt lat="35.592684" lon="139.754843"></trkpt>
      <trkpt lat="35.593327" lon="139.754832"></trkpt>
      <trkpt lat="35.595248" lon="139.754841"></trkpt>
      <trkpt lat="35.595553" lon="139.754834"></trkpt>
      <trkpt lat="35.598087" lon="139.754857"></trkpt>
      <trkpt lat="35.598903" lon="139.754861"></trkpt>
      <trkpt lat="35.601815" lon="139.754874"></trkpt>
      <trkpt lat="35.601981" lon="139.754911"></trkpt>
      <trkpt lat="35.602659" lon="139.754979"></trkpt>
      <trkpt lat="35.609123" lon="139.755019"></trkpt>
      <trkpt lat="35.609877" lon="139.755032"></trkpt>
      <trkpt lat="35.610143" lon="139.755066"></trkpt>
      <trkpt lat="35.610372" lon="139.755096"></trkpt>
      <trkpt lat="35.610561" lon="139.755145"></trkpt>
      <trkpt lat="35.610737" lon="139.755196"></trkpt>
      <trkpt lat="35.611181" lon="139.755341"></trkpt>
      <trkpt lat="35.61147" lon="139.755497"></trkpt>
      <trkpt lat="35.611748" lon="139.755648"></trkpt>
      <trkpt lat="35.612021" lon="139.755828"></trkpt>
      <trkpt lat="35.61217" lon="139.755943"></trkpt>
      <trkpt lat="35.61241" lon="139.756156"></trkpt>
      <trkpt lat="35.612614" lon="139.756347"></trkpt>
      <trkpt lat="35.612839" lon="139.756586"></trkpt>
      <trkpt lat="35.613364" lon="139.75722"></trkpt>
      <trkpt lat="35.622637" lon="139.769473"></trkpt>
      <trkpt lat="35.624087" lon="139.771388"></trkpt>
      <trkpt lat="35.624664" lon="139.77215"></trkpt>
      <trkpt lat="35.62487" lon="139.772438"></trkpt>
      <trkpt lat="35.625219" lon="139.772967"></trkpt>
      <trkpt lat="35.625292" lon="139.773082"></trkpt>
      <trkpt lat="35.625495" lon="139.773406"></trkpt>
      <trkpt lat="35.625692" lon="139.773714"></trkpt>
      <trkpt lat="35.625828" lon="139.773943"></trkpt>
      <trkpt lat="35.625975" lon="139.774197"></trkpt>
      <trkpt lat="35.627227" lon="139.776496"></trkpt>
      <trkpt lat="35.627573" lon="139.777106"></trkpt>
      <trkpt lat="35.627908" lon="139.777661"></trkpt>
      <trkpt lat="35.628259" lon="139.778218"></trkpt>
      <trkpt lat="35.628513" lon="139.778629"></trkpt>
      <trkpt lat="35.628819" lon="139.77913"></trkpt>
      <trkpt lat="35.629309" lon="139.779989"></trkpt>
      <trkpt lat="35.629376" lon="139.780107"></trkpt>
      <trkpt lat="35.629527" lon="139.780383"></trkpt>
      <trkpt lat="35.629838" lon="139.780917"></trkpt>
      <trkpt lat="35.629973" lon="139.781174"></trkpt>
      <trkpt lat="35.630098" lon="139.781394"></trkpt>
      <trkpt lat="35.630288" lon="139.781744"></trkpt>
      <trkpt lat="35.631383" lon="139.783755"></trkpt>
      <trkpt lat="35.632521" lon="139.785889"></trkpt>
      <trkpt lat="35.632593" lon="139.786023"></trkpt>
      <trkpt lat="35.632689" lon="139.785943"></trkpt>
      <trkpt lat="35.633125" lon="139.78558"></trkpt>
      <trkpt lat="35.633371" lon="139.785375"></trkpt>
      <trkpt lat="35.633963" lon="139.784881"></trkpt>
      <trkpt lat="35.634215" lon="139.784676"></trkpt>
      <trkpt lat="35.634322" lon="139.784563"></trkpt>
      <trkpt lat="35.634434" lon="139.784407"></trkpt>
      <trkpt lat="35.634476" lon="139.784342"></trkpt>
      <trkpt lat="35.634545" lon="139.784216"></trkpt>
      <trkpt lat="35.634601" lon="139.784082"></trkpt>
      <trkpt lat="35.634652" lon="139.783947"></trkpt>
      <trkpt lat="35.634779" lon="139.783579"></trkpt>
      <trkpt lat="35.634837" lon="139.783383"></trkpt>
      <trkpt lat="35.63495" lon="139.783004"></trkpt>
      <trkpt lat="35.635045" lon="139.782755"></trkpt>
      <trkpt lat="35.635141" lon="139.782552"></trkpt>
      <trkpt lat="35.635257" lon="139.782372"></trkpt>
      <trkpt lat="35.63534" lon="139.782243"></trkpt>
      <trkpt lat="35.635438" lon="139.78212"></trkpt>
      <trkpt lat="35.635522" lon="139.782014"></trkpt>
      <trkpt lat="35.635727" lon="139.781817"></trkpt>
      <trkpt lat="35.637003" lon="139.780779"></trkpt>
      <trkpt lat="35.637299" lon="139.780538"></trkpt>
      <trkpt lat="35.637455" lon="139.780432"></trkpt>
      <trkpt lat="35.637664" lon="139.780317"></trkpt>
      <trkpt lat="35.637792" lon="139.780267"></trkpt>
      <trkpt lat="35.63791" lon="139.78023"></trkpt>
      <trkpt lat="35.639674" lon="139.779729"></trkpt>
      <trkpt lat="35.639897" lon="139.779671"></trkpt>
      <trkpt lat="35.640078" lon="139.779633"></trkpt>
      <trkpt lat="35.640204" lon="139.779615"></trkpt>
      <trkpt lat="35.64036" lon="139.779601"></trkpt>
      <trkpt lat="35.640504" lon="139.779601"></trkpt>
      <trkpt lat="35.640658" lon="139.77961"></trkpt>
      <trkpt lat="35.640846" lon="139.77964"></trkpt>
      <trkpt lat="35.641029" lon="139.779682"></trkpt>
      <trkpt lat="35.641393" lon="139.779826"></trkpt>
      <trkpt lat="35.641613" lon="139.779948"></trkpt>
      <trkpt lat="35.641816" lon="139.780084"></trkpt>
      <trkpt lat="35.641978" lon="139.780224"></trkpt>
      <trkpt lat="35.642141" lon="139.780383"></trkpt>
      <trkpt lat="35.642278" lon="139.780546"></trkpt>
      <trkpt lat="35.642386" lon="139.780684"></trkpt>
      <trkpt lat="35.643334" lon="139.782079"></trkpt>
      <trkpt lat="35.644024" lon="139.783101"></trkpt>
      <trkpt lat="35.644104" lon="139.783221"></trkpt>
      <trkpt lat="35.644153" lon="139.783296"></trkpt>
      <trkpt lat="35.644292" lon="139.783499"></trkpt>
      <trkpt lat="35.644468" lon="139.78376"></trkpt>
      <trkpt lat="35.644642" lon="139.784015"></trkpt>
      <trkpt lat="35.644708" lon="139.784114"></trkpt>
      <trkpt lat="35.644968" lon="139.784496"></trkpt>
      <trkpt lat="35.645048" lon="139.784607"></trkpt>
      <trkpt lat="35.645165" lon="139.784497"></trkpt>
      <trkpt lat="35.646463" lon="139.783365"></trkpt>
      <trkpt lat="35.646581" lon="139.783275"></trkpt>
      <trkpt lat="35.646848" lon="139.783071"></trkpt>
      <trkpt lat="35.651072" lon="139.779332"></trkpt>
      <trkpt lat="35.651644" lon="139.778799"></trkpt>
      <trkpt lat="35.652127" lon="139.778335"></trkpt>
      <trkpt lat="35.652455" lon="139.77802"></trkpt>
      <trkpt lat="35.652547" lon="139.77793"></trkpt>
      <trkpt lat="35.65272" lon="139.777765"></trkpt>
      <trkpt lat="35.652818" lon="139.777909"></trkpt>
      <trkpt lat="35.652643" lon="139.778074"></trkpt>
      <trkpt lat="35.652552" lon="139.778164"></trkpt>
      <trkpt lat="35.652377" lon="139.778339"></trkpt>
      <trkpt lat="35.651725" lon="139.778933"></trkpt>
      <trkpt lat="35.651152" lon="139.779447"></trkpt>
      <trkpt lat="35.649408" lon="139.780983"></trkpt>
      <trkpt lat="35.646907" lon="139.783186"></trkpt>
      <trkpt lat="35.645263" lon="139.784654"></trkpt>
      <trkpt lat="35.645155" lon="139.784761"></trkpt>
      <trkpt lat="35.645052" lon="139.78485"></trkpt>
      <trkpt lat="35.644947" lon="139.784695"></trkpt>
      <trkpt lat="35.644866" lon="139.784576"></trkpt>
      <trkpt lat="35.644554" lon="139.784124"></trkpt>
      <trkpt lat="35.644159" lon="139.783546"></trkpt>
      <trkpt lat="35.644057" lon="139.783392"></trkpt>
      <trkpt lat="35.644007" lon="139.783319"></trkpt>
      <trkpt lat="35.643907" lon="139.783172"></trkpt>
      <trkpt lat="35.643733" lon="139.782911"></trkpt>
      <trkpt lat="35.64357" lon="139.782651"></trkpt>
      <trkpt lat="35.643246" lon="139.78217"></trkpt>
      <trkpt lat="35.642515" lon="139.781087"></trkpt>
      <trkpt lat="35.642292" lon="139.780758"></trkpt>
      <trkpt lat="35.642072" lon="139.780489"></trkpt>
      <trkpt lat="35.641762" lon="139.780198"></trkpt>
      <trkpt lat="35.641578" lon="139.780067"></trkpt>
      <trkpt lat="35.641502" lon="139.780022"></trkpt>
      <trkpt lat="35.641366" lon="139.779945"></trkpt>
      <trkpt lat="35.641025" lon="139.779804"></trkpt>
      <trkpt lat="35.640843" lon="139.779755"></trkpt>
      <trkpt lat="35.640656" lon="139.779721"></trkpt>
      <trkpt lat="35.640514" lon="139.77971"></trkpt>
      <trkpt lat="35.64037" lon="139.779708"></trkpt>
      <trkpt lat="35.640231" lon="139.779716"></trkpt>
      <trkpt lat="35.640092" lon="139.779731"></trkpt>
      <trkpt lat="35.639916" lon="139.779763"></trkpt>
      <trkpt lat="35.639695" lon="139.779824"></trkpt>
      <trkpt lat="35.637941" lon="139.780358"></trkpt>
      <trkpt lat="35.637706" lon="139.780468"></trkpt>
      <trkpt lat="35.637685" lon="139.780478"></trkpt>
      <trkpt lat="35.637518" lon="139.78057"></trkpt>
      <trkpt lat="35.637351" lon="139.780675"></trkpt>
      <trkpt lat="35.637038" lon="139.780916"></trkpt>
      <trkpt lat="35.636789" lon="139.781118"></trkpt>
      <trkpt lat="35.635799" lon="139.781929"></trkpt>
      <trkpt lat="35.635602" lon="139.782122"></trkpt>
      <trkpt lat="35.635528" lon="139.782213"></trkpt>
      <trkpt lat="35.635429" lon="139.782335"></trkpt>
      <trkpt lat="35.635344" lon="139.78246"></trkpt>
      <trkpt lat="35.635299" lon="139.782526"></trkpt>
      <trkpt lat="35.635187" lon="139.782724"></trkpt>
      <trkpt lat="35.635103" lon="139.782902"></trkpt>
      <trkpt lat="35.635025" lon="139.783118"></trkpt>
      <trkpt lat="35.634855" lon="139.783688"></trkpt>
      <trkpt lat="35.634789" lon="139.783891"></trkpt>
      <trkpt lat="35.634731" lon="139.784052"></trkpt>
      <trkpt lat="35.634673" lon="139.784186"></trkpt>
      <trkpt lat="35.634615" lon="139.784314"></trkpt>
      <trkpt lat="35.634545" lon="139.784216"></trkpt>
      <trkpt lat="35.63445" lon="139.784078"></trkpt>
      <trkpt lat="35.634337" lon="139.783919"></trkpt>
      <trkpt lat="35.634164" lon="139.783682"></trkpt>
      <trkpt lat="35.63386" lon="139.783297"></trkpt>
      <trkpt lat="35.633415" lon="139.782758"></trkpt>
      <trkpt lat="35.633166" lon="139.782456"></trkpt>
      <trkpt lat="35.632776" lon="139.782044"></trkpt>
      <trkpt lat="35.632519" lon="139.781814"></trkpt>
      <trkpt lat="35.632297" lon="139.78164"></trkpt>
      <trkpt lat="35.631945" lon="139.781396"></trkpt>
      <trkpt lat="35.631745" lon="139.781249"></trkpt>
      <trkpt lat="35.631551" lon="139.781104"></trkpt>
      <trkpt lat="35.631379" lon="139.780968"></trkpt>
      <trkpt lat="35.631194" lon="139.780814"></trkpt>
      <trkpt lat="35.631146" lon="139.780767"></trkpt>
      <trkpt lat="35.631061" lon="139.780687"></trkpt>
      <trkpt lat="35.630885" lon="139.780487"></trkpt>
      <trkpt lat="35.630723" lon="139.780301"></trkpt>
      <trkpt lat="35.630557" lon="139.780084"></trkpt>
      <trkpt lat="35.630383" lon="139.779834"></trkpt>
      <trkpt lat="35.630199" lon="139.77955"></trkpt>
      <trkpt lat="35.630151" lon="139.779465"></trkpt>
      <trkpt lat="35.630096" lon="139.779367"></trkpt>
      <trkpt lat="35.630035" lon="139.779249"></trkpt>
      <trkpt lat="35.629124" lon="139.777537"></trkpt>
      <trkpt lat="35.629037" lon="139.777372"></trkpt>
      <trkpt lat="35.629101" lon="139.777322"></trkpt>
      <trkpt lat="35.629148" lon="139.777285"></trkpt>
      <trkpt lat="35.629252" lon="139.777203"></trkpt>
      <trkpt lat="35.629951" lon="139.776652"></trkpt>
      <trkpt lat="35.630037" lon="139.776585"></trkpt>
      <trkpt lat="35.629974" lon="139.776461"></trkpt>
      <trkpt lat="35.629336" lon="139.77529"></trkpt>
      <trkpt lat="35.628994" lon="139.774665"></trkpt>
      <trkpt lat="35.628934" lon="139.774553"></trkpt>
      <trkpt lat="35.628874" lon="139.774443"></trkpt>
      <trkpt lat="35.628711" lon="139.77414"></trkpt>
      <trkpt lat="35.628768" lon="139.774094"></trkpt>
      <trkpt lat="35.62878" lon="139.774085"></trkpt>
      <trkpt lat="35.628983" lon="139.773921"></trkpt>
      <trkpt lat="35.629036" lon="139.773929"></trkpt>
      <trkpt lat="35.629067" lon="139.773985"></trkpt>
      <trkpt lat="35.629347" lon="139.774508"></trkpt>
      <trkpt lat="35.629331" lon="139.774594"></trkpt>
      <trkpt lat="35.62922" lon="139.774691"></trkpt>
      <trkpt lat="35.629434" lon="139.775101"></trkpt>
      <trkpt lat="35.629447" lon="139.775139"></trkpt>
    </trkseg>
  </trk>
</gpx>