<?xml version="1.0" encoding="UTF-8"?>
<gpx version="1.1" creator="TokyoCycling2026" xmlns="http://www.topografix.com/GPX/1/1">
  <metadata>
    <name>Day 4: 分支篇：清晨紅葉迴廊 ➔【情境A】五重塔+往西騎本棲湖浩庵 / 【情境B】補騎山中湖 / 【情境C】河口湖西湖漫遊</name>
    <desc>41.9 km | +461m / -422m</desc>
  </metadata>
  <trk>
    <name>Day 4: 分支篇：清晨紅葉迴廊 ➔【情境A】五重塔+往西騎本棲湖浩庵 / 【情境B】補騎山中湖 / 【情境C】河口湖西湖漫遊</name>
    <trkseg>
      <trkpt lat="35.527847" lon="138.760829"></trkpt>
      <trkpt lat="35.527817" lon="138.760869"></trkpt>
      <trkpt lat="35.527779" lon="138.760903"></trkpt>
      <trkpt lat="35.527718" lon="138.760959"></trkpt>
      <trkpt lat="35.527659" lon="138.761021"></trkpt>
      <trkpt lat="35.527612" lon="138.761115"></trkpt>
      <trkpt lat="35.527552" lon="138.761281"></trkpt>
      <trkpt lat="35.52751" lon="138.761377"></trkpt>
      <trkpt lat="35.527484" lon="138.761429"></trkpt>
      <trkpt lat="35.527445" lon="138.761471"></trkpt>
      <trkpt lat="35.527388" lon="138.761512"></trkpt>
      <trkpt lat="35.527325" lon="138.761551"></trkpt>
      <trkpt lat="35.527251" lon="138.761603"></trkpt>
      <trkpt lat="35.527169" lon="138.761684"></trkpt>
      <trkpt lat="35.527124" lon="138.76175"></trkpt>
      <trkpt lat="35.527071" lon="138.761827"></trkpt>
      <trkpt lat="35.527033" lon="138.761878"></trkpt>
      <trkpt lat="35.52671" lon="138.762168"></trkpt>
      <trkpt lat="35.526334" lon="138.761754"></trkpt>
      <trkpt lat="35.526258" lon="138.761662"></trkpt>
      <trkpt lat="35.526201" lon="138.761592"></trkpt>
      <trkpt lat="35.526026" lon="138.761407"></trkpt>
      <trkpt lat="35.525979" lon="138.761361"></trkpt>
      <trkpt lat="35.52594" lon="138.761336"></trkpt>
      <trkpt lat="35.52588" lon="138.761322"></trkpt>
      <trkpt lat="35.525821" lon="138.761316"></trkpt>
      <trkpt lat="35.525748" lon="138.761312"></trkpt>
      <trkpt lat="35.525741" lon="138.761404"></trkpt>
      <trkpt lat="35.525724" lon="138.761488"></trkpt>
      <trkpt lat="35.525701" lon="138.761577"></trkpt>
      <trkpt lat="35.525675" lon="138.761652"></trkpt>
      <trkpt lat="35.525635" lon="138.761734"></trkpt>
      <trkpt lat="35.525605" lon="138.761789"></trkpt>
      <trkpt lat="35.525439" lon="138.76202"></trkpt>
      <trkpt lat="35.525399" lon="138.762084"></trkpt>
      <trkpt lat="35.525333" lon="138.762192"></trkpt>
      <trkpt lat="35.525281" lon="138.76228"></trkpt>
      <trkpt lat="35.525228" lon="138.762387"></trkpt>
      <trkpt lat="35.525182" lon="138.7625"></trkpt>
      <trkpt lat="35.525148" lon="138.762595"></trkpt>
      <trkpt lat="35.525127" lon="138.762671"></trkpt>
      <trkpt lat="35.525107" lon="138.76274"></trkpt>
      <trkpt lat="35.525083" lon="138.762858"></trkpt>
      <trkpt lat="35.525027" lon="138.763241"></trkpt>
      <trkpt lat="35.524992" lon="138.763578"></trkpt>
      <trkpt lat="35.524985" lon="138.763647"></trkpt>
      <trkpt lat="35.524879" lon="138.764569"></trkpt>
      <trkpt lat="35.524839" lon="138.764742"></trkpt>
      <trkpt lat="35.524804" lon="138.764896"></trkpt>
      <trkpt lat="35.524652" lon="138.765279"></trkpt>
      <trkpt lat="35.5246" lon="138.765374"></trkpt>
      <trkpt lat="35.524434" lon="138.765688"></trkpt>
      <trkpt lat="35.524412" lon="138.765723"></trkpt>
      <trkpt lat="35.524327" lon="138.765864"></trkpt>
      <trkpt lat="35.524312" lon="138.765893"></trkpt>
      <trkpt lat="35.524261" lon="138.765984"></trkpt>
      <trkpt lat="35.524121" lon="138.766259"></trkpt>
      <trkpt lat="35.523987" lon="138.766593"></trkpt>
      <trkpt lat="35.523932" lon="138.766742"></trkpt>
      <trkpt lat="35.52391" lon="138.766815"></trkpt>
      <trkpt lat="35.523802" lon="138.767194"></trkpt>
      <trkpt lat="35.523655" lon="138.767735"></trkpt>
      <trkpt lat="35.523644" lon="138.767778"></trkpt>
      <trkpt lat="35.52361" lon="138.767898"></trkpt>
      <trkpt lat="35.523566" lon="138.768036"></trkpt>
      <trkpt lat="35.523521" lon="138.768161"></trkpt>
      <trkpt lat="35.523493" lon="138.768235"></trkpt>
      <trkpt lat="35.523464" lon="138.768287"></trkpt>
      <trkpt lat="35.523393" lon="138.76841"></trkpt>
      <trkpt lat="35.523378" lon="138.768434"></trkpt>
      <trkpt lat="35.523274" lon="138.76858"></trkpt>
      <trkpt lat="35.523241" lon="138.76862"></trkpt>
      <trkpt lat="35.523212" lon="138.768655"></trkpt>
      <trkpt lat="35.523129" lon="138.768749"></trkpt>
      <trkpt lat="35.52305" lon="138.768838"></trkpt>
      <trkpt lat="35.522872" lon="138.769016"></trkpt>
      <trkpt lat="35.522597" lon="138.769283"></trkpt>
      <trkpt lat="35.522397" lon="138.769477"></trkpt>
      <trkpt lat="35.522344" lon="138.769527"></trkpt>
      <trkpt lat="35.522173" lon="138.769696"></trkpt>
      <trkpt lat="35.522114" lon="138.769755"></trkpt>
      <trkpt lat="35.522059" lon="138.769806"></trkpt>
      <trkpt lat="35.521892" lon="138.769967"></trkpt>
      <trkpt lat="35.52185" lon="138.770007"></trkpt>
      <trkpt lat="35.521827" lon="138.770026"></trkpt>
      <trkpt lat="35.521727" lon="138.770115"></trkpt>
      <trkpt lat="35.521689" lon="138.770149"></trkpt>
      <trkpt lat="35.521592" lon="138.770237"></trkpt>
      <trkpt lat="35.521504" lon="138.770316"></trkpt>
      <trkpt lat="35.521567" lon="138.770434"></trkpt>
      <trkpt lat="35.52158" lon="138.770457"></trkpt>
      <trkpt lat="35.521658" lon="138.770621"></trkpt>
      <trkpt lat="35.521746" lon="138.770831"></trkpt>
      <trkpt lat="35.521803" lon="138.770997"></trkpt>
      <trkpt lat="35.521838" lon="138.77113"></trkpt>
      <trkpt lat="35.521847" lon="138.771183"></trkpt>
      <trkpt lat="35.521858" lon="138.771244"></trkpt>
      <trkpt lat="35.521872" lon="138.771364"></trkpt>
      <trkpt lat="35.521878" lon="138.771479"></trkpt>
      <trkpt lat="35.52188" lon="138.771597"></trkpt>
      <trkpt lat="35.521871" lon="138.771746"></trkpt>
      <trkpt lat="35.521856" lon="138.771862"></trkpt>
      <trkpt lat="35.521831" lon="138.771991"></trkpt>
      <trkpt lat="35.521743" lon="138.772364"></trkpt>
      <trkpt lat="35.521666" lon="138.772663"></trkpt>
      <trkpt lat="35.521574" lon="138.773015"></trkpt>
      <trkpt lat="35.521557" lon="138.773081"></trkpt>
      <trkpt lat="35.520989" lon="138.775262"></trkpt>
      <trkpt lat="35.520928" lon="138.775498"></trkpt>
      <trkpt lat="35.5209" lon="138.775607"></trkpt>
      <trkpt lat="35.520788" lon="138.775978"></trkpt>
      <trkpt lat="35.520629" lon="138.776435"></trkpt>
      <trkpt lat="35.520578" lon="138.77657"></trkpt>
      <trkpt lat="35.520521" lon="138.776705"></trkpt>
      <trkpt lat="35.52036" lon="138.777103"></trkpt>
      <trkpt lat="35.520223" lon="138.777444"></trkpt>
      <trkpt lat="35.520165" lon="138.777576"></trkpt>
      <trkpt lat="35.519745" lon="138.778314"></trkpt>
      <trkpt lat="35.519044" lon="138.779406"></trkpt>
      <trkpt lat="35.518204" lon="138.780356"></trkpt>
      <trkpt lat="35.517256" lon="138.781232"></trkpt>
      <trkpt lat="35.515794" lon="138.782155"></trkpt>
      <trkpt lat="35.514348" lon="138.782932"></trkpt>
      <trkpt lat="35.505276" lon="138.78787"></trkpt>
      <trkpt lat="35.502672" lon="138.789299"></trkpt>
      <trkpt lat="35.500065" lon="138.79068"></trkpt>
      <trkpt lat="35.499243" lon="138.791132"></trkpt>
      <trkpt lat="35.499295" lon="138.791253"></trkpt>
      <trkpt lat="35.499687" lon="138.792172"></trkpt>
      <trkpt lat="35.499922" lon="138.792888"></trkpt>
      <trkpt lat="35.499852" lon="138.793417"></trkpt>
      <trkpt lat="35.499853" lon="138.7935"></trkpt>
      <trkpt lat="35.499879" lon="138.793602"></trkpt>
      <trkpt lat="35.500015" lon="138.794134"></trkpt>
      <trkpt lat="35.5002" lon="138.794982"></trkpt>
      <trkpt lat="35.500296" lon="138.795422"></trkpt>
      <trkpt lat="35.500336" lon="138.79583"></trkpt>
      <trkpt lat="35.500436" lon="138.796288"></trkpt>
      <trkpt lat="35.50052" lon="138.796592"></trkpt>
      <trkpt lat="35.500512" lon="138.796931"></trkpt>
      <trkpt lat="35.500387" lon="138.797231"></trkpt>
      <trkpt lat="35.500343" lon="138.797315"></trkpt>
      <trkpt lat="35.500043" lon="138.797372"></trkpt>
      <trkpt lat="35.499849" lon="138.797538"></trkpt>
      <trkpt lat="35.499659" lon="138.797706"></trkpt>
      <trkpt lat="35.499717" lon="138.797993"></trkpt>
      <trkpt lat="35.499777" lon="138.798178"></trkpt>
      <trkpt lat="35.499877" lon="138.798338"></trkpt>
      <trkpt lat="35.499856" lon="138.798895"></trkpt>
      <trkpt lat="35.499785" lon="138.798918"></trkpt>
      <trkpt lat="35.499651" lon="138.798922"></trkpt>
      <trkpt lat="35.499657" lon="138.799114"></trkpt>
      <trkpt lat="35.499664" lon="138.799236"></trkpt>
      <trkpt lat="35.499671" lon="138.799325"></trkpt>
      <trkpt lat="35.499677" lon="138.799433"></trkpt>
      <trkpt lat="35.499683" lon="138.799482"></trkpt>
      <trkpt lat="35.499695" lon="138.799626"></trkpt>
      <trkpt lat="35.499697" lon="138.799705"></trkpt>
      <trkpt lat="35.499697" lon="138.799761"></trkpt>
      <trkpt lat="35.499682" lon="138.799918"></trkpt>
      <trkpt lat="35.499561" lon="138.799912"></trkpt>
      <trkpt lat="35.499602" lon="138.799944"></trkpt>
      <trkpt lat="35.499786" lon="138.800051"></trkpt>
      <trkpt lat="35.499921" lon="138.800104"></trkpt>
      <trkpt lat="35.500065" lon="138.800151"></trkpt>
      <trkpt lat="35.500098" lon="138.80022"></trkpt>
      <trkpt lat="35.500095" lon="138.800258"></trkpt>
      <trkpt lat="35.500033" lon="138.80034"></trkpt>
      <trkpt lat="35.499796" lon="138.800474"></trkpt>
      <trkpt lat="35.49978" lon="138.800508"></trkpt>
      <trkpt lat="35.499783" lon="138.800554"></trkpt>
      <trkpt lat="35.4998" lon="138.800579"></trkpt>
      <trkpt lat="35.499841" lon="138.800578"></trkpt>
      <trkpt lat="35.499949" lon="138.800533"></trkpt>
      <trkpt lat="35.500021" lon="138.80052"></trkpt>
      <trkpt lat="35.500164" lon="138.800511"></trkpt>
      <trkpt lat="35.500263" lon="138.800521"></trkpt>
      <trkpt lat="35.500291" lon="138.800543"></trkpt>
      <trkpt lat="35.500298" lon="138.800578"></trkpt>
      <trkpt lat="35.500277" lon="138.800617"></trkpt>
      <trkpt lat="35.500205" lon="138.800647"></trkpt>
      <trkpt lat="35.500118" lon="138.800643"></trkpt>
      <trkpt lat="35.500094" lon="138.800658"></trkpt>
      <trkpt lat="35.50008" lon="138.800683"></trkpt>
      <trkpt lat="35.500082" lon="138.800715"></trkpt>
      <trkpt lat="35.5001" lon="138.80074"></trkpt>
      <trkpt lat="35.500145" lon="138.80075"></trkpt>
      <trkpt lat="35.500221" lon="138.800726"></trkpt>
      <trkpt lat="35.500588" lon="138.800597"></trkpt>
      <trkpt lat="35.500608" lon="138.800598"></trkpt>
      <trkpt lat="35.500622" lon="138.800612"></trkpt>
      <trkpt lat="35.500625" lon="138.800634"></trkpt>
      <trkpt lat="35.500614" lon="138.800669"></trkpt>
      <trkpt lat="35.500441" lon="138.800851"></trkpt>
      <trkpt lat="35.500428" lon="138.800896"></trkpt>
      <trkpt lat="35.50043" lon="138.800934"></trkpt>
      <trkpt lat="35.50045" lon="138.800952"></trkpt>
      <trkpt lat="35.500478" lon="138.800958"></trkpt>
      <trkpt lat="35.500517" lon="138.800949"></trkpt>
      <trkpt lat="35.500561" lon="138.800903"></trkpt>
      <trkpt lat="35.50068" lon="138.800779"></trkpt>
      <trkpt lat="35.500771" lon="138.800711"></trkpt>
      <trkpt lat="35.500839" lon="138.800672"></trkpt>
      <trkpt lat="35.500898" lon="138.800654"></trkpt>
      <trkpt lat="35.500958" lon="138.800656"></trkpt>
      <trkpt lat="35.501024" lon="138.800673"></trkpt>
      <trkpt lat="35.501268" lon="138.800795"></trkpt>
      <trkpt lat="35.501442" lon="138.800943"></trkpt>
      <trkpt lat="35.501493" lon="138.800973"></trkpt>
      <trkpt lat="35.501532" lon="138.800994"></trkpt>
      <trkpt lat="35.501569" lon="138.800999"></trkpt>
      <trkpt lat="35.50159" lon="138.801016"></trkpt>
      <trkpt lat="35.501594" lon="138.801046"></trkpt>
      <trkpt lat="35.501581" lon="138.801073"></trkpt>
      <trkpt lat="35.501561" lon="138.801088"></trkpt>
      <trkpt lat="35.501493" lon="138.801091"></trkpt>
      <trkpt lat="35.501235" lon="138.801022"></trkpt>
      <trkpt lat="35.501097" lon="138.800973"></trkpt>
      <trkpt lat="35.501053" lon="138.800959"></trkpt>
      <trkpt lat="35.501012" lon="138.800978"></trkpt>
      <trkpt lat="35.500974" lon="138.801021"></trkpt>
      <trkpt lat="35.500943" lon="138.801073"></trkpt>
      <trkpt lat="35.500923" lon="138.801145"></trkpt>
      <trkpt lat="35.500919" lon="138.801223"></trkpt>
      <trkpt lat="35.500929" lon="138.80127"></trkpt>
      <trkpt lat="35.500949" lon="138.801313"></trkpt>
      <trkpt lat="35.50104" lon="138.801387"></trkpt>
      <trkpt lat="35.501066" lon="138.801407"></trkpt>
      <trkpt lat="35.501066" lon="138.801407"></trkpt>
      <trkpt lat="35.50104" lon="138.801387"></trkpt>
      <trkpt lat="35.500949" lon="138.801313"></trkpt>
      <trkpt lat="35.500929" lon="138.80127"></trkpt>
      <trkpt lat="35.500919" lon="138.801223"></trkpt>
      <trkpt lat="35.500923" lon="138.801145"></trkpt>
      <trkpt lat="35.500943" lon="138.801073"></trkpt>
      <trkpt lat="35.500974" lon="138.801021"></trkpt>
      <trkpt lat="35.501012" lon="138.800978"></trkpt>
      <trkpt lat="35.501053" lon="138.800959"></trkpt>
      <trkpt lat="35.501097" lon="138.800973"></trkpt>
      <trkpt lat="35.501235" lon="138.801022"></trkpt>
      <trkpt lat="35.501493" lon="138.801091"></trkpt>
      <trkpt lat="35.501561" lon="138.801088"></trkpt>
      <trkpt lat="35.501581" lon="138.801073"></trkpt>
      <trkpt lat="35.501594" lon="138.801046"></trkpt>
      <trkpt lat="35.50159" lon="138.801016"></trkpt>
      <trkpt lat="35.501569" lon="138.800999"></trkpt>
      <trkpt lat="35.501532" lon="138.800994"></trkpt>
      <trkpt lat="35.501493" lon="138.800973"></trkpt>
      <trkpt lat="35.501442" lon="138.800943"></trkpt>
      <trkpt lat="35.501268" lon="138.800795"></trkpt>
      <trkpt lat="35.501024" lon="138.800673"></trkpt>
      <trkpt lat="35.500958" lon="138.800656"></trkpt>
      <trkpt lat="35.500898" lon="138.800654"></trkpt>
      <trkpt lat="35.500839" lon="138.800672"></trkpt>
      <trkpt lat="35.500771" lon="138.800711"></trkpt>
      <trkpt lat="35.50068" lon="138.800779"></trkpt>
      <trkpt lat="35.500561" lon="138.800903"></trkpt>
      <trkpt lat="35.500517" lon="138.800949"></trkpt>
      <trkpt lat="35.500478" lon="138.800958"></trkpt>
      <trkpt lat="35.50045" lon="138.800952"></trkpt>
      <trkpt lat="35.50043" lon="138.800934"></trkpt>
      <trkpt lat="35.500428" lon="138.800896"></trkpt>
      <trkpt lat="35.500441" lon="138.800851"></trkpt>
      <trkpt lat="35.500614" lon="138.800669"></trkpt>
      <trkpt lat="35.500625" lon="138.800634"></trkpt>
      <trkpt lat="35.500622" lon="138.800612"></trkpt>
      <trkpt lat="35.500608" lon="138.800598"></trkpt>
      <trkpt lat="35.500588" lon="138.800597"></trkpt>
      <trkpt lat="35.500221" lon="138.800726"></trkpt>
      <trkpt lat="35.500145" lon="138.80075"></trkpt>
      <trkpt lat="35.5001" lon="138.80074"></trkpt>
      <trkpt lat="35.500082" lon="138.800715"></trkpt>
      <trkpt lat="35.50008" lon="138.800683"></trkpt>
      <trkpt lat="35.500094" lon="138.800658"></trkpt>
      <trkpt lat="35.500118" lon="138.800643"></trkpt>
      <trkpt lat="35.500205" lon="138.800647"></trkpt>
      <trkpt lat="35.500277" lon="138.800617"></trkpt>
      <trkpt lat="35.500298" lon="138.800578"></trkpt>
      <trkpt lat="35.500291" lon="138.800543"></trkpt>
      <trkpt lat="35.500263" lon="138.800521"></trkpt>
      <trkpt lat="35.500164" lon="138.800511"></trkpt>
      <trkpt lat="35.500021" lon="138.80052"></trkpt>
      <trkpt lat="35.499949" lon="138.800533"></trkpt>
      <trkpt lat="35.499841" lon="138.800578"></trkpt>
      <trkpt lat="35.4998" lon="138.800579"></trkpt>
      <trkpt lat="35.499783" lon="138.800554"></trkpt>
      <trkpt lat="35.49978" lon="138.800508"></trkpt>
      <trkpt lat="35.499796" lon="138.800474"></trkpt>
      <trkpt lat="35.500033" lon="138.80034"></trkpt>
      <trkpt lat="35.500095" lon="138.800258"></trkpt>
      <trkpt lat="35.500098" lon="138.80022"></trkpt>
      <trkpt lat="35.500065" lon="138.800151"></trkpt>
      <trkpt lat="35.499921" lon="138.800104"></trkpt>
      <trkpt lat="35.499786" lon="138.800051"></trkpt>
      <trkpt lat="35.499602" lon="138.799944"></trkpt>
      <trkpt lat="35.499561" lon="138.799912"></trkpt>
      <trkpt lat="35.499258" lon="138.79992"></trkpt>
      <trkpt lat="35.499192" lon="138.799915"></trkpt>
      <trkpt lat="35.499178" lon="138.799911"></trkpt>
      <trkpt lat="35.499158" lon="138.799894"></trkpt>
      <trkpt lat="35.499131" lon="138.799857"></trkpt>
      <trkpt lat="35.499088" lon="138.799765"></trkpt>
      <trkpt lat="35.499059" lon="138.7997"></trkpt>
      <trkpt lat="35.499012" lon="138.799677"></trkpt>
      <trkpt lat="35.498896" lon="138.799679"></trkpt>
      <trkpt lat="35.498729" lon="138.799714"></trkpt>
      <trkpt lat="35.498797" lon="138.79941"></trkpt>
      <trkpt lat="35.498845" lon="138.799172"></trkpt>
      <trkpt lat="35.498862" lon="138.798992"></trkpt>
      <trkpt lat="35.498848" lon="138.798842"></trkpt>
      <trkpt lat="35.498838" lon="138.798725"></trkpt>
      <trkpt lat="35.498769" lon="138.798497"></trkpt>
      <trkpt lat="35.498728" lon="138.798361"></trkpt>
      <trkpt lat="35.498755" lon="138.79826"></trkpt>
      <trkpt lat="35.498937" lon="138.798163"></trkpt>
      <trkpt lat="35.499129" lon="138.798114"></trkpt>
      <trkpt lat="35.49925" lon="138.798002"></trkpt>
      <trkpt lat="35.499334" lon="138.79783"></trkpt>
      <trkpt lat="35.499468" lon="138.79776"></trkpt>
      <trkpt lat="35.499467" lon="138.797744"></trkpt>
      <trkpt lat="35.499461" lon="138.797664"></trkpt>
      <trkpt lat="35.499443" lon="138.797391"></trkpt>
      <trkpt lat="35.499438" lon="138.797372"></trkpt>
      <trkpt lat="35.499323" lon="138.796934"></trkpt>
      <trkpt lat="35.499072" lon="138.796533"></trkpt>
      <trkpt lat="35.498709" lon="138.795426"></trkpt>
      <trkpt lat="35.498698" lon="138.795372"></trkpt>
      <trkpt lat="35.498433" lon="138.794104"></trkpt>
      <trkpt lat="35.498372" lon="138.79381"></trkpt>
      <trkpt lat="35.498325" lon="138.793586"></trkpt>
      <trkpt lat="35.4982" lon="138.793093"></trkpt>
      <trkpt lat="35.498082" lon="138.792693"></trkpt>
      <trkpt lat="35.49776" lon="138.791716"></trkpt>
      <trkpt lat="35.498321" lon="138.791533"></trkpt>
      <trkpt lat="35.498771" lon="138.791356"></trkpt>
      <trkpt lat="35.499243" lon="138.791132"></trkpt>
      <trkpt lat="35.500065" lon="138.79068"></trkpt>
      <trkpt lat="35.502672" lon="138.789299"></trkpt>
      <trkpt lat="35.505276" lon="138.78787"></trkpt>
      <trkpt lat="35.514348" lon="138.782932"></trkpt>
      <trkpt lat="35.515794" lon="138.782155"></trkpt>
      <trkpt lat="35.517256" lon="138.781232"></trkpt>
      <trkpt lat="35.518204" lon="138.780356"></trkpt>
      <trkpt lat="35.519044" lon="138.779406"></trkpt>
      <trkpt lat="35.519745" lon="138.778314"></trkpt>
      <trkpt lat="35.520165" lon="138.777576"></trkpt>
      <trkpt lat="35.520223" lon="138.777444"></trkpt>
      <trkpt lat="35.52036" lon="138.777103"></trkpt>
      <trkpt lat="35.520521" lon="138.776705"></trkpt>
      <trkpt lat="35.520578" lon="138.77657"></trkpt>
      <trkpt lat="35.520629" lon="138.776435"></trkpt>
      <trkpt lat="35.520788" lon="138.775978"></trkpt>
      <trkpt lat="35.5209" lon="138.775607"></trkpt>
      <trkpt lat="35.520928" lon="138.775498"></trkpt>
      <trkpt lat="35.520989" lon="138.775262"></trkpt>
      <trkpt lat="35.521557" lon="138.773081"></trkpt>
      <trkpt lat="35.521574" lon="138.773015"></trkpt>
      <trkpt lat="35.521666" lon="138.772663"></trkpt>
      <trkpt lat="35.521743" lon="138.772364"></trkpt>
      <trkpt lat="35.521831" lon="138.771991"></trkpt>
      <trkpt lat="35.521856" lon="138.771862"></trkpt>
      <trkpt lat="35.521871" lon="138.771746"></trkpt>
      <trkpt lat="35.52188" lon="138.771597"></trkpt>
      <trkpt lat="35.521878" lon="138.771479"></trkpt>
      <trkpt lat="35.521872" lon="138.771364"></trkpt>
      <trkpt lat="35.521858" lon="138.771244"></trkpt>
      <trkpt lat="35.521847" lon="138.771183"></trkpt>
      <trkpt lat="35.521838" lon="138.77113"></trkpt>
      <trkpt lat="35.521803" lon="138.770997"></trkpt>
      <trkpt lat="35.521746" lon="138.770831"></trkpt>
      <trkpt lat="35.521658" lon="138.770621"></trkpt>
      <trkpt lat="35.52158" lon="138.770457"></trkpt>
      <trkpt lat="35.521567" lon="138.770434"></trkpt>
      <trkpt lat="35.521504" lon="138.770316"></trkpt>
      <trkpt lat="35.521592" lon="138.770237"></trkpt>
      <trkpt lat="35.521689" lon="138.770149"></trkpt>
      <trkpt lat="35.521727" lon="138.770115"></trkpt>
      <trkpt lat="35.521827" lon="138.770026"></trkpt>
      <trkpt lat="35.52185" lon="138.770007"></trkpt>
      <trkpt lat="35.521892" lon="138.769967"></trkpt>
      <trkpt lat="35.522059" lon="138.769806"></trkpt>
      <trkpt lat="35.522114" lon="138.769755"></trkpt>
      <trkpt lat="35.522173" lon="138.769696"></trkpt>
      <trkpt lat="35.522344" lon="138.769527"></trkpt>
      <trkpt lat="35.522397" lon="138.769477"></trkpt>
      <trkpt lat="35.522597" lon="138.769283"></trkpt>
      <trkpt lat="35.522872" lon="138.769016"></trkpt>
      <trkpt lat="35.52305" lon="138.768838"></trkpt>
      <trkpt lat="35.523129" lon="138.768749"></trkpt>
      <trkpt lat="35.523212" lon="138.768655"></trkpt>
      <trkpt lat="35.523241" lon="138.76862"></trkpt>
      <trkpt lat="35.523274" lon="138.76858"></trkpt>
      <trkpt lat="35.523378" lon="138.768434"></trkpt>
      <trkpt lat="35.523393" lon="138.76841"></trkpt>
      <trkpt lat="35.523464" lon="138.768287"></trkpt>
      <trkpt lat="35.523493" lon="138.768235"></trkpt>
      <trkpt lat="35.523521" lon="138.768161"></trkpt>
      <trkpt lat="35.523566" lon="138.768036"></trkpt>
      <trkpt lat="35.52361" lon="138.767898"></trkpt>
      <trkpt lat="35.523644" lon="138.767778"></trkpt>
      <trkpt lat="35.523655" lon="138.767735"></trkpt>
      <trkpt lat="35.523802" lon="138.767194"></trkpt>
      <trkpt lat="35.52391" lon="138.766815"></trkpt>
      <trkpt lat="35.523932" lon="138.766742"></trkpt>
      <trkpt lat="35.523987" lon="138.766593"></trkpt>
      <trkpt lat="35.524121" lon="138.766259"></trkpt>
      <trkpt lat="35.524261" lon="138.765984"></trkpt>
      <trkpt lat="35.524312" lon="138.765893"></trkpt>
      <trkpt lat="35.524327" lon="138.765864"></trkpt>
      <trkpt lat="35.524412" lon="138.765723"></trkpt>
      <trkpt lat="35.524434" lon="138.765688"></trkpt>
      <trkpt lat="35.5246" lon="138.765374"></trkpt>
      <trkpt lat="35.524652" lon="138.765279"></trkpt>
      <trkpt lat="35.524804" lon="138.764896"></trkpt>
      <trkpt lat="35.524839" lon="138.764742"></trkpt>
      <trkpt lat="35.524879" lon="138.764569"></trkpt>
      <trkpt lat="35.524985" lon="138.763647"></trkpt>
      <trkpt lat="35.524992" lon="138.763578"></trkpt>
      <trkpt lat="35.525027" lon="138.763241"></trkpt>
      <trkpt lat="35.525083" lon="138.762858"></trkpt>
      <trkpt lat="35.525107" lon="138.76274"></trkpt>
      <trkpt lat="35.525127" lon="138.762671"></trkpt>
      <trkpt lat="35.525148" lon="138.762595"></trkpt>
      <trkpt lat="35.525182" lon="138.7625"></trkpt>
      <trkpt lat="35.525228" lon="138.762387"></trkpt>
      <trkpt lat="35.525281" lon="138.76228"></trkpt>
      <trkpt lat="35.525333" lon="138.762192"></trkpt>
      <trkpt lat="35.525399" lon="138.762084"></trkpt>
      <trkpt lat="35.525439" lon="138.76202"></trkpt>
      <trkpt lat="35.525605" lon="138.761789"></trkpt>
      <trkpt lat="35.525635" lon="138.761734"></trkpt>
      <trkpt lat="35.525675" lon="138.761652"></trkpt>
      <trkpt lat="35.525701" lon="138.761577"></trkpt>
      <trkpt lat="35.525724" lon="138.761488"></trkpt>
      <trkpt lat="35.525741" lon="138.761404"></trkpt>
      <trkpt lat="35.525748" lon="138.761312"></trkpt>
      <trkpt lat="35.52574" lon="138.761215"></trkpt>
      <trkpt lat="35.525726" lon="138.76113"></trkpt>
      <trkpt lat="35.525713" lon="138.761078"></trkpt>
      <trkpt lat="35.525492" lon="138.760208"></trkpt>
      <trkpt lat="35.525214" lon="138.759155"></trkpt>
      <trkpt lat="35.525187" lon="138.759064"></trkpt>
      <trkpt lat="35.525155" lon="138.758977"></trkpt>
      <trkpt lat="35.525103" lon="138.758854"></trkpt>
      <trkpt lat="35.525049" lon="138.758748"></trkpt>
      <trkpt lat="35.524986" lon="138.758653"></trkpt>
      <trkpt lat="35.524917" lon="138.758549"></trkpt>
      <trkpt lat="35.524842" lon="138.758444"></trkpt>
      <trkpt lat="35.524724" lon="138.758295"></trkpt>
      <trkpt lat="35.524643" lon="138.758206"></trkpt>
      <trkpt lat="35.524574" lon="138.758137"></trkpt>
      <trkpt lat="35.524501" lon="138.758074"></trkpt>
      <trkpt lat="35.524409" lon="138.757997"></trkpt>
      <trkpt lat="35.524336" lon="138.757954"></trkpt>
      <trkpt lat="35.524247" lon="138.757901"></trkpt>
      <trkpt lat="35.523989" lon="138.757789"></trkpt>
      <trkpt lat="35.523535" lon="138.757604"></trkpt>
      <trkpt lat="35.523413" lon="138.757543"></trkpt>
      <trkpt lat="35.523238" lon="138.757431"></trkpt>
      <trkpt lat="35.522973" lon="138.757249"></trkpt>
      <trkpt lat="35.522875" lon="138.757167"></trkpt>
      <trkpt lat="35.522796" lon="138.757084"></trkpt>
      <trkpt lat="35.522725" lon="138.756974"></trkpt>
      <trkpt lat="35.522674" lon="138.756867"></trkpt>
      <trkpt lat="35.522635" lon="138.756759"></trkpt>
      <trkpt lat="35.522601" lon="138.756599"></trkpt>
      <trkpt lat="35.522582" lon="138.756454"></trkpt>
      <trkpt lat="35.522574" lon="138.756308"></trkpt>
      <trkpt lat="35.522573" lon="138.756118"></trkpt>
      <trkpt lat="35.522589" lon="138.755897"></trkpt>
      <trkpt lat="35.522634" lon="138.755518"></trkpt>
      <trkpt lat="35.522662" lon="138.755305"></trkpt>
      <trkpt lat="35.522688" lon="138.755144"></trkpt>
      <trkpt lat="35.522709" lon="138.754978"></trkpt>
      <trkpt lat="35.522724" lon="138.754837"></trkpt>
      <trkpt lat="35.522728" lon="138.754751"></trkpt>
      <trkpt lat="35.522726" lon="138.754662"></trkpt>
      <trkpt lat="35.522718" lon="138.754583"></trkpt>
      <trkpt lat="35.522708" lon="138.754523"></trkpt>
      <trkpt lat="35.522652" lon="138.754275"></trkpt>
      <trkpt lat="35.522609" lon="138.754088"></trkpt>
      <trkpt lat="35.522575" lon="138.753899"></trkpt>
      <trkpt lat="35.522557" lon="138.753737"></trkpt>
      <trkpt lat="35.522552" lon="138.75366"></trkpt>
      <trkpt lat="35.522548" lon="138.753595"></trkpt>
      <trkpt lat="35.522547" lon="138.753417"></trkpt>
      <trkpt lat="35.522555" lon="138.753196"></trkpt>
      <trkpt lat="35.522573" lon="138.752955"></trkpt>
      <trkpt lat="35.522592" lon="138.752679"></trkpt>
      <trkpt lat="35.522608" lon="138.752518"></trkpt>
      <trkpt lat="35.522628" lon="138.752383"></trkpt>
      <trkpt lat="35.522674" lon="138.752214"></trkpt>
      <trkpt lat="35.522718" lon="138.752076"></trkpt>
      <trkpt lat="35.522779" lon="138.75193"></trkpt>
      <trkpt lat="35.522843" lon="138.751809"></trkpt>
      <trkpt lat="35.522916" lon="138.751696"></trkpt>
      <trkpt lat="35.523005" lon="138.751581"></trkpt>
      <trkpt lat="35.523458" lon="138.751021"></trkpt>
      <trkpt lat="35.523601" lon="138.750836"></trkpt>
      <trkpt lat="35.523678" lon="138.750722"></trkpt>
      <trkpt lat="35.52373" lon="138.750636"></trkpt>
      <trkpt lat="35.523766" lon="138.750556"></trkpt>
      <trkpt lat="35.523795" lon="138.750472"></trkpt>
      <trkpt lat="35.523822" lon="138.750404"></trkpt>
      <trkpt lat="35.523854" lon="138.750314"></trkpt>
      <trkpt lat="35.523879" lon="138.750221"></trkpt>
      <trkpt lat="35.523895" lon="138.750131"></trkpt>
      <trkpt lat="35.523897" lon="138.750049"></trkpt>
      <trkpt lat="35.52388" lon="138.749958"></trkpt>
      <trkpt lat="35.523814" lon="138.749632"></trkpt>
      <trkpt lat="35.523752" lon="138.749346"></trkpt>
      <trkpt lat="35.523731" lon="138.749227"></trkpt>
      <trkpt lat="35.523721" lon="138.749138"></trkpt>
      <trkpt lat="35.523717" lon="138.749064"></trkpt>
      <trkpt lat="35.523719" lon="138.749005"></trkpt>
      <trkpt lat="35.523735" lon="138.748876"></trkpt>
      <trkpt lat="35.523757" lon="138.748734"></trkpt>
      <trkpt lat="35.523822" lon="138.74838"></trkpt>
      <trkpt lat="35.523855" lon="138.748207"></trkpt>
      <trkpt lat="35.52388" lon="138.748104"></trkpt>
      <trkpt lat="35.523912" lon="138.747997"></trkpt>
      <trkpt lat="35.523969" lon="138.747838"></trkpt>
      <trkpt lat="35.524069" lon="138.747588"></trkpt>
      <trkpt lat="35.524111" lon="138.747481"></trkpt>
      <trkpt lat="35.524146" lon="138.747397"></trkpt>
      <trkpt lat="35.524177" lon="138.747311"></trkpt>
      <trkpt lat="35.524198" lon="138.747241"></trkpt>
      <trkpt lat="35.524212" lon="138.747172"></trkpt>
      <trkpt lat="35.524222" lon="138.747106"></trkpt>
      <trkpt lat="35.524223" lon="138.747048"></trkpt>
      <trkpt lat="35.52422" lon="138.746981"></trkpt>
      <trkpt lat="35.524211" lon="138.746911"></trkpt>
      <trkpt lat="35.524195" lon="138.746836"></trkpt>
      <trkpt lat="35.524178" lon="138.746769"></trkpt>
      <trkpt lat="35.524151" lon="138.746688"></trkpt>
      <trkpt lat="35.52409" lon="138.746526"></trkpt>
      <trkpt lat="35.523832" lon="138.745851"></trkpt>
      <trkpt lat="35.523596" lon="138.745262"></trkpt>
      <trkpt lat="35.523203" lon="138.745552"></trkpt>
      <trkpt lat="35.523168" lon="138.745573"></trkpt>
      <trkpt lat="35.523125" lon="138.745597"></trkpt>
      <trkpt lat="35.523001" lon="138.745288"></trkpt>
      <trkpt lat="35.523001" lon="138.745288"></trkpt>
      <trkpt lat="35.523125" lon="138.745597"></trkpt>
      <trkpt lat="35.523168" lon="138.745573"></trkpt>
      <trkpt lat="35.523203" lon="138.745552"></trkpt>
      <trkpt lat="35.523596" lon="138.745262"></trkpt>
      <trkpt lat="35.523147" lon="138.744147"></trkpt>
      <trkpt lat="35.522748" lon="138.743191"></trkpt>
      <trkpt lat="35.522734" lon="138.743155"></trkpt>
      <trkpt lat="35.522331" lon="138.742154"></trkpt>
      <trkpt lat="35.522219" lon="138.741907"></trkpt>
      <trkpt lat="35.522153" lon="138.741803"></trkpt>
      <trkpt lat="35.522071" lon="138.741732"></trkpt>
      <trkpt lat="35.521934" lon="138.741678"></trkpt>
      <trkpt lat="35.5214" lon="138.741476"></trkpt>
      <trkpt lat="35.521008" lon="138.741339"></trkpt>
      <trkpt lat="35.520631" lon="138.74119"></trkpt>
      <trkpt lat="35.519864" lon="138.740975"></trkpt>
      <trkpt lat="35.519535" lon="138.74085"></trkpt>
      <trkpt lat="35.519221" lon="138.740704"></trkpt>
      <trkpt lat="35.519149" lon="138.740681"></trkpt>
      <trkpt lat="35.518993" lon="138.740613"></trkpt>
      <trkpt lat="35.518817" lon="138.740539"></trkpt>
      <trkpt lat="35.517885" lon="138.740115"></trkpt>
      <trkpt lat="35.517382" lon="138.739934"></trkpt>
      <trkpt lat="35.517178" lon="138.739883"></trkpt>
      <trkpt lat="35.516915" lon="138.739876"></trkpt>
      <trkpt lat="35.516719" lon="138.739893"></trkpt>
      <trkpt lat="35.516467" lon="138.739991"></trkpt>
      <trkpt lat="35.515352" lon="138.740498"></trkpt>
      <trkpt lat="35.515065" lon="138.740647"></trkpt>
      <trkpt lat="35.514867" lon="138.740734"></trkpt>
      <trkpt lat="35.514763" lon="138.740731"></trkpt>
      <trkpt lat="35.514695" lon="138.740686"></trkpt>
      <trkpt lat="35.514573" lon="138.740538"></trkpt>
      <trkpt lat="35.514521" lon="138.740463"></trkpt>
      <trkpt lat="35.514448" lon="138.740362"></trkpt>
      <trkpt lat="35.51436" lon="138.740235"></trkpt>
      <trkpt lat="35.514272" lon="138.740095"></trkpt>
      <trkpt lat="35.514213" lon="138.740009"></trkpt>
      <trkpt lat="35.514204" lon="138.739875"></trkpt>
      <trkpt lat="35.51424" lon="138.739763"></trkpt>
      <trkpt lat="35.514271" lon="138.73964"></trkpt>
      <trkpt lat="35.514282" lon="138.739491"></trkpt>
      <trkpt lat="35.514267" lon="138.739377"></trkpt>
      <trkpt lat="35.514183" lon="138.73914"></trkpt>
      <trkpt lat="35.514163" lon="138.739"></trkpt>
      <trkpt lat="35.514157" lon="138.738901"></trkpt>
      <trkpt lat="35.514196" lon="138.738797"></trkpt>
      <trkpt lat="35.514271" lon="138.738669"></trkpt>
      <trkpt lat="35.514468" lon="138.738433"></trkpt>
      <trkpt lat="35.514587" lon="138.738283"></trkpt>
      <trkpt lat="35.514695" lon="138.738128"></trkpt>
      <trkpt lat="35.514828" lon="138.737941"></trkpt>
      <trkpt lat="35.514965" lon="138.737732"></trkpt>
      <trkpt lat="35.5151" lon="138.737478"></trkpt>
      <trkpt lat="35.515159" lon="138.737327"></trkpt>
      <trkpt lat="35.51519" lon="138.737219"></trkpt>
      <trkpt lat="35.515228" lon="138.736927"></trkpt>
      <trkpt lat="35.51521" lon="138.736691"></trkpt>
      <trkpt lat="35.515201" lon="138.736587"></trkpt>
      <trkpt lat="35.515164" lon="138.736449"></trkpt>
      <trkpt lat="35.515037" lon="138.736235"></trkpt>
      <trkpt lat="35.514856" lon="138.735983"></trkpt>
      <trkpt lat="35.51446" lon="138.735456"></trkpt>
      <trkpt lat="35.514294" lon="138.735262"></trkpt>
      <trkpt lat="35.514197" lon="138.735195"></trkpt>
      <trkpt lat="35.513954" lon="138.735084"></trkpt>
      <trkpt lat="35.513609" lon="138.734993"></trkpt>
      <trkpt lat="35.513193" lon="138.7348"></trkpt>
      <trkpt lat="35.513003" lon="138.734683"></trkpt>
      <trkpt lat="35.512888" lon="138.734591"></trkpt>
      <trkpt lat="35.512826" lon="138.73451"></trkpt>
      <trkpt lat="35.512774" lon="138.73442"></trkpt>
      <trkpt lat="35.512732" lon="138.734305"></trkpt>
      <trkpt lat="35.5127" lon="138.734164"></trkpt>
      <trkpt lat="35.512698" lon="138.733918"></trkpt>
      <trkpt lat="35.512687" lon="138.733334"></trkpt>
      <trkpt lat="35.51268" lon="138.733079"></trkpt>
      <trkpt lat="35.512709" lon="138.732939"></trkpt>
      <trkpt lat="35.512725" lon="138.73286"></trkpt>
      <trkpt lat="35.512772" lon="138.732762"></trkpt>
      <trkpt lat="35.51286" lon="138.732656"></trkpt>
      <trkpt lat="35.512938" lon="138.732603"></trkpt>
      <trkpt lat="35.513067" lon="138.732534"></trkpt>
      <trkpt lat="35.513122" lon="138.732504"></trkpt>
      <trkpt lat="35.513222" lon="138.732476"></trkpt>
      <trkpt lat="35.513262" lon="138.732465"></trkpt>
      <trkpt lat="35.513573" lon="138.732386"></trkpt>
      <trkpt lat="35.51377" lon="138.732288"></trkpt>
      <trkpt lat="35.51404" lon="138.732092"></trkpt>
      <trkpt lat="35.51423" lon="138.731914"></trkpt>
      <trkpt lat="35.514477" lon="138.731508"></trkpt>
      <trkpt lat="35.514575" lon="138.73121"></trkpt>
      <trkpt lat="35.514609" lon="138.730987"></trkpt>
      <trkpt lat="35.514637" lon="138.730672"></trkpt>
      <trkpt lat="35.514608" lon="138.73032"></trkpt>
      <trkpt lat="35.514502" lon="138.729743"></trkpt>
      <trkpt lat="35.514451" lon="138.729478"></trkpt>
      <trkpt lat="35.514399" lon="138.72926"></trkpt>
      <trkpt lat="35.514363" lon="138.729091"></trkpt>
      <trkpt lat="35.514311" lon="138.728952"></trkpt>
      <trkpt lat="35.5142" lon="138.728749"></trkpt>
      <trkpt lat="35.514057" lon="138.72856"></trkpt>
      <trkpt lat="35.513748" lon="138.728252"></trkpt>
      <trkpt lat="35.513289" lon="138.727855"></trkpt>
      <trkpt lat="35.513163" lon="138.727729"></trkpt>
      <trkpt lat="35.513043" lon="138.727571"></trkpt>
      <trkpt lat="35.51292" lon="138.72734"></trkpt>
      <trkpt lat="35.512844" lon="138.727143"></trkpt>
      <trkpt lat="35.512795" lon="138.726945"></trkpt>
      <trkpt lat="35.512649" lon="138.726251"></trkpt>
      <trkpt lat="35.512251" lon="138.724112"></trkpt>
      <trkpt lat="35.512214" lon="138.723943"></trkpt>
      <trkpt lat="35.51217" lon="138.723791"></trkpt>
      <trkpt lat="35.512112" lon="138.723613"></trkpt>
      <trkpt lat="35.512045" lon="138.723461"></trkpt>
      <trkpt lat="35.511898" lon="138.723245"></trkpt>
      <trkpt lat="35.511632" lon="138.72293"></trkpt>
      <trkpt lat="35.511488" lon="138.72278"></trkpt>
      <trkpt lat="35.511428" lon="138.722732"></trkpt>
      <trkpt lat="35.51122" lon="138.722479"></trkpt>
      <trkpt lat="35.511074" lon="138.722151"></trkpt>
      <trkpt lat="35.510929" lon="138.721727"></trkpt>
      <trkpt lat="35.510885" lon="138.721483"></trkpt>
      <trkpt lat="35.51086" lon="138.721114"></trkpt>
      <trkpt lat="35.510879" lon="138.720771"></trkpt>
      <trkpt lat="35.510938" lon="138.720308"></trkpt>
      <trkpt lat="35.511038" lon="138.719615"></trkpt>
      <trkpt lat="35.511075" lon="138.719368"></trkpt>
      <trkpt lat="35.511146" lon="138.718937"></trkpt>
      <trkpt lat="35.511198" lon="138.718537"></trkpt>
      <trkpt lat="35.51119" lon="138.718352"></trkpt>
      <trkpt lat="35.511177" lon="138.718183"></trkpt>
      <trkpt lat="35.511133" lon="138.718006"></trkpt>
      <trkpt lat="35.511054" lon="138.717854"></trkpt>
      <trkpt lat="35.510994" lon="138.717769"></trkpt>
      <trkpt lat="35.510923" lon="138.71769"></trkpt>
      <trkpt lat="35.510693" lon="138.717523"></trkpt>
      <trkpt lat="35.509781" lon="138.716866"></trkpt>
      <trkpt lat="35.509749" lon="138.71684"></trkpt>
      <trkpt lat="35.509694" lon="138.716797"></trkpt>
      <trkpt lat="35.509057" lon="138.7163"></trkpt>
      <trkpt lat="35.508887" lon="138.716204"></trkpt>
      <trkpt lat="35.508648" lon="138.716081"></trkpt>
      <trkpt lat="35.508315" lon="138.715943"></trkpt>
      <trkpt lat="35.508029" lon="138.715825"></trkpt>
      <trkpt lat="35.508012" lon="138.715812"></trkpt>
      <trkpt lat="35.507957" lon="138.715783"></trkpt>
      <trkpt lat="35.507812" lon="138.715695"></trkpt>
      <trkpt lat="35.507589" lon="138.715527"></trkpt>
      <trkpt lat="35.507324" lon="138.715372"></trkpt>
      <trkpt lat="35.507378" lon="138.715217"></trkpt>
      <trkpt lat="35.507415" lon="138.715022"></trkpt>
      <trkpt lat="35.5074" lon="138.714796"></trkpt>
      <trkpt lat="35.507328" lon="138.714383"></trkpt>
      <trkpt lat="35.507216" lon="138.713741"></trkpt>
      <trkpt lat="35.507179" lon="138.713531"></trkpt>
      <trkpt lat="35.507026" lon="138.712617"></trkpt>
      <trkpt lat="35.506814" lon="138.711387"></trkpt>
      <trkpt lat="35.506652" lon="138.71045"></trkpt>
      <trkpt lat="35.506599" lon="138.710142"></trkpt>
      <trkpt lat="35.506524" lon="138.709722"></trkpt>
      <trkpt lat="35.506508" lon="138.709575"></trkpt>
      <trkpt lat="35.506514" lon="138.709459"></trkpt>
      <trkpt lat="35.506556" lon="138.709335"></trkpt>
      <trkpt lat="35.506615" lon="138.709281"></trkpt>
      <trkpt lat="35.506694" lon="138.709262"></trkpt>
      <trkpt lat="35.506757" lon="138.709275"></trkpt>
      <trkpt lat="35.506824" lon="138.709326"></trkpt>
      <trkpt lat="35.506907" lon="138.709436"></trkpt>
      <trkpt lat="35.50737" lon="138.710087"></trkpt>
      <trkpt lat="35.507426" lon="138.71014"></trkpt>
      <trkpt lat="35.507478" lon="138.710162"></trkpt>
      <trkpt lat="35.50757" lon="138.710173"></trkpt>
      <trkpt lat="35.507647" lon="138.710147"></trkpt>
      <trkpt lat="35.507724" lon="138.710088"></trkpt>
      <trkpt lat="35.507776" lon="138.709985"></trkpt>
      <trkpt lat="35.5078" lon="138.709881"></trkpt>
      <trkpt lat="35.507811" lon="138.70978"></trkpt>
      <trkpt lat="35.507776" lon="138.709649"></trkpt>
      <trkpt lat="35.507703" lon="138.709535"></trkpt>
      <trkpt lat="35.507471" lon="138.709213"></trkpt>
      <trkpt lat="35.506678" lon="138.708095"></trkpt>
      <trkpt lat="35.506592" lon="138.707946"></trkpt>
      <trkpt lat="35.50653" lon="138.707785"></trkpt>
      <trkpt lat="35.506473" lon="138.707547"></trkpt>
      <trkpt lat="35.506431" lon="138.707312"></trkpt>
      <trkpt lat="35.506322" lon="138.706791"></trkpt>
      <trkpt lat="35.506287" lon="138.706748"></trkpt>
      <trkpt lat="35.50625" lon="138.706669"></trkpt>
      <trkpt lat="35.506187" lon="138.706566"></trkpt>
      <trkpt lat="35.50611" lon="138.706462"></trkpt>
      <trkpt lat="35.505683" lon="138.705987"></trkpt>
      <trkpt lat="35.505585" lon="138.705862"></trkpt>
      <trkpt lat="35.505492" lon="138.705724"></trkpt>
      <trkpt lat="35.505417" lon="138.705561"></trkpt>
      <trkpt lat="35.50537" lon="138.705396"></trkpt>
      <trkpt lat="35.50531" lon="138.704976"></trkpt>
      <trkpt lat="35.505258" lon="138.704603"></trkpt>
      <trkpt lat="35.50519" lon="138.704114"></trkpt>
      <trkpt lat="35.505109" lon="138.7036"></trkpt>
      <trkpt lat="35.505061" lon="138.703189"></trkpt>
      <trkpt lat="35.504997" lon="138.702728"></trkpt>
      <trkpt lat="35.504938" lon="138.702304"></trkpt>
      <trkpt lat="35.504877" lon="138.701819"></trkpt>
      <trkpt lat="35.504875" lon="138.701459"></trkpt>
      <trkpt lat="35.504901" lon="138.701215"></trkpt>
      <trkpt lat="35.504999" lon="138.700692"></trkpt>
      <trkpt lat="35.505011" lon="138.700628"></trkpt>
      <trkpt lat="35.505036" lon="138.700498"></trkpt>
      <trkpt lat="35.505187" lon="138.699791"></trkpt>
      <trkpt lat="35.50521" lon="138.699665"></trkpt>
      <trkpt lat="35.505268" lon="138.699335"></trkpt>
      <trkpt lat="35.505287" lon="138.699219"></trkpt>
      <trkpt lat="35.50529" lon="138.699205"></trkpt>
      <trkpt lat="35.505402" lon="138.698612"></trkpt>
      <trkpt lat="35.5055" lon="138.698177"></trkpt>
      <trkpt lat="35.505728" lon="138.697215"></trkpt>
      <trkpt lat="35.505784" lon="138.696984"></trkpt>
      <trkpt lat="35.505894" lon="138.696533"></trkpt>
      <trkpt lat="35.505929" lon="138.696364"></trkpt>
      <trkpt lat="35.505943" lon="138.69621"></trkpt>
      <trkpt lat="35.50593" lon="138.695992"></trkpt>
      <trkpt lat="35.505784" lon="138.695261"></trkpt>
      <trkpt lat="35.505578" lon="138.694058"></trkpt>
      <trkpt lat="35.505527" lon="138.693867"></trkpt>
      <trkpt lat="35.505297" lon="138.693265"></trkpt>
      <trkpt lat="35.505269" lon="138.693192"></trkpt>
      <trkpt lat="35.505228" lon="138.693082"></trkpt>
      <trkpt lat="35.505144" lon="138.692595"></trkpt>
      <trkpt lat="35.505089" lon="138.692434"></trkpt>
      <trkpt lat="35.504969" lon="138.692274"></trkpt>
      <trkpt lat="35.504611" lon="138.691976"></trkpt>
      <trkpt lat="35.504435" lon="138.691829"></trkpt>
      <trkpt lat="35.504354" lon="138.691754"></trkpt>
      <trkpt lat="35.504273" lon="138.691658"></trkpt>
      <trkpt lat="35.504212" lon="138.691539"></trkpt>
      <trkpt lat="35.504175" lon="138.691403"></trkpt>
      <trkpt lat="35.504138" lon="138.691252"></trkpt>
      <trkpt lat="35.503977" lon="138.690496"></trkpt>
      <trkpt lat="35.503967" lon="138.690361"></trkpt>
      <trkpt lat="35.503975" lon="138.690236"></trkpt>
      <trkpt lat="35.504006" lon="138.690116"></trkpt>
      <trkpt lat="35.504077" lon="138.68994"></trkpt>
      <trkpt lat="35.504253" lon="138.689557"></trkpt>
      <trkpt lat="35.504312" lon="138.689407"></trkpt>
      <trkpt lat="35.504349" lon="138.689278"></trkpt>
      <trkpt lat="35.50437" lon="138.689153"></trkpt>
      <trkpt lat="35.504375" lon="138.689022"></trkpt>
      <trkpt lat="35.504354" lon="138.688845"></trkpt>
      <trkpt lat="35.504105" lon="138.687494"></trkpt>
      <trkpt lat="35.503964" lon="138.686804"></trkpt>
      <trkpt lat="35.503922" lon="138.686586"></trkpt>
      <trkpt lat="35.503889" lon="138.686357"></trkpt>
      <trkpt lat="35.503886" lon="138.686165"></trkpt>
      <trkpt lat="35.50388" lon="138.685431"></trkpt>
      <trkpt lat="35.503876" lon="138.685217"></trkpt>
      <trkpt lat="35.503875" lon="138.685182"></trkpt>
      <trkpt lat="35.503874" lon="138.685"></trkpt>
      <trkpt lat="35.50387" lon="138.684912"></trkpt>
      <trkpt lat="35.503843" lon="138.684693"></trkpt>
      <trkpt lat="35.503682" lon="138.683895"></trkpt>
      <trkpt lat="35.503531" lon="138.68317"></trkpt>
      <trkpt lat="35.503384" lon="138.682424"></trkpt>
      <trkpt lat="35.5033" lon="138.682043"></trkpt>
      <trkpt lat="35.50324" lon="138.681867"></trkpt>
      <trkpt lat="35.503167" lon="138.681747"></trkpt>
      <trkpt lat="35.503077" lon="138.681667"></trkpt>
      <trkpt lat="35.502994" lon="138.681621"></trkpt>
      <trkpt lat="35.502887" lon="138.681591"></trkpt>
      <trkpt lat="35.502667" lon="138.681544"></trkpt>
      <trkpt lat="35.502409" lon="138.681491"></trkpt>
      <trkpt lat="35.502157" lon="138.681442"></trkpt>
      <trkpt lat="35.502042" lon="138.681399"></trkpt>
      <trkpt lat="35.501981" lon="138.68135"></trkpt>
      <trkpt lat="35.501943" lon="138.681297"></trkpt>
      <trkpt lat="35.501924" lon="138.681231"></trkpt>
      <trkpt lat="35.501911" lon="138.68115"></trkpt>
      <trkpt lat="35.501905" lon="138.68102"></trkpt>
      <trkpt lat="35.501915" lon="138.680881"></trkpt>
      <trkpt lat="35.501943" lon="138.68068"></trkpt>
      <trkpt lat="35.501985" lon="138.680534"></trkpt>
      <trkpt lat="35.502153" lon="138.680071"></trkpt>
      <trkpt lat="35.502349" lon="138.679543"></trkpt>
      <trkpt lat="35.502407" lon="138.679381"></trkpt>
      <trkpt lat="35.50244" lon="138.679252"></trkpt>
      <trkpt lat="35.502452" lon="138.679106"></trkpt>
      <trkpt lat="35.502437" lon="138.678983"></trkpt>
      <trkpt lat="35.5024" lon="138.678829"></trkpt>
      <trkpt lat="35.502208" lon="138.678252"></trkpt>
      <trkpt lat="35.502124" lon="138.678068"></trkpt>
      <trkpt lat="35.502047" lon="138.677952"></trkpt>
      <trkpt lat="35.501977" lon="138.677871"></trkpt>
      <trkpt lat="35.50186" lon="138.677765"></trkpt>
      <trkpt lat="35.501502" lon="138.677453"></trkpt>
      <trkpt lat="35.501124" lon="138.677127"></trkpt>
      <trkpt lat="35.501049" lon="138.677044"></trkpt>
      <trkpt lat="35.501011" lon="138.676973"></trkpt>
      <trkpt lat="35.500981" lon="138.676872"></trkpt>
      <trkpt lat="35.500983" lon="138.676783"></trkpt>
      <trkpt lat="35.50101" lon="138.676687"></trkpt>
      <trkpt lat="35.501074" lon="138.676565"></trkpt>
      <trkpt lat="35.501216" lon="138.676375"></trkpt>
      <trkpt lat="35.501788" lon="138.675612"></trkpt>
      <trkpt lat="35.501951" lon="138.675381"></trkpt>
      <trkpt lat="35.502003" lon="138.675286"></trkpt>
      <trkpt lat="35.502055" lon="138.675181"></trkpt>
      <trkpt lat="35.5021" lon="138.675064"></trkpt>
      <trkpt lat="35.502118" lon="138.67495"></trkpt>
      <trkpt lat="35.502153" lon="138.67445"></trkpt>
      <trkpt lat="35.502161" lon="138.674023"></trkpt>
      <trkpt lat="35.502143" lon="138.673863"></trkpt>
      <trkpt lat="35.50211" lon="138.673742"></trkpt>
      <trkpt lat="35.502076" lon="138.673635"></trkpt>
      <trkpt lat="35.502006" lon="138.673487"></trkpt>
      <trkpt lat="35.501925" lon="138.673365"></trkpt>
      <trkpt lat="35.501844" lon="138.673257"></trkpt>
      <trkpt lat="35.501728" lon="138.673108"></trkpt>
      <trkpt lat="35.501629" lon="138.673016"></trkpt>
      <trkpt lat="35.501529" lon="138.672945"></trkpt>
      <trkpt lat="35.501388" lon="138.672883"></trkpt>
      <trkpt lat="35.501158" lon="138.672826"></trkpt>
      <trkpt lat="35.500769" lon="138.672734"></trkpt>
      <trkpt lat="35.500669" lon="138.672689"></trkpt>
      <trkpt lat="35.500581" lon="138.672635"></trkpt>
      <trkpt lat="35.500514" lon="138.672564"></trkpt>
      <trkpt lat="35.500409" lon="138.672421"></trkpt>
      <trkpt lat="35.50005" lon="138.671894"></trkpt>
      <trkpt lat="35.499828" lon="138.671568"></trkpt>
      <trkpt lat="35.49978" lon="138.671478"></trkpt>
      <trkpt lat="35.499762" lon="138.671395"></trkpt>
      <trkpt lat="35.499766" lon="138.671311"></trkpt>
      <trkpt lat="35.499792" lon="138.671245"></trkpt>
      <trkpt lat="35.499849" lon="138.671177"></trkpt>
      <trkpt lat="35.499955" lon="138.67111"></trkpt>
      <trkpt lat="35.500039" lon="138.671081"></trkpt>
      <trkpt lat="35.500123" lon="138.671066"></trkpt>
      <trkpt lat="35.500294" lon="138.671049"></trkpt>
      <trkpt lat="35.500501" lon="138.671035"></trkpt>
      <trkpt lat="35.500652" lon="138.670992"></trkpt>
      <trkpt lat="35.500743" lon="138.670944"></trkpt>
      <trkpt lat="35.50081" lon="138.670887"></trkpt>
      <trkpt lat="35.500867" lon="138.67081"></trkpt>
      <trkpt lat="35.500911" lon="138.670724"></trkpt>
      <trkpt lat="35.500998" lon="138.670502"></trkpt>
      <trkpt lat="35.501132" lon="138.670101"></trkpt>
      <trkpt lat="35.501187" lon="138.669903"></trkpt>
      <trkpt lat="35.501203" lon="138.66981"></trkpt>
      <trkpt lat="35.501207" lon="138.669703"></trkpt>
      <trkpt lat="35.501189" lon="138.669574"></trkpt>
      <trkpt lat="35.501149" lon="138.6694"></trkpt>
      <trkpt lat="35.501087" lon="138.6692"></trkpt>
      <trkpt lat="35.501035" lon="138.669095"></trkpt>
      <trkpt lat="35.500954" lon="138.668986"></trkpt>
      <trkpt lat="35.500832" lon="138.668883"></trkpt>
      <trkpt lat="35.500509" lon="138.668655"></trkpt>
      <trkpt lat="35.500414" lon="138.668546"></trkpt>
      <trkpt lat="35.500347" lon="138.668441"></trkpt>
      <trkpt lat="35.500085" lon="138.667977"></trkpt>
      <trkpt lat="35.499737" lon="138.667351"></trkpt>
      <trkpt lat="35.499563" lon="138.667079"></trkpt>
      <trkpt lat="35.499523" lon="138.666994"></trkpt>
      <trkpt lat="35.499482" lon="138.666894"></trkpt>
      <trkpt lat="35.499474" lon="138.66681"></trkpt>
      <trkpt lat="35.499484" lon="138.666712"></trkpt>
      <trkpt lat="35.499519" lon="138.666605"></trkpt>
      <trkpt lat="35.499577" lon="138.666512"></trkpt>
      <trkpt lat="35.499656" lon="138.666441"></trkpt>
      <trkpt lat="35.500063" lon="138.666201"></trkpt>
      <trkpt lat="35.500209" lon="138.66609"></trkpt>
      <trkpt lat="35.500384" lon="138.66593"></trkpt>
      <trkpt lat="35.500545" lon="138.665736"></trkpt>
      <trkpt lat="35.50069" lon="138.665525"></trkpt>
      <trkpt lat="35.501067" lon="138.664831"></trkpt>
      <trkpt lat="35.501243" lon="138.664488"></trkpt>
      <trkpt lat="35.501402" lon="138.664198"></trkpt>
      <trkpt lat="35.50144" lon="138.664107"></trkpt>
      <trkpt lat="35.501498" lon="138.663973"></trkpt>
      <trkpt lat="35.501541" lon="138.663758"></trkpt>
      <trkpt lat="35.501567" lon="138.663535"></trkpt>
      <trkpt lat="35.501573" lon="138.663326"></trkpt>
      <trkpt lat="35.501573" lon="138.663134"></trkpt>
      <trkpt lat="35.501564" lon="138.662853"></trkpt>
      <trkpt lat="35.501563" lon="138.662632"></trkpt>
      <trkpt lat="35.501535" lon="138.662358"></trkpt>
      <trkpt lat="35.501537" lon="138.661988"></trkpt>
      <trkpt lat="35.501545" lon="138.661715"></trkpt>
      <trkpt lat="35.501605" lon="138.661355"></trkpt>
      <trkpt lat="35.501713" lon="138.660875"></trkpt>
      <trkpt lat="35.501806" lon="138.660491"></trkpt>
      <trkpt lat="35.501848" lon="138.660307"></trkpt>
      <trkpt lat="35.501868" lon="138.660161"></trkpt>
      <trkpt lat="35.501875" lon="138.660011"></trkpt>
      <trkpt lat="35.501858" lon="138.659876"></trkpt>
      <trkpt lat="35.501841" lon="138.659753"></trkpt>
      <trkpt lat="35.501797" lon="138.65959"></trkpt>
      <trkpt lat="35.501734" lon="138.65946"></trkpt>
      <trkpt lat="35.50165" lon="138.659323"></trkpt>
      <trkpt lat="35.501569" lon="138.659225"></trkpt>
      <trkpt lat="35.501463" lon="138.659128"></trkpt>
      <trkpt lat="35.501366" lon="138.659062"></trkpt>
      <trkpt lat="35.501229" lon="138.658999"></trkpt>
      <trkpt lat="35.501065" lon="138.658958"></trkpt>
      <trkpt lat="35.500802" lon="138.658934"></trkpt>
      <trkpt lat="35.500634" lon="138.658915"></trkpt>
      <trkpt lat="35.500239" lon="138.658877"></trkpt>
      <trkpt lat="35.49986" lon="138.658845"></trkpt>
      <trkpt lat="35.499713" lon="138.658781"></trkpt>
      <trkpt lat="35.499581" lon="138.658678"></trkpt>
      <trkpt lat="35.499529" lon="138.658632"></trkpt>
      <trkpt lat="35.499501" lon="138.658583"></trkpt>
      <trkpt lat="35.499458" lon="138.658482"></trkpt>
      <trkpt lat="35.499354" lon="138.658031"></trkpt>
      <trkpt lat="35.499244" lon="138.65754"></trkpt>
      <trkpt lat="35.499212" lon="138.65732"></trkpt>
      <trkpt lat="35.499215" lon="138.657071"></trkpt>
      <trkpt lat="35.499273" lon="138.656612"></trkpt>
      <trkpt lat="35.4993" lon="138.656405"></trkpt>
      <trkpt lat="35.499313" lon="138.656117"></trkpt>
      <trkpt lat="35.499275" lon="138.655709"></trkpt>
      <trkpt lat="35.499162" lon="138.65486"></trkpt>
      <trkpt lat="35.499014" lon="138.653711"></trkpt>
      <trkpt lat="35.498924" lon="138.653106"></trkpt>
      <trkpt lat="35.498873" lon="138.652911"></trkpt>
      <trkpt lat="35.49877" lon="138.652674"></trkpt>
      <trkpt lat="35.498617" lon="138.652349"></trkpt>
      <trkpt lat="35.49842" lon="138.651968"></trkpt>
      <trkpt lat="35.498166" lon="138.651563"></trkpt>
      <trkpt lat="35.497593" lon="138.650726"></trkpt>
      <trkpt lat="35.497339" lon="138.650356"></trkpt>
      <trkpt lat="35.49721" lon="138.65018"></trkpt>
      <trkpt lat="35.497082" lon="138.65001"></trkpt>
      <trkpt lat="35.496863" lon="138.649798"></trkpt>
      <trkpt lat="35.496591" lon="138.649619"></trkpt>
      <trkpt lat="35.496484" lon="138.649565"></trkpt>
      <trkpt lat="35.496366" lon="138.649512"></trkpt>
      <trkpt lat="35.496227" lon="138.649471"></trkpt>
      <trkpt lat="35.496083" lon="138.649437"></trkpt>
      <trkpt lat="35.495092" lon="138.649295"></trkpt>
      <trkpt lat="35.494931" lon="138.649277"></trkpt>
      <trkpt lat="35.494721" lon="138.649272"></trkpt>
      <trkpt lat="35.494622" lon="138.64928"></trkpt>
      <trkpt lat="35.494511" lon="138.649296"></trkpt>
      <trkpt lat="35.494396" lon="138.649324"></trkpt>
      <trkpt lat="35.494285" lon="138.649367"></trkpt>
      <trkpt lat="35.493724" lon="138.649602"></trkpt>
      <trkpt lat="35.493287" lon="138.649793"></trkpt>
      <trkpt lat="35.493092" lon="138.649854"></trkpt>
      <trkpt lat="35.492916" lon="138.649875"></trkpt>
      <trkpt lat="35.492777" lon="138.649851"></trkpt>
      <trkpt lat="35.492631" lon="138.649806"></trkpt>
      <trkpt lat="35.492359" lon="138.64969"></trkpt>
      <trkpt lat="35.492119" lon="138.64959"></trkpt>
      <trkpt lat="35.491591" lon="138.649352"></trkpt>
      <trkpt lat="35.49137" lon="138.649239"></trkpt>
      <trkpt lat="35.491256" lon="138.649159"></trkpt>
      <trkpt lat="35.491142" lon="138.649064"></trkpt>
      <trkpt lat="35.491025" lon="138.648955"></trkpt>
      <trkpt lat="35.490888" lon="138.64879"></trkpt>
      <trkpt lat="35.490798" lon="138.648657"></trkpt>
      <trkpt lat="35.490711" lon="138.648505"></trkpt>
      <trkpt lat="35.490609" lon="138.648278"></trkpt>
      <trkpt lat="35.490226" lon="138.647294"></trkpt>
      <trkpt lat="35.49012" lon="138.647064"></trkpt>
      <trkpt lat="35.489973" lon="138.646823"></trkpt>
      <trkpt lat="35.489793" lon="138.646548"></trkpt>
      <trkpt lat="35.489013" lon="138.645379"></trkpt>
      <trkpt lat="35.488668" lon="138.644845"></trkpt>
      <trkpt lat="35.488322" lon="138.644326"></trkpt>
      <trkpt lat="35.488289" lon="138.64428"></trkpt>
      <trkpt lat="35.488252" lon="138.644243"></trkpt>
      <trkpt lat="35.488197" lon="138.644223"></trkpt>
      <trkpt lat="35.488143" lon="138.644215"></trkpt>
      <trkpt lat="35.488031" lon="138.644211"></trkpt>
      <trkpt lat="35.488025" lon="138.643817"></trkpt>
      <trkpt lat="35.487999" lon="138.643611"></trkpt>
      <trkpt lat="35.487969" lon="138.643413"></trkpt>
      <trkpt lat="35.487938" lon="138.643317"></trkpt>
      <trkpt lat="35.48789" lon="138.643166"></trkpt>
      <trkpt lat="35.487811" lon="138.642945"></trkpt>
      <trkpt lat="35.487701" lon="138.642673"></trkpt>
      <trkpt lat="35.486751" lon="138.640416"></trkpt>
      <trkpt lat="35.486416" lon="138.639624"></trkpt>
      <trkpt lat="35.486237" lon="138.639201"></trkpt>
      <trkpt lat="35.486165" lon="138.639011"></trkpt>
      <trkpt lat="35.486099" lon="138.638814"></trkpt>
      <trkpt lat="35.486054" lon="138.638606"></trkpt>
      <trkpt lat="35.486035" lon="138.63847"></trkpt>
      <trkpt lat="35.486019" lon="138.638295"></trkpt>
      <trkpt lat="35.486017" lon="138.638135"></trkpt>
      <trkpt lat="35.486031" lon="138.637923"></trkpt>
      <trkpt lat="35.486079" lon="138.637613"></trkpt>
      <trkpt lat="35.486327" lon="138.636239"></trkpt>
      <trkpt lat="35.486377" lon="138.635959"></trkpt>
      <trkpt lat="35.486407" lon="138.635756"></trkpt>
      <trkpt lat="35.486409" lon="138.635571"></trkpt>
      <trkpt lat="35.486394" lon="138.635404"></trkpt>
      <trkpt lat="35.48636" lon="138.635229"></trkpt>
      <trkpt lat="35.486275" lon="138.634954"></trkpt>
      <trkpt lat="35.485982" lon="138.634289"></trkpt>
      <trkpt lat="35.485757" lon="138.633782"></trkpt>
      <trkpt lat="35.485687" lon="138.6336"></trkpt>
      <trkpt lat="35.485651" lon="138.633384"></trkpt>
      <trkpt lat="35.485651" lon="138.633205"></trkpt>
      <trkpt lat="35.485671" lon="138.632996"></trkpt>
      <trkpt lat="35.485707" lon="138.632852"></trkpt>
      <trkpt lat="35.485756" lon="138.63271"></trkpt>
      <trkpt lat="35.48653" lon="138.630806"></trkpt>
      <trkpt lat="35.486816" lon="138.630078"></trkpt>
      <trkpt lat="35.487071" lon="138.629408"></trkpt>
      <trkpt lat="35.487633" lon="138.627974"></trkpt>
      <trkpt lat="35.487785" lon="138.627618"></trkpt>
      <trkpt lat="35.487828" lon="138.627519"></trkpt>
      <trkpt lat="35.487933" lon="138.627279"></trkpt>
      <trkpt lat="35.488062" lon="138.627019"></trkpt>
      <trkpt lat="35.488258" lon="138.626664"></trkpt>
      <trkpt lat="35.488359" lon="138.626487"></trkpt>
      <trkpt lat="35.488572" lon="138.626138"></trkpt>
      <trkpt lat="35.489024" lon="138.625393"></trkpt>
      <trkpt lat="35.489124" lon="138.62522"></trkpt>
      <trkpt lat="35.489266" lon="138.624981"></trkpt>
      <trkpt lat="35.489379" lon="138.624744"></trkpt>
      <trkpt lat="35.489434" lon="138.624617"></trkpt>
      <trkpt lat="35.489482" lon="138.624441"></trkpt>
      <trkpt lat="35.489512" lon="138.624299"></trkpt>
      <trkpt lat="35.489539" lon="138.624115"></trkpt>
      <trkpt lat="35.489541" lon="138.623892"></trkpt>
      <trkpt lat="35.489523" lon="138.623696"></trkpt>
      <trkpt lat="35.489494" lon="138.623553"></trkpt>
      <trkpt lat="35.489441" lon="138.623367"></trkpt>
      <trkpt lat="35.489378" lon="138.623203"></trkpt>
      <trkpt lat="35.489309" lon="138.62305"></trkpt>
      <trkpt lat="35.489147" lon="138.622739"></trkpt>
      <trkpt lat="35.488863" lon="138.622237"></trkpt>
      <trkpt lat="35.488633" lon="138.621831"></trkpt>
      <trkpt lat="35.488314" lon="138.621293"></trkpt>
      <trkpt lat="35.488045" lon="138.620804"></trkpt>
      <trkpt lat="35.487828" lon="138.620435"></trkpt>
      <trkpt lat="35.487662" lon="138.620205"></trkpt>
      <trkpt lat="35.487479" lon="138.620012"></trkpt>
      <trkpt lat="35.487356" lon="138.619908"></trkpt>
      <trkpt lat="35.487234" lon="138.619826"></trkpt>
      <trkpt lat="35.487068" lon="138.61972"></trkpt>
      <trkpt lat="35.48689" lon="138.619642"></trkpt>
      <trkpt lat="35.486669" lon="138.619554"></trkpt>
      <trkpt lat="35.485393" lon="138.61907"></trkpt>
      <trkpt lat="35.485448" lon="138.618941"></trkpt>
      <trkpt lat="35.485531" lon="138.618712"></trkpt>
      <trkpt lat="35.485637" lon="138.618444"></trkpt>
      <trkpt lat="35.485863" lon="138.617798"></trkpt>
      <trkpt lat="35.48593" lon="138.617609"></trkpt>
      <trkpt lat="35.485986" lon="138.617399"></trkpt>
      <trkpt lat="35.486051" lon="138.617031"></trkpt>
      <trkpt lat="35.48611" lon="138.616578"></trkpt>
      <trkpt lat="35.48626" lon="138.615631"></trkpt>
      <trkpt lat="35.486317" lon="138.61543"></trkpt>
      <trkpt lat="35.486372" lon="138.615322"></trkpt>
      <trkpt lat="35.486472" lon="138.615202"></trkpt>
      <trkpt lat="35.486559" lon="138.615145"></trkpt>
      <trkpt lat="35.48667" lon="138.615099"></trkpt>
      <trkpt lat="35.486773" lon="138.615079"></trkpt>
      <trkpt lat="35.486906" lon="138.615097"></trkpt>
      <trkpt lat="35.487131" lon="138.615164"></trkpt>
      <trkpt lat="35.487478" lon="138.615259"></trkpt>
      <trkpt lat="35.487801" lon="138.615344"></trkpt>
      <trkpt lat="35.487907" lon="138.615355"></trkpt>
      <trkpt lat="35.488024" lon="138.615344"></trkpt>
      <trkpt lat="35.488124" lon="138.61531"></trkpt>
      <trkpt lat="35.488254" lon="138.615234"></trkpt>
      <trkpt lat="35.488332" lon="138.615144"></trkpt>
      <trkpt lat="35.488403" lon="138.615047"></trkpt>
      <trkpt lat="35.488455" lon="138.614927"></trkpt>
      <trkpt lat="35.488501" lon="138.614769"></trkpt>
      <trkpt lat="35.48864" lon="138.613551"></trkpt>
      <trkpt lat="35.488729" lon="138.61274"></trkpt>
      <trkpt lat="35.488753" lon="138.612584"></trkpt>
      <trkpt lat="35.488773" lon="138.612456"></trkpt>
      <trkpt lat="35.488811" lon="138.612322"></trkpt>
      <trkpt lat="35.488859" lon="138.612198"></trkpt>
      <trkpt lat="35.489011" lon="138.611863"></trkpt>
      <trkpt lat="35.489168" lon="138.611499"></trkpt>
      <trkpt lat="35.489237" lon="138.611386"></trkpt>
      <trkpt lat="35.48929" lon="138.611342"></trkpt>
      <trkpt lat="35.489369" lon="138.611318"></trkpt>
      <trkpt lat="35.489445" lon="138.611331"></trkpt>
      <trkpt lat="35.489506" lon="138.611359"></trkpt>
      <trkpt lat="35.489593" lon="138.611436"></trkpt>
      <trkpt lat="35.489682" lon="138.611542"></trkpt>
      <trkpt lat="35.489756" lon="138.611625"></trkpt>
      <trkpt lat="35.489891" lon="138.611808"></trkpt>
      <trkpt lat="35.489995" lon="138.611932"></trkpt>
      <trkpt lat="35.490091" lon="138.61204"></trkpt>
      <trkpt lat="35.490193" lon="138.612099"></trkpt>
      <trkpt lat="35.490278" lon="138.61213"></trkpt>
      <trkpt lat="35.490395" lon="138.612163"></trkpt>
      <trkpt lat="35.490576" lon="138.612207"></trkpt>
      <trkpt lat="35.490801" lon="138.61224"></trkpt>
      <trkpt lat="35.490913" lon="138.612223"></trkpt>
      <trkpt lat="35.491018" lon="138.612178"></trkpt>
      <trkpt lat="35.491108" lon="138.612136"></trkpt>
      <trkpt lat="35.491194" lon="138.612066"></trkpt>
      <trkpt lat="35.491291" lon="138.611941"></trkpt>
      <trkpt lat="35.49136" lon="138.611807"></trkpt>
      <trkpt lat="35.491434" lon="138.611635"></trkpt>
      <trkpt lat="35.49157" lon="138.611292"></trkpt>
      <trkpt lat="35.491706" lon="138.610991"></trkpt>
      <trkpt lat="35.491786" lon="138.610834"></trkpt>
      <trkpt lat="35.49186" lon="138.610745"></trkpt>
      <trkpt lat="35.491929" lon="138.610684"></trkpt>
      <trkpt lat="35.49205" lon="138.610622"></trkpt>
      <trkpt lat="35.492144" lon="138.610601"></trkpt>
      <trkpt lat="35.492237" lon="138.610597"></trkpt>
      <trkpt lat="35.492326" lon="138.610618"></trkpt>
      <trkpt lat="35.492501" lon="138.61069"></trkpt>
      <trkpt lat="35.492684" lon="138.610804"></trkpt>
      <trkpt lat="35.49289" lon="138.610923"></trkpt>
      <trkpt lat="35.493031" lon="138.610935"></trkpt>
      <trkpt lat="35.493142" lon="138.61092"></trkpt>
      <trkpt lat="35.493339" lon="138.610822"></trkpt>
      <trkpt lat="35.493442" lon="138.610773"></trkpt>
      <trkpt lat="35.493546" lon="138.610719"></trkpt>
      <trkpt lat="35.493883" lon="138.610534"></trkpt>
      <trkpt lat="35.493959" lon="138.610481"></trkpt>
      <trkpt lat="35.494034" lon="138.610404"></trkpt>
      <trkpt lat="35.494054" lon="138.610355"></trkpt>
      <trkpt lat="35.494159" lon="138.610096"></trkpt>
      <trkpt lat="35.494381" lon="138.609333"></trkpt>
      <trkpt lat="35.494401" lon="138.609262"></trkpt>
      <trkpt lat="35.494419" lon="138.6092"></trkpt>
      <trkpt lat="35.494431" lon="138.60912"></trkpt>
      <trkpt lat="35.494423" lon="138.609016"></trkpt>
      <trkpt lat="35.494384" lon="138.6089"></trkpt>
      <trkpt lat="35.494056" lon="138.608271"></trkpt>
      <trkpt lat="35.493922" lon="138.608004"></trkpt>
      <trkpt lat="35.493867" lon="138.6079"></trkpt>
      <trkpt lat="35.493821" lon="138.607778"></trkpt>
      <trkpt lat="35.49377" lon="138.607625"></trkpt>
      <trkpt lat="35.493723" lon="138.607454"></trkpt>
      <trkpt lat="35.493635" lon="138.6071"></trkpt>
      <trkpt lat="35.49359" lon="138.606976"></trkpt>
      <trkpt lat="35.49354" lon="138.606858"></trkpt>
      <trkpt lat="35.493463" lon="138.60674"></trkpt>
      <trkpt lat="35.493403" lon="138.606673"></trkpt>
      <trkpt lat="35.493333" lon="138.606613"></trkpt>
      <trkpt lat="35.493233" lon="138.606555"></trkpt>
      <trkpt lat="35.492916" lon="138.606474"></trkpt>
      <trkpt lat="35.492561" lon="138.606394"></trkpt>
      <trkpt lat="35.492433" lon="138.606355"></trkpt>
      <trkpt lat="35.492318" lon="138.606318"></trkpt>
      <trkpt lat="35.492209" lon="138.606262"></trkpt>
      <trkpt lat="35.492114" lon="138.606196"></trkpt>
      <trkpt lat="35.492046" lon="138.606132"></trkpt>
      <trkpt lat="35.491977" lon="138.606043"></trkpt>
      <trkpt lat="35.491844" lon="138.605854"></trkpt>
      <trkpt lat="35.49177" lon="138.605699"></trkpt>
      <trkpt lat="35.491747" lon="138.605611"></trkpt>
      <trkpt lat="35.491735" lon="138.605504"></trkpt>
      <trkpt lat="35.491738" lon="138.605389"></trkpt>
      <trkpt lat="35.491767" lon="138.605198"></trkpt>
      <trkpt lat="35.491812" lon="138.60497"></trkpt>
      <trkpt lat="35.491877" lon="138.60462"></trkpt>
      <trkpt lat="35.491896" lon="138.604428"></trkpt>
      <trkpt lat="35.491878" lon="138.604253"></trkpt>
      <trkpt lat="35.491849" lon="138.604147"></trkpt>
      <trkpt lat="35.491744" lon="138.603837"></trkpt>
      <trkpt lat="35.491621" lon="138.603521"></trkpt>
      <trkpt lat="35.49154" lon="138.60333"></trkpt>
      <trkpt lat="35.491417" lon="138.603047"></trkpt>
      <trkpt lat="35.49132" lon="138.602868"></trkpt>
      <trkpt lat="35.491189" lon="138.602716"></trkpt>
      <trkpt lat="35.491108" lon="138.602649"></trkpt>
      <trkpt lat="35.491022" lon="138.602593"></trkpt>
      <trkpt lat="35.490942" lon="138.602552"></trkpt>
      <trkpt lat="35.490847" lon="138.602519"></trkpt>
      <trkpt lat="35.490722" lon="138.602482"></trkpt>
      <trkpt lat="35.490087" lon="138.602465"></trkpt>
      <trkpt lat="35.489867" lon="138.602461"></trkpt>
      <trkpt lat="35.489704" lon="138.602476"></trkpt>
      <trkpt lat="35.489577" lon="138.602496"></trkpt>
      <trkpt lat="35.489447" lon="138.602551"></trkpt>
      <trkpt lat="35.489299" lon="138.60263"></trkpt>
      <trkpt lat="35.489184" lon="138.602712"></trkpt>
      <trkpt lat="35.48909" lon="138.602806"></trkpt>
      <trkpt lat="35.488996" lon="138.602914"></trkpt>
      <trkpt lat="35.488939" lon="138.603024"></trkpt>
      <trkpt lat="35.48891" lon="138.603124"></trkpt>
      <trkpt lat="35.488909" lon="138.603225"></trkpt>
      <trkpt lat="35.488928" lon="138.603344"></trkpt>
      <trkpt lat="35.488968" lon="138.603456"></trkpt>
      <trkpt lat="35.48904" lon="138.603622"></trkpt>
      <trkpt lat="35.489066" lon="138.603703"></trkpt>
      <trkpt lat="35.489082" lon="138.603848"></trkpt>
      <trkpt lat="35.489061" lon="138.603964"></trkpt>
      <trkpt lat="35.489016" lon="138.604046"></trkpt>
      <trkpt lat="35.488954" lon="138.604111"></trkpt>
      <trkpt lat="35.488841" lon="138.604153"></trkpt>
      <trkpt lat="35.488691" lon="138.604172"></trkpt>
      <trkpt lat="35.488541" lon="138.604192"></trkpt>
      <trkpt lat="35.488407" lon="138.604229"></trkpt>
      <trkpt lat="35.488283" lon="138.604292"></trkpt>
      <trkpt lat="35.488189" lon="138.604375"></trkpt>
      <trkpt lat="35.488057" lon="138.604508"></trkpt>
      <trkpt lat="35.487942" lon="138.604596"></trkpt>
      <trkpt lat="35.48785" lon="138.604641"></trkpt>
      <trkpt lat="35.48772" lon="138.604669"></trkpt>
      <trkpt lat="35.487567" lon="138.604658"></trkpt>
      <trkpt lat="35.487479" lon="138.604623"></trkpt>
      <trkpt lat="35.48734" lon="138.604545"></trkpt>
      <trkpt lat="35.487201" lon="138.604438"></trkpt>
      <trkpt lat="35.487073" lon="138.604327"></trkpt>
      <trkpt lat="35.486929" lon="138.604238"></trkpt>
      <trkpt lat="35.486709" lon="138.604111"></trkpt>
      <trkpt lat="35.4863" lon="138.603889"></trkpt>
      <trkpt lat="35.48617" lon="138.603844"></trkpt>
      <trkpt lat="35.486089" lon="138.60382"></trkpt>
      <trkpt lat="35.486001" lon="138.60381"></trkpt>
      <trkpt lat="35.48586" lon="138.603821"></trkpt>
      <trkpt lat="35.485706" lon="138.603861"></trkpt>
      <trkpt lat="35.485566" lon="138.603949"></trkpt>
      <trkpt lat="35.485484" lon="138.604025"></trkpt>
      <trkpt lat="35.485414" lon="138.604101"></trkpt>
      <trkpt lat="35.485357" lon="138.604194"></trkpt>
      <trkpt lat="35.4853" lon="138.604309"></trkpt>
      <trkpt lat="35.485268" lon="138.604422"></trkpt>
      <trkpt lat="35.485247" lon="138.604541"></trkpt>
      <trkpt lat="35.485217" lon="138.604854"></trkpt>
      <trkpt lat="35.485167" lon="138.605095"></trkpt>
      <trkpt lat="35.485119" lon="138.60521"></trkpt>
      <trkpt lat="35.484071" lon="138.606559"></trkpt>
      <trkpt lat="35.484071" lon="138.606559"></trkpt>
      <trkpt lat="35.48382" lon="138.606746"></trkpt>
      <trkpt lat="35.483715" lon="138.606806"></trkpt>
      <trkpt lat="35.48361" lon="138.606852"></trkpt>
      <trkpt lat="35.483528" lon="138.606867"></trkpt>
      <trkpt lat="35.48344" lon="138.606871"></trkpt>
      <trkpt lat="35.483353" lon="138.606847"></trkpt>
      <trkpt lat="35.483269" lon="138.606812"></trkpt>
      <trkpt lat="35.483184" lon="138.606747"></trkpt>
      <trkpt lat="35.483122" lon="138.606668"></trkpt>
      <trkpt lat="35.483077" lon="138.606588"></trkpt>
      <trkpt lat="35.483032" lon="138.606444"></trkpt>
      <trkpt lat="35.482992" lon="138.606256"></trkpt>
      <trkpt lat="35.482962" lon="138.606045"></trkpt>
      <trkpt lat="35.482933" lon="138.605863"></trkpt>
      <trkpt lat="35.482883" lon="138.605726"></trkpt>
      <trkpt lat="35.482815" lon="138.605623"></trkpt>
      <trkpt lat="35.482745" lon="138.605561"></trkpt>
      <trkpt lat="35.482658" lon="138.605527"></trkpt>
      <trkpt lat="35.482571" lon="138.605513"></trkpt>
      <trkpt lat="35.482483" lon="138.60552"></trkpt>
      <trkpt lat="35.482242" lon="138.60563"></trkpt>
      <trkpt lat="35.482002" lon="138.605754"></trkpt>
      <trkpt lat="35.481684" lon="138.605901"></trkpt>
      <trkpt lat="35.481495" lon="138.605991"></trkpt>
      <trkpt lat="35.481318" lon="138.606077"></trkpt>
      <trkpt lat="35.481137" lon="138.606188"></trkpt>
      <trkpt lat="35.481058" lon="138.60626"></trkpt>
      <trkpt lat="35.480979" lon="138.606347"></trkpt>
      <trkpt lat="35.480909" lon="138.606445"></trkpt>
      <trkpt lat="35.480845" lon="138.60658"></trkpt>
      <trkpt lat="35.480803" lon="138.606714"></trkpt>
      <trkpt lat="35.480762" lon="138.606921"></trkpt>
      <trkpt lat="35.480759" lon="138.607114"></trkpt>
      <trkpt lat="35.480774" lon="138.607337"></trkpt>
      <trkpt lat="35.480782" lon="138.607568"></trkpt>
      <trkpt lat="35.480724" lon="138.608036"></trkpt>
      <trkpt lat="35.480686" lon="138.608456"></trkpt>
      <trkpt lat="35.480708" lon="138.608843"></trkpt>
      <trkpt lat="35.480689" lon="138.609078"></trkpt>
      <trkpt lat="35.480576" lon="138.60967"></trkpt>
      <trkpt lat="35.480568" lon="138.609831"></trkpt>
      <trkpt lat="35.480579" lon="138.610014"></trkpt>
      <trkpt lat="35.480611" lon="138.610214"></trkpt>
      <trkpt lat="35.480638" lon="138.610406"></trkpt>
      <trkpt lat="35.480652" lon="138.610595"></trkpt>
      <trkpt lat="35.480634" lon="138.610718"></trkpt>
      <trkpt lat="35.480536" lon="138.610918"></trkpt>
      <trkpt lat="35.480389" lon="138.610732"></trkpt>
      <trkpt lat="35.479866" lon="138.610079"></trkpt>
      <trkpt lat="35.479808" lon="138.61001"></trkpt>
      <trkpt lat="35.479529" lon="138.60968"></trkpt>
      <trkpt lat="35.47944" lon="138.609546"></trkpt>
      <trkpt lat="35.479369" lon="138.609398"></trkpt>
      <trkpt lat="35.47924" lon="138.609091"></trkpt>
      <trkpt lat="35.478836" lon="138.60808"></trkpt>
      <trkpt lat="35.478757" lon="138.60788"></trkpt>
      <trkpt lat="35.478686" lon="138.607702"></trkpt>
      <trkpt lat="35.478594" lon="138.607496"></trkpt>
      <trkpt lat="35.478498" lon="138.607348"></trkpt>
      <trkpt lat="35.478379" lon="138.607211"></trkpt>
      <trkpt lat="35.478252" lon="138.607103"></trkpt>
      <trkpt lat="35.478116" lon="138.607027"></trkpt>
      <trkpt lat="35.477965" lon="138.606978"></trkpt>
      <trkpt lat="35.477836" lon="138.606971"></trkpt>
      <trkpt lat="35.477705" lon="138.607005"></trkpt>
      <trkpt lat="35.477511" lon="138.607081"></trkpt>
      <trkpt lat="35.477273" lon="138.607191"></trkpt>
      <trkpt lat="35.476944" lon="138.607349"></trkpt>
      <trkpt lat="35.476593" lon="138.60752"></trkpt>
      <trkpt lat="35.476248" lon="138.60769"></trkpt>
      <trkpt lat="35.476133" lon="138.607732"></trkpt>
      <trkpt lat="35.475977" lon="138.607773"></trkpt>
      <trkpt lat="35.47584" lon="138.607773"></trkpt>
      <trkpt lat="35.475685" lon="138.607731"></trkpt>
      <trkpt lat="35.475488" lon="138.607658"></trkpt>
      <trkpt lat="35.475048" lon="138.607496"></trkpt>
      <trkpt lat="35.474887" lon="138.607482"></trkpt>
      <trkpt lat="35.474782" lon="138.607496"></trkpt>
      <trkpt lat="35.474655" lon="138.607541"></trkpt>
      <trkpt lat="35.474561" lon="138.607597"></trkpt>
      <trkpt lat="35.474488" lon="138.607654"></trkpt>
      <trkpt lat="35.474435" lon="138.607733"></trkpt>
      <trkpt lat="35.474385" lon="138.607821"></trkpt>
      <trkpt lat="35.474346" lon="138.607963"></trkpt>
      <trkpt lat="35.474318" lon="138.608133"></trkpt>
      <trkpt lat="35.474318" lon="138.608364"></trkpt>
      <trkpt lat="35.474338" lon="138.608643"></trkpt>
      <trkpt lat="35.474493" lon="138.610196"></trkpt>
      <trkpt lat="35.474502" lon="138.6104"></trkpt>
      <trkpt lat="35.474486" lon="138.610547"></trkpt>
      <trkpt lat="35.474452" lon="138.610693"></trkpt>
      <trkpt lat="35.474409" lon="138.610818"></trkpt>
      <trkpt lat="35.4743" lon="138.610989"></trkpt>
      <trkpt lat="35.474175" lon="138.611131"></trkpt>
      <trkpt lat="35.473996" lon="138.611314"></trkpt>
      <trkpt lat="35.473775" lon="138.611543"></trkpt>
      <trkpt lat="35.473555" lon="138.611784"></trkpt>
      <trkpt lat="35.473275" lon="138.612077"></trkpt>
      <trkpt lat="35.473095" lon="138.61226"></trkpt>
      <trkpt lat="35.472964" lon="138.612412"></trkpt>
      <trkpt lat="35.472841" lon="138.612557"></trkpt>
      <trkpt lat="35.472574" lon="138.612892"></trkpt>
      <trkpt lat="35.472292" lon="138.613259"></trkpt>
      <trkpt lat="35.472204" lon="138.613366"></trkpt>
      <trkpt lat="35.472116" lon="138.613445"></trkpt>
      <trkpt lat="35.471998" lon="138.613528"></trkpt>
      <trkpt lat="35.471865" lon="138.613603"></trkpt>
      <trkpt lat="35.471716" lon="138.613655"></trkpt>
      <trkpt lat="35.471601" lon="138.613667"></trkpt>
      <trkpt lat="35.471485" lon="138.613655"></trkpt>
      <trkpt lat="35.471344" lon="138.613602"></trkpt>
      <trkpt lat="35.471244" lon="138.613545"></trkpt>
      <trkpt lat="35.471104" lon="138.61346"></trkpt>
      <trkpt lat="35.470899" lon="138.613327"></trkpt>
      <trkpt lat="35.470704" lon="138.613253"></trkpt>
      <trkpt lat="35.470539" lon="138.613219"></trkpt>
      <trkpt lat="35.470361" lon="138.613198"></trkpt>
      <trkpt lat="35.470166" lon="138.613152"></trkpt>
      <trkpt lat="35.470028" lon="138.613071"></trkpt>
      <trkpt lat="35.469897" lon="138.612976"></trkpt>
      <trkpt lat="35.469752" lon="138.612813"></trkpt>
      <trkpt lat="35.469581" lon="138.612567"></trkpt>
      <trkpt lat="35.468302" lon="138.610803"></trkpt>
      <trkpt lat="35.46703" lon="138.609035"></trkpt>
      <trkpt lat="35.466039" lon="138.607668"></trkpt>
      <trkpt lat="35.465052" lon="138.606296"></trkpt>
      <trkpt lat="35.464921" lon="138.606129"></trkpt>
      <trkpt lat="35.46479" lon="138.606012"></trkpt>
      <trkpt lat="35.464693" lon="138.605944"></trkpt>
      <trkpt lat="35.464596" lon="138.605887"></trkpt>
      <trkpt lat="35.464482" lon="138.605825"></trkpt>
      <trkpt lat="35.464325" lon="138.605766"></trkpt>
      <trkpt lat="35.464146" lon="138.605733"></trkpt>
      <trkpt lat="35.463881" lon="138.605725"></trkpt>
      <trkpt lat="35.463623" lon="138.605736"></trkpt>
      <trkpt lat="35.463246" lon="138.605756"></trkpt>
      <trkpt lat="35.462829" lon="138.605756"></trkpt>
      <trkpt lat="35.462713" lon="138.605751"></trkpt>
      <trkpt lat="35.462717" lon="138.604984"></trkpt>
      <trkpt lat="35.462736" lon="138.604839"></trkpt>
      <trkpt lat="35.462754" lon="138.604709"></trkpt>
      <trkpt lat="35.462803" lon="138.604526"></trkpt>
      <trkpt lat="35.462862" lon="138.604359"></trkpt>
      <trkpt lat="35.462951" lon="138.60418"></trkpt>
      <trkpt lat="35.463049" lon="138.604029"></trkpt>
      <trkpt lat="35.463156" lon="138.60391"></trkpt>
      <trkpt lat="35.463285" lon="138.603784"></trkpt>
      <trkpt lat="35.463434" lon="138.603658"></trkpt>
      <trkpt lat="35.46373" lon="138.603414"></trkpt>
      <trkpt lat="35.464067" lon="138.603138"></trkpt>
      <trkpt lat="35.464569" lon="138.602682"></trkpt>
      <trkpt lat="35.464675" lon="138.602589"></trkpt>
      <trkpt lat="35.464831" lon="138.602458"></trkpt>
      <trkpt lat="35.46617" lon="138.601364"></trkpt>
      <trkpt lat="35.467505" lon="138.600234"></trkpt>
      <trkpt lat="35.469266" lon="138.598725"></trkpt>
      <trkpt lat="35.47101" lon="138.59724"></trkpt>
      <trkpt lat="35.471214" lon="138.597097"></trkpt>
      <trkpt lat="35.471328" lon="138.597029"></trkpt>
      <trkpt lat="35.471608" lon="138.596883"></trkpt>
      <trkpt lat="35.471895" lon="138.59676"></trkpt>
      <trkpt lat="35.473124" lon="138.596267"></trkpt>
      <trkpt lat="35.473316" lon="138.59616"></trkpt>
      <trkpt lat="35.473452" lon="138.596057"></trkpt>
      <trkpt lat="35.473569" lon="138.595912"></trkpt>
      <trkpt lat="35.473642" lon="138.595771"></trkpt>
      <trkpt lat="35.473706" lon="138.595595"></trkpt>
      <trkpt lat="35.473979" lon="138.594713"></trkpt>
      <trkpt lat="35.474006" lon="138.594509"></trkpt>
      <trkpt lat="35.474004" lon="138.594347"></trkpt>
      <trkpt lat="35.473966" lon="138.594087"></trkpt>
      <trkpt lat="35.473942" lon="138.593829"></trkpt>
      <trkpt lat="35.473963" lon="138.593676"></trkpt>
      <trkpt lat="35.474017" lon="138.593554"></trkpt>
      <trkpt lat="35.47411" lon="138.593476"></trkpt>
      <trkpt lat="35.474244" lon="138.59343"></trkpt>
      <trkpt lat="35.474455" lon="138.593402"></trkpt>
      <trkpt lat="35.474643" lon="138.593406"></trkpt>
      <trkpt lat="35.474793" lon="138.593448"></trkpt>
      <trkpt lat="35.4751" lon="138.593583"></trkpt>
      <trkpt lat="35.475511" lon="138.593769"></trkpt>
      <trkpt lat="35.475908" lon="138.593954"></trkpt>
      <trkpt lat="35.476092" lon="138.594012"></trkpt>
      <trkpt lat="35.476275" lon="138.594034"></trkpt>
      <trkpt lat="35.476445" lon="138.594016"></trkpt>
      <trkpt lat="35.47657" lon="138.593971"></trkpt>
      <trkpt lat="35.476689" lon="138.593906"></trkpt>
      <trkpt lat="35.476792" lon="138.593829"></trkpt>
      <trkpt lat="35.476885" lon="138.593724"></trkpt>
      <trkpt lat="35.477" lon="138.593572"></trkpt>
      <trkpt lat="35.477074" lon="138.593417"></trkpt>
      <trkpt lat="35.477139" lon="138.593249"></trkpt>
      <trkpt lat="35.477182" lon="138.593025"></trkpt>
      <trkpt lat="35.477189" lon="138.5928"></trkpt>
      <trkpt lat="35.47718" lon="138.592596"></trkpt>
      <trkpt lat="35.47714" lon="138.592368"></trkpt>
      <trkpt lat="35.476833" lon="138.591171"></trkpt>
      <trkpt lat="35.476572" lon="138.590084"></trkpt>
      <trkpt lat="35.476461" lon="138.589751"></trkpt>
      <trkpt lat="35.476394" lon="138.589624"></trkpt>
      <trkpt lat="35.476321" lon="138.589529"></trkpt>
      <trkpt lat="35.476219" lon="138.589446"></trkpt>
      <trkpt lat="35.47605" lon="138.589354"></trkpt>
      <trkpt lat="35.475808" lon="138.589282"></trkpt>
      <trkpt lat="35.475673" lon="138.58922"></trkpt>
      <trkpt lat="35.47551" lon="138.589099"></trkpt>
      <trkpt lat="35.475397" lon="138.588971"></trkpt>
      <trkpt lat="35.475165" lon="138.588583"></trkpt>
      <trkpt lat="35.475004" lon="138.588334"></trkpt>
      <trkpt lat="35.47465" lon="138.587787"></trkpt>
      <trkpt lat="35.47449" lon="138.587561"></trkpt>
      <trkpt lat="35.474309" lon="138.587274"></trkpt>
      <trkpt lat="35.474234" lon="138.587092"></trkpt>
      <trkpt lat="35.474172" lon="138.586911"></trkpt>
      <trkpt lat="35.474117" lon="138.586652"></trkpt>
      <trkpt lat="35.47406" lon="138.586199"></trkpt>
      <trkpt lat="35.474032" lon="138.58584"></trkpt>
      <trkpt lat="35.473998" lon="138.585403"></trkpt>
      <trkpt lat="35.473976" lon="138.584921"></trkpt>
      <trkpt lat="35.474" lon="138.584589"></trkpt>
      <trkpt lat="35.474037" lon="138.584224"></trkpt>
      <trkpt lat="35.474071" lon="138.584055"></trkpt>
      <trkpt lat="35.474124" lon="138.583896"></trkpt>
      <trkpt lat="35.474198" lon="138.583747"></trkpt>
      <trkpt lat="35.474293" lon="138.583661"></trkpt>
      <trkpt lat="35.474453" lon="138.583603"></trkpt>
      <trkpt lat="35.474601" lon="138.583567"></trkpt>
      <trkpt lat="35.474731" lon="138.583539"></trkpt>
      <trkpt lat="35.474901" lon="138.583505"></trkpt>
      <trkpt lat="35.475058" lon="138.583455"></trkpt>
      <trkpt lat="35.475221" lon="138.583372"></trkpt>
      <trkpt lat="35.475332" lon="138.5833"></trkpt>
      <trkpt lat="35.475437" lon="138.583229"></trkpt>
      <trkpt lat="35.475525" lon="138.583128"></trkpt>
      <trkpt lat="35.475587" lon="138.583035"></trkpt>
      <trkpt lat="35.475641" lon="138.582895"></trkpt>
      <trkpt lat="35.475665" lon="138.582724"></trkpt>
      <trkpt lat="35.475656" lon="138.582575"></trkpt>
      <trkpt lat="35.475626" lon="138.5824"></trkpt>
      <trkpt lat="35.475457" lon="138.581852"></trkpt>
      <trkpt lat="35.475372" lon="138.581585"></trkpt>
      <trkpt lat="35.475301" lon="138.581301"></trkpt>
      <trkpt lat="35.475183" lon="138.580721"></trkpt>
      <trkpt lat="35.475093" lon="138.580157"></trkpt>
      <trkpt lat="35.474953" lon="138.579251"></trkpt>
      <trkpt lat="35.474927" lon="138.578947"></trkpt>
      <trkpt lat="35.474952" lon="138.578592"></trkpt>
      <trkpt lat="35.475018" lon="138.578195"></trkpt>
      <trkpt lat="35.475058" lon="138.577905"></trkpt>
      <trkpt lat="35.475078" lon="138.577671"></trkpt>
      <trkpt lat="35.475072" lon="138.577435"></trkpt>
      <trkpt lat="35.47503" lon="138.577147"></trkpt>
      <trkpt lat="35.474974" lon="138.576929"></trkpt>
      <trkpt lat="35.474893" lon="138.576704"></trkpt>
      <trkpt lat="35.474791" lon="138.576532"></trkpt>
      <trkpt lat="35.47461" lon="138.576296"></trkpt>
      <trkpt lat="35.474446" lon="138.576081"></trkpt>
      <trkpt lat="35.474363" lon="138.575918"></trkpt>
      <trkpt lat="35.474292" lon="138.575732"></trkpt>
      <trkpt lat="35.474308" lon="138.575415"></trkpt>
      <trkpt lat="35.474347" lon="138.575152"></trkpt>
      <trkpt lat="35.474457" lon="138.574864"></trkpt>
      <trkpt lat="35.476737" lon="138.569412"></trkpt>
      <trkpt lat="35.476893" lon="138.568977"></trkpt>
      <trkpt lat="35.476977" lon="138.56864"></trkpt>
      <trkpt lat="35.47698" lon="138.568472"></trkpt>
      <trkpt lat="35.476864" lon="138.567599"></trkpt>
      <trkpt lat="35.476798" lon="138.567077"></trkpt>
      <trkpt lat="35.476742" lon="138.566415"></trkpt>
      <trkpt lat="35.476707" lon="138.566271"></trkpt>
      <trkpt lat="35.476647" lon="138.566075"></trkpt>
      <trkpt lat="35.47663" lon="138.565898"></trkpt>
      <trkpt lat="35.476642" lon="138.565725"></trkpt>
    </trkseg>
  </trk>
</gpx>