<?xml version="1.0" encoding="UTF-8"?>
<gpx version="1.1" creator="TokyoCycling2026" xmlns="http://www.topografix.com/GPX/1/1">
  <metadata>
    <name>Day 5: 緩衝篇：【富士五湖核心天候緩衝日】應變高原多變氣候 ➔ 補完五湖 ➔ 樹海步道 ➔ 溫泉休整</name>
    <desc>38.1 km | +234m / -201m</desc>
  </metadata>
  <trk>
    <name>Day 5: 緩衝篇：【富士五湖核心天候緩衝日】應變高原多變氣候 ➔ 補完五湖 ➔ 樹海步道 ➔ 溫泉休整</name>
    <trkseg>
      <trkpt lat="35.476642" lon="138.565725"></trkpt>
      <trkpt lat="35.47663" lon="138.565898"></trkpt>
      <trkpt lat="35.476647" lon="138.566075"></trkpt>
      <trkpt lat="35.476707" lon="138.566271"></trkpt>
      <trkpt lat="35.476742" lon="138.566415"></trkpt>
      <trkpt lat="35.476798" lon="138.567077"></trkpt>
      <trkpt lat="35.476864" lon="138.567599"></trkpt>
      <trkpt lat="35.47698" lon="138.568472"></trkpt>
      <trkpt lat="35.476977" lon="138.56864"></trkpt>
      <trkpt lat="35.476893" lon="138.568977"></trkpt>
      <trkpt lat="35.476737" lon="138.569412"></trkpt>
      <trkpt lat="35.474457" lon="138.574864"></trkpt>
      <trkpt lat="35.474347" lon="138.575152"></trkpt>
      <trkpt lat="35.474308" lon="138.575415"></trkpt>
      <trkpt lat="35.474292" lon="138.575732"></trkpt>
      <trkpt lat="35.474363" lon="138.575918"></trkpt>
      <trkpt lat="35.474446" lon="138.576081"></trkpt>
      <trkpt lat="35.47461" lon="138.576296"></trkpt>
      <trkpt lat="35.474791" lon="138.576532"></trkpt>
      <trkpt lat="35.474893" lon="138.576704"></trkpt>
      <trkpt lat="35.474974" lon="138.576929"></trkpt>
      <trkpt lat="35.47503" lon="138.577147"></trkpt>
      <trkpt lat="35.475072" lon="138.577435"></trkpt>
      <trkpt lat="35.475078" lon="138.577671"></trkpt>
      <trkpt lat="35.475058" lon="138.577905"></trkpt>
      <trkpt lat="35.475018" lon="138.578195"></trkpt>
      <trkpt lat="35.474952" lon="138.578592"></trkpt>
      <trkpt lat="35.474927" lon="138.578947"></trkpt>
      <trkpt lat="35.474953" lon="138.579251"></trkpt>
      <trkpt lat="35.475093" lon="138.580157"></trkpt>
      <trkpt lat="35.475183" lon="138.580721"></trkpt>
      <trkpt lat="35.475301" lon="138.581301"></trkpt>
      <trkpt lat="35.475372" lon="138.581585"></trkpt>
      <trkpt lat="35.475457" lon="138.581852"></trkpt>
      <trkpt lat="35.475626" lon="138.5824"></trkpt>
      <trkpt lat="35.475656" lon="138.582575"></trkpt>
      <trkpt lat="35.475665" lon="138.582724"></trkpt>
      <trkpt lat="35.475641" lon="138.582895"></trkpt>
      <trkpt lat="35.475587" lon="138.583035"></trkpt>
      <trkpt lat="35.475525" lon="138.583128"></trkpt>
      <trkpt lat="35.475437" lon="138.583229"></trkpt>
      <trkpt lat="35.475332" lon="138.5833"></trkpt>
      <trkpt lat="35.475221" lon="138.583372"></trkpt>
      <trkpt lat="35.475058" lon="138.583455"></trkpt>
      <trkpt lat="35.474901" lon="138.583505"></trkpt>
      <trkpt lat="35.474731" lon="138.583539"></trkpt>
      <trkpt lat="35.474601" lon="138.583567"></trkpt>
      <trkpt lat="35.474453" lon="138.583603"></trkpt>
      <trkpt lat="35.474293" lon="138.583661"></trkpt>
      <trkpt lat="35.474198" lon="138.583747"></trkpt>
      <trkpt lat="35.474124" lon="138.583896"></trkpt>
      <trkpt lat="35.474071" lon="138.584055"></trkpt>
      <trkpt lat="35.474037" lon="138.584224"></trkpt>
      <trkpt lat="35.474" lon="138.584589"></trkpt>
      <trkpt lat="35.473976" lon="138.584921"></trkpt>
      <trkpt lat="35.473998" lon="138.585403"></trkpt>
      <trkpt lat="35.474032" lon="138.58584"></trkpt>
      <trkpt lat="35.47406" lon="138.586199"></trkpt>
      <trkpt lat="35.474117" lon="138.586652"></trkpt>
      <trkpt lat="35.474172" lon="138.586911"></trkpt>
      <trkpt lat="35.474234" lon="138.587092"></trkpt>
      <trkpt lat="35.474309" lon="138.587274"></trkpt>
      <trkpt lat="35.47449" lon="138.587561"></trkpt>
      <trkpt lat="35.47465" lon="138.587787"></trkpt>
      <trkpt lat="35.475004" lon="138.588334"></trkpt>
      <trkpt lat="35.475165" lon="138.588583"></trkpt>
      <trkpt lat="35.475397" lon="138.588971"></trkpt>
      <trkpt lat="35.47551" lon="138.589099"></trkpt>
      <trkpt lat="35.475673" lon="138.58922"></trkpt>
      <trkpt lat="35.475808" lon="138.589282"></trkpt>
      <trkpt lat="35.47605" lon="138.589354"></trkpt>
      <trkpt lat="35.476219" lon="138.589446"></trkpt>
      <trkpt lat="35.476321" lon="138.589529"></trkpt>
      <trkpt lat="35.476394" lon="138.589624"></trkpt>
      <trkpt lat="35.476461" lon="138.589751"></trkpt>
      <trkpt lat="35.476572" lon="138.590084"></trkpt>
      <trkpt lat="35.476833" lon="138.591171"></trkpt>
      <trkpt lat="35.47714" lon="138.592368"></trkpt>
      <trkpt lat="35.47718" lon="138.592596"></trkpt>
      <trkpt lat="35.477189" lon="138.5928"></trkpt>
      <trkpt lat="35.477182" lon="138.593025"></trkpt>
      <trkpt lat="35.477139" lon="138.593249"></trkpt>
      <trkpt lat="35.477074" lon="138.593417"></trkpt>
      <trkpt lat="35.477" lon="138.593572"></trkpt>
      <trkpt lat="35.476885" lon="138.593724"></trkpt>
      <trkpt lat="35.476792" lon="138.593829"></trkpt>
      <trkpt lat="35.476689" lon="138.593906"></trkpt>
      <trkpt lat="35.47657" lon="138.593971"></trkpt>
      <trkpt lat="35.476445" lon="138.594016"></trkpt>
      <trkpt lat="35.476275" lon="138.594034"></trkpt>
      <trkpt lat="35.476092" lon="138.594012"></trkpt>
      <trkpt lat="35.475908" lon="138.593954"></trkpt>
      <trkpt lat="35.475511" lon="138.593769"></trkpt>
      <trkpt lat="35.4751" lon="138.593583"></trkpt>
      <trkpt lat="35.474793" lon="138.593448"></trkpt>
      <trkpt lat="35.474643" lon="138.593406"></trkpt>
      <trkpt lat="35.474455" lon="138.593402"></trkpt>
      <trkpt lat="35.474244" lon="138.59343"></trkpt>
      <trkpt lat="35.47411" lon="138.593476"></trkpt>
      <trkpt lat="35.474017" lon="138.593554"></trkpt>
      <trkpt lat="35.473963" lon="138.593676"></trkpt>
      <trkpt lat="35.473942" lon="138.593829"></trkpt>
      <trkpt lat="35.473966" lon="138.594087"></trkpt>
      <trkpt lat="35.474004" lon="138.594347"></trkpt>
      <trkpt lat="35.474006" lon="138.594509"></trkpt>
      <trkpt lat="35.473979" lon="138.594713"></trkpt>
      <trkpt lat="35.473706" lon="138.595595"></trkpt>
      <trkpt lat="35.473642" lon="138.595771"></trkpt>
      <trkpt lat="35.473569" lon="138.595912"></trkpt>
      <trkpt lat="35.473452" lon="138.596057"></trkpt>
      <trkpt lat="35.473316" lon="138.59616"></trkpt>
      <trkpt lat="35.473124" lon="138.596267"></trkpt>
      <trkpt lat="35.471895" lon="138.59676"></trkpt>
      <trkpt lat="35.471608" lon="138.596883"></trkpt>
      <trkpt lat="35.471328" lon="138.597029"></trkpt>
      <trkpt lat="35.471214" lon="138.597097"></trkpt>
      <trkpt lat="35.47101" lon="138.59724"></trkpt>
      <trkpt lat="35.469266" lon="138.598725"></trkpt>
      <trkpt lat="35.467505" lon="138.600234"></trkpt>
      <trkpt lat="35.46617" lon="138.601364"></trkpt>
      <trkpt lat="35.464831" lon="138.602458"></trkpt>
      <trkpt lat="35.464675" lon="138.602589"></trkpt>
      <trkpt lat="35.464569" lon="138.602682"></trkpt>
      <trkpt lat="35.464067" lon="138.603138"></trkpt>
      <trkpt lat="35.46373" lon="138.603414"></trkpt>
      <trkpt lat="35.463434" lon="138.603658"></trkpt>
      <trkpt lat="35.463285" lon="138.603784"></trkpt>
      <trkpt lat="35.463156" lon="138.60391"></trkpt>
      <trkpt lat="35.463049" lon="138.604029"></trkpt>
      <trkpt lat="35.462951" lon="138.60418"></trkpt>
      <trkpt lat="35.462862" lon="138.604359"></trkpt>
      <trkpt lat="35.462803" lon="138.604526"></trkpt>
      <trkpt lat="35.462754" lon="138.604709"></trkpt>
      <trkpt lat="35.462736" lon="138.604839"></trkpt>
      <trkpt lat="35.462717" lon="138.604984"></trkpt>
      <trkpt lat="35.462713" lon="138.605751"></trkpt>
      <trkpt lat="35.462829" lon="138.605756"></trkpt>
      <trkpt lat="35.463246" lon="138.605756"></trkpt>
      <trkpt lat="35.463623" lon="138.605736"></trkpt>
      <trkpt lat="35.463881" lon="138.605725"></trkpt>
      <trkpt lat="35.464146" lon="138.605733"></trkpt>
      <trkpt lat="35.464325" lon="138.605766"></trkpt>
      <trkpt lat="35.464482" lon="138.605825"></trkpt>
      <trkpt lat="35.464596" lon="138.605887"></trkpt>
      <trkpt lat="35.464693" lon="138.605944"></trkpt>
      <trkpt lat="35.46479" lon="138.606012"></trkpt>
      <trkpt lat="35.464921" lon="138.606129"></trkpt>
      <trkpt lat="35.465052" lon="138.606296"></trkpt>
      <trkpt lat="35.466039" lon="138.607668"></trkpt>
      <trkpt lat="35.46703" lon="138.609035"></trkpt>
      <trkpt lat="35.468302" lon="138.610803"></trkpt>
      <trkpt lat="35.469581" lon="138.612567"></trkpt>
      <trkpt lat="35.469752" lon="138.612813"></trkpt>
      <trkpt lat="35.469897" lon="138.612976"></trkpt>
      <trkpt lat="35.470028" lon="138.613071"></trkpt>
      <trkpt lat="35.470166" lon="138.613152"></trkpt>
      <trkpt lat="35.470361" lon="138.613198"></trkpt>
      <trkpt lat="35.470539" lon="138.613219"></trkpt>
      <trkpt lat="35.470704" lon="138.613253"></trkpt>
      <trkpt lat="35.470899" lon="138.613327"></trkpt>
      <trkpt lat="35.471104" lon="138.61346"></trkpt>
      <trkpt lat="35.471244" lon="138.613545"></trkpt>
      <trkpt lat="35.471344" lon="138.613602"></trkpt>
      <trkpt lat="35.471485" lon="138.613655"></trkpt>
      <trkpt lat="35.471601" lon="138.613667"></trkpt>
      <trkpt lat="35.471716" lon="138.613655"></trkpt>
      <trkpt lat="35.471865" lon="138.613603"></trkpt>
      <trkpt lat="35.471998" lon="138.613528"></trkpt>
      <trkpt lat="35.472116" lon="138.613445"></trkpt>
      <trkpt lat="35.472204" lon="138.613366"></trkpt>
      <trkpt lat="35.472292" lon="138.613259"></trkpt>
      <trkpt lat="35.472574" lon="138.612892"></trkpt>
      <trkpt lat="35.472841" lon="138.612557"></trkpt>
      <trkpt lat="35.472964" lon="138.612412"></trkpt>
      <trkpt lat="35.473095" lon="138.61226"></trkpt>
      <trkpt lat="35.473275" lon="138.612077"></trkpt>
      <trkpt lat="35.473555" lon="138.611784"></trkpt>
      <trkpt lat="35.473775" lon="138.611543"></trkpt>
      <trkpt lat="35.473996" lon="138.611314"></trkpt>
      <trkpt lat="35.474175" lon="138.611131"></trkpt>
      <trkpt lat="35.4743" lon="138.610989"></trkpt>
      <trkpt lat="35.474409" lon="138.610818"></trkpt>
      <trkpt lat="35.474452" lon="138.610693"></trkpt>
      <trkpt lat="35.474486" lon="138.610547"></trkpt>
      <trkpt lat="35.474502" lon="138.6104"></trkpt>
      <trkpt lat="35.474493" lon="138.610196"></trkpt>
      <trkpt lat="35.474338" lon="138.608643"></trkpt>
      <trkpt lat="35.474318" lon="138.608364"></trkpt>
      <trkpt lat="35.474318" lon="138.608133"></trkpt>
      <trkpt lat="35.474346" lon="138.607963"></trkpt>
      <trkpt lat="35.474385" lon="138.607821"></trkpt>
      <trkpt lat="35.474435" lon="138.607733"></trkpt>
      <trkpt lat="35.474488" lon="138.607654"></trkpt>
      <trkpt lat="35.474561" lon="138.607597"></trkpt>
      <trkpt lat="35.474655" lon="138.607541"></trkpt>
      <trkpt lat="35.474782" lon="138.607496"></trkpt>
      <trkpt lat="35.474887" lon="138.607482"></trkpt>
      <trkpt lat="35.475048" lon="138.607496"></trkpt>
      <trkpt lat="35.475488" lon="138.607658"></trkpt>
      <trkpt lat="35.475685" lon="138.607731"></trkpt>
      <trkpt lat="35.47584" lon="138.607773"></trkpt>
      <trkpt lat="35.475977" lon="138.607773"></trkpt>
      <trkpt lat="35.476133" lon="138.607732"></trkpt>
      <trkpt lat="35.476248" lon="138.60769"></trkpt>
      <trkpt lat="35.476593" lon="138.60752"></trkpt>
      <trkpt lat="35.476944" lon="138.607349"></trkpt>
      <trkpt lat="35.477273" lon="138.607191"></trkpt>
      <trkpt lat="35.477511" lon="138.607081"></trkpt>
      <trkpt lat="35.477705" lon="138.607005"></trkpt>
      <trkpt lat="35.477836" lon="138.606971"></trkpt>
      <trkpt lat="35.477965" lon="138.606978"></trkpt>
      <trkpt lat="35.478116" lon="138.607027"></trkpt>
      <trkpt lat="35.478252" lon="138.607103"></trkpt>
      <trkpt lat="35.478379" lon="138.607211"></trkpt>
      <trkpt lat="35.478498" lon="138.607348"></trkpt>
      <trkpt lat="35.478594" lon="138.607496"></trkpt>
      <trkpt lat="35.478686" lon="138.607702"></trkpt>
      <trkpt lat="35.478757" lon="138.60788"></trkpt>
      <trkpt lat="35.478836" lon="138.60808"></trkpt>
      <trkpt lat="35.47924" lon="138.609091"></trkpt>
      <trkpt lat="35.479369" lon="138.609398"></trkpt>
      <trkpt lat="35.47944" lon="138.609546"></trkpt>
      <trkpt lat="35.479529" lon="138.60968"></trkpt>
      <trkpt lat="35.479808" lon="138.61001"></trkpt>
      <trkpt lat="35.479866" lon="138.610079"></trkpt>
      <trkpt lat="35.480389" lon="138.610732"></trkpt>
      <trkpt lat="35.480536" lon="138.610918"></trkpt>
      <trkpt lat="35.480634" lon="138.610718"></trkpt>
      <trkpt lat="35.480652" lon="138.610595"></trkpt>
      <trkpt lat="35.480638" lon="138.610406"></trkpt>
      <trkpt lat="35.480611" lon="138.610214"></trkpt>
      <trkpt lat="35.480579" lon="138.610014"></trkpt>
      <trkpt lat="35.480568" lon="138.609831"></trkpt>
      <trkpt lat="35.480576" lon="138.60967"></trkpt>
      <trkpt lat="35.480689" lon="138.609078"></trkpt>
      <trkpt lat="35.480708" lon="138.608843"></trkpt>
      <trkpt lat="35.480686" lon="138.608456"></trkpt>
      <trkpt lat="35.480724" lon="138.608036"></trkpt>
      <trkpt lat="35.480782" lon="138.607568"></trkpt>
      <trkpt lat="35.480774" lon="138.607337"></trkpt>
      <trkpt lat="35.480759" lon="138.607114"></trkpt>
      <trkpt lat="35.480762" lon="138.606921"></trkpt>
      <trkpt lat="35.480803" lon="138.606714"></trkpt>
      <trkpt lat="35.480845" lon="138.60658"></trkpt>
      <trkpt lat="35.480909" lon="138.606445"></trkpt>
      <trkpt lat="35.480979" lon="138.606347"></trkpt>
      <trkpt lat="35.481058" lon="138.60626"></trkpt>
      <trkpt lat="35.481137" lon="138.606188"></trkpt>
      <trkpt lat="35.481318" lon="138.606077"></trkpt>
      <trkpt lat="35.481495" lon="138.605991"></trkpt>
      <trkpt lat="35.481684" lon="138.605901"></trkpt>
      <trkpt lat="35.482002" lon="138.605754"></trkpt>
      <trkpt lat="35.482242" lon="138.60563"></trkpt>
      <trkpt lat="35.482483" lon="138.60552"></trkpt>
      <trkpt lat="35.482571" lon="138.605513"></trkpt>
      <trkpt lat="35.482658" lon="138.605527"></trkpt>
      <trkpt lat="35.482745" lon="138.605561"></trkpt>
      <trkpt lat="35.482815" lon="138.605623"></trkpt>
      <trkpt lat="35.482883" lon="138.605726"></trkpt>
      <trkpt lat="35.482933" lon="138.605863"></trkpt>
      <trkpt lat="35.482962" lon="138.606045"></trkpt>
      <trkpt lat="35.482992" lon="138.606256"></trkpt>
      <trkpt lat="35.483032" lon="138.606444"></trkpt>
      <trkpt lat="35.483077" lon="138.606588"></trkpt>
      <trkpt lat="35.483122" lon="138.606668"></trkpt>
      <trkpt lat="35.483184" lon="138.606747"></trkpt>
      <trkpt lat="35.483269" lon="138.606812"></trkpt>
      <trkpt lat="35.483353" lon="138.606847"></trkpt>
      <trkpt lat="35.48344" lon="138.606871"></trkpt>
      <trkpt lat="35.483528" lon="138.606867"></trkpt>
      <trkpt lat="35.48361" lon="138.606852"></trkpt>
      <trkpt lat="35.483715" lon="138.606806"></trkpt>
      <trkpt lat="35.48382" lon="138.606746"></trkpt>
      <trkpt lat="35.484071" lon="138.606559"></trkpt>
      <trkpt lat="35.484071" lon="138.606559"></trkpt>
      <trkpt lat="35.485119" lon="138.60521"></trkpt>
      <trkpt lat="35.485167" lon="138.605095"></trkpt>
      <trkpt lat="35.485217" lon="138.604854"></trkpt>
      <trkpt lat="35.485247" lon="138.604541"></trkpt>
      <trkpt lat="35.485268" lon="138.604422"></trkpt>
      <trkpt lat="35.4853" lon="138.604309"></trkpt>
      <trkpt lat="35.485357" lon="138.604194"></trkpt>
      <trkpt lat="35.485414" lon="138.604101"></trkpt>
      <trkpt lat="35.485484" lon="138.604025"></trkpt>
      <trkpt lat="35.485566" lon="138.603949"></trkpt>
      <trkpt lat="35.485706" lon="138.603861"></trkpt>
      <trkpt lat="35.48586" lon="138.603821"></trkpt>
      <trkpt lat="35.486001" lon="138.60381"></trkpt>
      <trkpt lat="35.486089" lon="138.60382"></trkpt>
      <trkpt lat="35.48617" lon="138.603844"></trkpt>
      <trkpt lat="35.4863" lon="138.603889"></trkpt>
      <trkpt lat="35.486709" lon="138.604111"></trkpt>
      <trkpt lat="35.486929" lon="138.604238"></trkpt>
      <trkpt lat="35.487073" lon="138.604327"></trkpt>
      <trkpt lat="35.487201" lon="138.604438"></trkpt>
      <trkpt lat="35.48734" lon="138.604545"></trkpt>
      <trkpt lat="35.487479" lon="138.604623"></trkpt>
      <trkpt lat="35.487567" lon="138.604658"></trkpt>
      <trkpt lat="35.48772" lon="138.604669"></trkpt>
      <trkpt lat="35.48785" lon="138.604641"></trkpt>
      <trkpt lat="35.487942" lon="138.604596"></trkpt>
      <trkpt lat="35.488057" lon="138.604508"></trkpt>
      <trkpt lat="35.488189" lon="138.604375"></trkpt>
      <trkpt lat="35.488283" lon="138.604292"></trkpt>
      <trkpt lat="35.488407" lon="138.604229"></trkpt>
      <trkpt lat="35.488541" lon="138.604192"></trkpt>
      <trkpt lat="35.488691" lon="138.604172"></trkpt>
      <trkpt lat="35.488841" lon="138.604153"></trkpt>
      <trkpt lat="35.488954" lon="138.604111"></trkpt>
      <trkpt lat="35.489016" lon="138.604046"></trkpt>
      <trkpt lat="35.489061" lon="138.603964"></trkpt>
      <trkpt lat="35.489082" lon="138.603848"></trkpt>
      <trkpt lat="35.489066" lon="138.603703"></trkpt>
      <trkpt lat="35.48904" lon="138.603622"></trkpt>
      <trkpt lat="35.488968" lon="138.603456"></trkpt>
      <trkpt lat="35.488928" lon="138.603344"></trkpt>
      <trkpt lat="35.488909" lon="138.603225"></trkpt>
      <trkpt lat="35.48891" lon="138.603124"></trkpt>
      <trkpt lat="35.488939" lon="138.603024"></trkpt>
      <trkpt lat="35.488996" lon="138.602914"></trkpt>
      <trkpt lat="35.48909" lon="138.602806"></trkpt>
      <trkpt lat="35.489184" lon="138.602712"></trkpt>
      <trkpt lat="35.489299" lon="138.60263"></trkpt>
      <trkpt lat="35.489447" lon="138.602551"></trkpt>
      <trkpt lat="35.489577" lon="138.602496"></trkpt>
      <trkpt lat="35.489704" lon="138.602476"></trkpt>
      <trkpt lat="35.489867" lon="138.602461"></trkpt>
      <trkpt lat="35.490087" lon="138.602465"></trkpt>
      <trkpt lat="35.490722" lon="138.602482"></trkpt>
      <trkpt lat="35.490847" lon="138.602519"></trkpt>
      <trkpt lat="35.490942" lon="138.602552"></trkpt>
      <trkpt lat="35.491022" lon="138.602593"></trkpt>
      <trkpt lat="35.491108" lon="138.602649"></trkpt>
      <trkpt lat="35.491189" lon="138.602716"></trkpt>
      <trkpt lat="35.49132" lon="138.602868"></trkpt>
      <trkpt lat="35.491417" lon="138.603047"></trkpt>
      <trkpt lat="35.49154" lon="138.60333"></trkpt>
      <trkpt lat="35.491621" lon="138.603521"></trkpt>
      <trkpt lat="35.491744" lon="138.603837"></trkpt>
      <trkpt lat="35.491849" lon="138.604147"></trkpt>
      <trkpt lat="35.491878" lon="138.604253"></trkpt>
      <trkpt lat="35.491896" lon="138.604428"></trkpt>
      <trkpt lat="35.491877" lon="138.60462"></trkpt>
      <trkpt lat="35.491812" lon="138.60497"></trkpt>
      <trkpt lat="35.491767" lon="138.605198"></trkpt>
      <trkpt lat="35.491738" lon="138.605389"></trkpt>
      <trkpt lat="35.491735" lon="138.605504"></trkpt>
      <trkpt lat="35.491747" lon="138.605611"></trkpt>
      <trkpt lat="35.49177" lon="138.605699"></trkpt>
      <trkpt lat="35.491844" lon="138.605854"></trkpt>
      <trkpt lat="35.491977" lon="138.606043"></trkpt>
      <trkpt lat="35.492046" lon="138.606132"></trkpt>
      <trkpt lat="35.492114" lon="138.606196"></trkpt>
      <trkpt lat="35.492209" lon="138.606262"></trkpt>
      <trkpt lat="35.492318" lon="138.606318"></trkpt>
      <trkpt lat="35.492433" lon="138.606355"></trkpt>
      <trkpt lat="35.492561" lon="138.606394"></trkpt>
      <trkpt lat="35.492916" lon="138.606474"></trkpt>
      <trkpt lat="35.493233" lon="138.606555"></trkpt>
      <trkpt lat="35.493333" lon="138.606613"></trkpt>
      <trkpt lat="35.493403" lon="138.606673"></trkpt>
      <trkpt lat="35.493463" lon="138.60674"></trkpt>
      <trkpt lat="35.49354" lon="138.606858"></trkpt>
      <trkpt lat="35.49359" lon="138.606976"></trkpt>
      <trkpt lat="35.493635" lon="138.6071"></trkpt>
      <trkpt lat="35.493723" lon="138.607454"></trkpt>
      <trkpt lat="35.49377" lon="138.607625"></trkpt>
      <trkpt lat="35.493821" lon="138.607778"></trkpt>
      <trkpt lat="35.493867" lon="138.6079"></trkpt>
      <trkpt lat="35.493922" lon="138.608004"></trkpt>
      <trkpt lat="35.494056" lon="138.608271"></trkpt>
      <trkpt lat="35.494384" lon="138.6089"></trkpt>
      <trkpt lat="35.494423" lon="138.609016"></trkpt>
      <trkpt lat="35.494431" lon="138.60912"></trkpt>
      <trkpt lat="35.494419" lon="138.6092"></trkpt>
      <trkpt lat="35.494401" lon="138.609262"></trkpt>
      <trkpt lat="35.494381" lon="138.609333"></trkpt>
      <trkpt lat="35.494159" lon="138.610096"></trkpt>
      <trkpt lat="35.494054" lon="138.610355"></trkpt>
      <trkpt lat="35.494034" lon="138.610404"></trkpt>
      <trkpt lat="35.494013" lon="138.610562"></trkpt>
      <trkpt lat="35.493965" lon="138.610711"></trkpt>
      <trkpt lat="35.493918" lon="138.610849"></trkpt>
      <trkpt lat="35.493882" lon="138.61095"></trkpt>
      <trkpt lat="35.493846" lon="138.611032"></trkpt>
      <trkpt lat="35.493774" lon="138.611173"></trkpt>
      <trkpt lat="35.493735" lon="138.611257"></trkpt>
      <trkpt lat="35.493652" lon="138.611473"></trkpt>
      <trkpt lat="35.49364" lon="138.611498"></trkpt>
      <trkpt lat="35.493612" lon="138.611537"></trkpt>
      <trkpt lat="35.493569" lon="138.611542"></trkpt>
      <trkpt lat="35.493491" lon="138.611535"></trkpt>
      <trkpt lat="35.493366" lon="138.611452"></trkpt>
      <trkpt lat="35.493158" lon="138.611259"></trkpt>
      <trkpt lat="35.493053" lon="138.61116"></trkpt>
      <trkpt lat="35.49294" lon="138.611033"></trkpt>
      <trkpt lat="35.49289" lon="138.610923"></trkpt>
      <trkpt lat="35.492684" lon="138.610804"></trkpt>
      <trkpt lat="35.492501" lon="138.61069"></trkpt>
      <trkpt lat="35.492326" lon="138.610618"></trkpt>
      <trkpt lat="35.492237" lon="138.610597"></trkpt>
      <trkpt lat="35.492144" lon="138.610601"></trkpt>
      <trkpt lat="35.49205" lon="138.610622"></trkpt>
      <trkpt lat="35.491929" lon="138.610684"></trkpt>
      <trkpt lat="35.49186" lon="138.610745"></trkpt>
      <trkpt lat="35.491786" lon="138.610834"></trkpt>
      <trkpt lat="35.491706" lon="138.610991"></trkpt>
      <trkpt lat="35.49157" lon="138.611292"></trkpt>
      <trkpt lat="35.491434" lon="138.611635"></trkpt>
      <trkpt lat="35.49136" lon="138.611807"></trkpt>
      <trkpt lat="35.491291" lon="138.611941"></trkpt>
      <trkpt lat="35.491194" lon="138.612066"></trkpt>
      <trkpt lat="35.491108" lon="138.612136"></trkpt>
      <trkpt lat="35.491018" lon="138.612178"></trkpt>
      <trkpt lat="35.490913" lon="138.612223"></trkpt>
      <trkpt lat="35.490801" lon="138.61224"></trkpt>
      <trkpt lat="35.490576" lon="138.612207"></trkpt>
      <trkpt lat="35.490395" lon="138.612163"></trkpt>
      <trkpt lat="35.490278" lon="138.61213"></trkpt>
      <trkpt lat="35.490193" lon="138.612099"></trkpt>
      <trkpt lat="35.490091" lon="138.61204"></trkpt>
      <trkpt lat="35.489995" lon="138.611932"></trkpt>
      <trkpt lat="35.489891" lon="138.611808"></trkpt>
      <trkpt lat="35.489756" lon="138.611625"></trkpt>
      <trkpt lat="35.489682" lon="138.611542"></trkpt>
      <trkpt lat="35.489593" lon="138.611436"></trkpt>
      <trkpt lat="35.489506" lon="138.611359"></trkpt>
      <trkpt lat="35.489445" lon="138.611331"></trkpt>
      <trkpt lat="35.489369" lon="138.611318"></trkpt>
      <trkpt lat="35.48929" lon="138.611342"></trkpt>
      <trkpt lat="35.489237" lon="138.611386"></trkpt>
      <trkpt lat="35.489168" lon="138.611499"></trkpt>
      <trkpt lat="35.489011" lon="138.611863"></trkpt>
      <trkpt lat="35.488859" lon="138.612198"></trkpt>
      <trkpt lat="35.488811" lon="138.612322"></trkpt>
      <trkpt lat="35.488773" lon="138.612456"></trkpt>
      <trkpt lat="35.488753" lon="138.612584"></trkpt>
      <trkpt lat="35.488729" lon="138.61274"></trkpt>
      <trkpt lat="35.48864" lon="138.613551"></trkpt>
      <trkpt lat="35.488501" lon="138.614769"></trkpt>
      <trkpt lat="35.488455" lon="138.614927"></trkpt>
      <trkpt lat="35.488403" lon="138.615047"></trkpt>
      <trkpt lat="35.488332" lon="138.615144"></trkpt>
      <trkpt lat="35.488254" lon="138.615234"></trkpt>
      <trkpt lat="35.488124" lon="138.61531"></trkpt>
      <trkpt lat="35.488024" lon="138.615344"></trkpt>
      <trkpt lat="35.487907" lon="138.615355"></trkpt>
      <trkpt lat="35.487801" lon="138.615344"></trkpt>
      <trkpt lat="35.487478" lon="138.615259"></trkpt>
      <trkpt lat="35.487131" lon="138.615164"></trkpt>
      <trkpt lat="35.486906" lon="138.615097"></trkpt>
      <trkpt lat="35.486773" lon="138.615079"></trkpt>
      <trkpt lat="35.48667" lon="138.615099"></trkpt>
      <trkpt lat="35.486559" lon="138.615145"></trkpt>
      <trkpt lat="35.486472" lon="138.615202"></trkpt>
      <trkpt lat="35.486372" lon="138.615322"></trkpt>
      <trkpt lat="35.486317" lon="138.61543"></trkpt>
      <trkpt lat="35.48626" lon="138.615631"></trkpt>
      <trkpt lat="35.48611" lon="138.616578"></trkpt>
      <trkpt lat="35.486051" lon="138.617031"></trkpt>
      <trkpt lat="35.485986" lon="138.617399"></trkpt>
      <trkpt lat="35.48593" lon="138.617609"></trkpt>
      <trkpt lat="35.485863" lon="138.617798"></trkpt>
      <trkpt lat="35.485637" lon="138.618444"></trkpt>
      <trkpt lat="35.485531" lon="138.618712"></trkpt>
      <trkpt lat="35.485448" lon="138.618941"></trkpt>
      <trkpt lat="35.485393" lon="138.61907"></trkpt>
      <trkpt lat="35.486669" lon="138.619554"></trkpt>
      <trkpt lat="35.48689" lon="138.619642"></trkpt>
      <trkpt lat="35.487068" lon="138.61972"></trkpt>
      <trkpt lat="35.487234" lon="138.619826"></trkpt>
      <trkpt lat="35.487356" lon="138.619908"></trkpt>
      <trkpt lat="35.487479" lon="138.620012"></trkpt>
      <trkpt lat="35.487662" lon="138.620205"></trkpt>
      <trkpt lat="35.487828" lon="138.620435"></trkpt>
      <trkpt lat="35.488045" lon="138.620804"></trkpt>
      <trkpt lat="35.488314" lon="138.621293"></trkpt>
      <trkpt lat="35.488633" lon="138.621831"></trkpt>
      <trkpt lat="35.488863" lon="138.622237"></trkpt>
      <trkpt lat="35.489147" lon="138.622739"></trkpt>
      <trkpt lat="35.489309" lon="138.62305"></trkpt>
      <trkpt lat="35.489378" lon="138.623203"></trkpt>
      <trkpt lat="35.489441" lon="138.623367"></trkpt>
      <trkpt lat="35.489494" lon="138.623553"></trkpt>
      <trkpt lat="35.489523" lon="138.623696"></trkpt>
      <trkpt lat="35.489541" lon="138.623892"></trkpt>
      <trkpt lat="35.489539" lon="138.624115"></trkpt>
      <trkpt lat="35.489512" lon="138.624299"></trkpt>
      <trkpt lat="35.489482" lon="138.624441"></trkpt>
      <trkpt lat="35.489434" lon="138.624617"></trkpt>
      <trkpt lat="35.489379" lon="138.624744"></trkpt>
      <trkpt lat="35.489266" lon="138.624981"></trkpt>
      <trkpt lat="35.489124" lon="138.62522"></trkpt>
      <trkpt lat="35.489024" lon="138.625393"></trkpt>
      <trkpt lat="35.488572" lon="138.626138"></trkpt>
      <trkpt lat="35.488359" lon="138.626487"></trkpt>
      <trkpt lat="35.488258" lon="138.626664"></trkpt>
      <trkpt lat="35.488062" lon="138.627019"></trkpt>
      <trkpt lat="35.487933" lon="138.627279"></trkpt>
      <trkpt lat="35.487828" lon="138.627519"></trkpt>
      <trkpt lat="35.487785" lon="138.627618"></trkpt>
      <trkpt lat="35.487633" lon="138.627974"></trkpt>
      <trkpt lat="35.487071" lon="138.629408"></trkpt>
      <trkpt lat="35.486816" lon="138.630078"></trkpt>
      <trkpt lat="35.48653" lon="138.630806"></trkpt>
      <trkpt lat="35.485756" lon="138.63271"></trkpt>
      <trkpt lat="35.485707" lon="138.632852"></trkpt>
      <trkpt lat="35.485671" lon="138.632996"></trkpt>
      <trkpt lat="35.485651" lon="138.633205"></trkpt>
      <trkpt lat="35.485651" lon="138.633384"></trkpt>
      <trkpt lat="35.485687" lon="138.6336"></trkpt>
      <trkpt lat="35.485757" lon="138.633782"></trkpt>
      <trkpt lat="35.485982" lon="138.634289"></trkpt>
      <trkpt lat="35.486275" lon="138.634954"></trkpt>
      <trkpt lat="35.48636" lon="138.635229"></trkpt>
      <trkpt lat="35.486394" lon="138.635404"></trkpt>
      <trkpt lat="35.486409" lon="138.635571"></trkpt>
      <trkpt lat="35.486407" lon="138.635756"></trkpt>
      <trkpt lat="35.486377" lon="138.635959"></trkpt>
      <trkpt lat="35.486327" lon="138.636239"></trkpt>
      <trkpt lat="35.486079" lon="138.637613"></trkpt>
      <trkpt lat="35.486031" lon="138.637923"></trkpt>
      <trkpt lat="35.486017" lon="138.638135"></trkpt>
      <trkpt lat="35.486019" lon="138.638295"></trkpt>
      <trkpt lat="35.486035" lon="138.63847"></trkpt>
      <trkpt lat="35.486054" lon="138.638606"></trkpt>
      <trkpt lat="35.486099" lon="138.638814"></trkpt>
      <trkpt lat="35.486165" lon="138.639011"></trkpt>
      <trkpt lat="35.486237" lon="138.639201"></trkpt>
      <trkpt lat="35.486416" lon="138.639624"></trkpt>
      <trkpt lat="35.486751" lon="138.640416"></trkpt>
      <trkpt lat="35.487701" lon="138.642673"></trkpt>
      <trkpt lat="35.487811" lon="138.642945"></trkpt>
      <trkpt lat="35.48789" lon="138.643166"></trkpt>
      <trkpt lat="35.487938" lon="138.643317"></trkpt>
      <trkpt lat="35.487969" lon="138.643413"></trkpt>
      <trkpt lat="35.487999" lon="138.643611"></trkpt>
      <trkpt lat="35.488025" lon="138.643817"></trkpt>
      <trkpt lat="35.488031" lon="138.644211"></trkpt>
      <trkpt lat="35.488003" lon="138.644442"></trkpt>
      <trkpt lat="35.487957" lon="138.644662"></trkpt>
      <trkpt lat="35.487882" lon="138.644882"></trkpt>
      <trkpt lat="35.487799" lon="138.645072"></trkpt>
      <trkpt lat="35.48764" lon="138.645349"></trkpt>
      <trkpt lat="35.487476" lon="138.645611"></trkpt>
      <trkpt lat="35.486417" lon="138.647279"></trkpt>
      <trkpt lat="35.484539" lon="138.650247"></trkpt>
      <trkpt lat="35.482655" lon="138.653223"></trkpt>
      <trkpt lat="35.482291" lon="138.653865"></trkpt>
      <trkpt lat="35.481928" lon="138.654528"></trkpt>
      <trkpt lat="35.481204" lon="138.655836"></trkpt>
      <trkpt lat="35.480833" lon="138.656527"></trkpt>
      <trkpt lat="35.479858" lon="138.6583"></trkpt>
      <trkpt lat="35.479755" lon="138.658517"></trkpt>
      <trkpt lat="35.479598" lon="138.65882"></trkpt>
      <trkpt lat="35.479435" lon="138.659081"></trkpt>
      <trkpt lat="35.479265" lon="138.659322"></trkpt>
      <trkpt lat="35.479201" lon="138.659433"></trkpt>
      <trkpt lat="35.479138" lon="138.659613"></trkpt>
      <trkpt lat="35.479098" lon="138.659826"></trkpt>
      <trkpt lat="35.479064" lon="138.660021"></trkpt>
      <trkpt lat="35.479023" lon="138.66018"></trkpt>
      <trkpt lat="35.478943" lon="138.660367"></trkpt>
      <trkpt lat="35.478862" lon="138.660529"></trkpt>
      <trkpt lat="35.478759" lon="138.660658"></trkpt>
      <trkpt lat="35.478669" lon="138.660724"></trkpt>
      <trkpt lat="35.478534" lon="138.660799"></trkpt>
      <trkpt lat="35.478262" lon="138.660954"></trkpt>
      <trkpt lat="35.478128" lon="138.661022"></trkpt>
      <trkpt lat="35.477994" lon="138.661113"></trkpt>
      <trkpt lat="35.477826" lon="138.661276"></trkpt>
      <trkpt lat="35.477655" lon="138.661453"></trkpt>
      <trkpt lat="35.477488" lon="138.661638"></trkpt>
      <trkpt lat="35.477402" lon="138.661752"></trkpt>
      <trkpt lat="35.477316" lon="138.661894"></trkpt>
      <trkpt lat="35.477275" lon="138.661999"></trkpt>
      <trkpt lat="35.477249" lon="138.662105"></trkpt>
      <trkpt lat="35.477234" lon="138.662223"></trkpt>
      <trkpt lat="35.477225" lon="138.662357"></trkpt>
      <trkpt lat="35.477237" lon="138.662498"></trkpt>
      <trkpt lat="35.47727" lon="138.662668"></trkpt>
      <trkpt lat="35.477316" lon="138.662841"></trkpt>
      <trkpt lat="35.477694" lon="138.663984"></trkpt>
      <trkpt lat="35.477833" lon="138.664411"></trkpt>
      <trkpt lat="35.47788" lon="138.66457"></trkpt>
      <trkpt lat="35.477902" lon="138.664681"></trkpt>
      <trkpt lat="35.477935" lon="138.664889"></trkpt>
      <trkpt lat="35.477964" lon="138.665046"></trkpt>
      <trkpt lat="35.477988" lon="138.66532"></trkpt>
      <trkpt lat="35.477993" lon="138.665549"></trkpt>
      <trkpt lat="35.477984" lon="138.665941"></trkpt>
      <trkpt lat="35.477974" lon="138.666365"></trkpt>
      <trkpt lat="35.477975" lon="138.6667"></trkpt>
      <trkpt lat="35.477996" lon="138.667053"></trkpt>
      <trkpt lat="35.478024" lon="138.667486"></trkpt>
      <trkpt lat="35.478045" lon="138.667724"></trkpt>
      <trkpt lat="35.478062" lon="138.668015"></trkpt>
      <trkpt lat="35.478062" lon="138.668337"></trkpt>
      <trkpt lat="35.478036" lon="138.669071"></trkpt>
      <trkpt lat="35.477985" lon="138.670175"></trkpt>
      <trkpt lat="35.477934" lon="138.67132"></trkpt>
      <trkpt lat="35.477938" lon="138.671659"></trkpt>
      <trkpt lat="35.477951" lon="138.67182"></trkpt>
      <trkpt lat="35.477963" lon="138.671964"></trkpt>
      <trkpt lat="35.47801" lon="138.672226"></trkpt>
      <trkpt lat="35.478145" lon="138.672871"></trkpt>
      <trkpt lat="35.47828" lon="138.673595"></trkpt>
      <trkpt lat="35.478424" lon="138.674357"></trkpt>
      <trkpt lat="35.47853" lon="138.674948"></trkpt>
      <trkpt lat="35.478576" lon="138.675215"></trkpt>
      <trkpt lat="35.478603" lon="138.675494"></trkpt>
      <trkpt lat="35.47859" lon="138.675714"></trkpt>
      <trkpt lat="35.47858" lon="138.675868"></trkpt>
      <trkpt lat="35.478543" lon="138.676039"></trkpt>
      <trkpt lat="35.47846" lon="138.676293"></trkpt>
      <trkpt lat="35.478314" lon="138.676604"></trkpt>
      <trkpt lat="35.477968" lon="138.677377"></trkpt>
      <trkpt lat="35.477913" lon="138.677531"></trkpt>
      <trkpt lat="35.477785" lon="138.677958"></trkpt>
      <trkpt lat="35.477727" lon="138.678296"></trkpt>
      <trkpt lat="35.477689" lon="138.678601"></trkpt>
      <trkpt lat="35.477638" lon="138.67926"></trkpt>
      <trkpt lat="35.477572" lon="138.680046"></trkpt>
      <trkpt lat="35.477565" lon="138.680653"></trkpt>
      <trkpt lat="35.477619" lon="138.681005"></trkpt>
      <trkpt lat="35.477686" lon="138.681319"></trkpt>
      <trkpt lat="35.477828" lon="138.681852"></trkpt>
      <trkpt lat="35.477958" lon="138.682334"></trkpt>
      <trkpt lat="35.478078" lon="138.682847"></trkpt>
      <trkpt lat="35.478122" lon="138.683169"></trkpt>
      <trkpt lat="35.47811" lon="138.68353"></trkpt>
      <trkpt lat="35.478058" lon="138.68389"></trkpt>
      <trkpt lat="35.477995" lon="138.684284"></trkpt>
      <trkpt lat="35.477673" lon="138.686333"></trkpt>
      <trkpt lat="35.477538" lon="138.687263"></trkpt>
      <trkpt lat="35.47748" lon="138.687705"></trkpt>
      <trkpt lat="35.477452" lon="138.688031"></trkpt>
      <trkpt lat="35.477501" lon="138.688282"></trkpt>
      <trkpt lat="35.47752" lon="138.688371"></trkpt>
      <trkpt lat="35.477569" lon="138.688596"></trkpt>
      <trkpt lat="35.477586" lon="138.688688"></trkpt>
      <trkpt lat="35.477674" lon="138.689088"></trkpt>
      <trkpt lat="35.477785" lon="138.689426"></trkpt>
      <trkpt lat="35.477898" lon="138.689694"></trkpt>
      <trkpt lat="35.478168" lon="138.690165"></trkpt>
      <trkpt lat="35.478706" lon="138.691038"></trkpt>
      <trkpt lat="35.479271" lon="138.691939"></trkpt>
      <trkpt lat="35.479449" lon="138.692263"></trkpt>
      <trkpt lat="35.479566" lon="138.692607"></trkpt>
      <trkpt lat="35.479598" lon="138.692736"></trkpt>
      <trkpt lat="35.479633" lon="138.692877"></trkpt>
      <trkpt lat="35.479704" lon="138.692796"></trkpt>
      <trkpt lat="35.479812" lon="138.692684"></trkpt>
      <trkpt lat="35.479865" lon="138.692605"></trkpt>
      <trkpt lat="35.479952" lon="138.692487"></trkpt>
      <trkpt lat="35.480143" lon="138.692278"></trkpt>
      <trkpt lat="35.480391" lon="138.691977"></trkpt>
      <trkpt lat="35.480629" lon="138.691556"></trkpt>
      <trkpt lat="35.480713" lon="138.691439"></trkpt>
      <trkpt lat="35.480854" lon="138.691281"></trkpt>
      <trkpt lat="35.480944" lon="138.691219"></trkpt>
      <trkpt lat="35.481157" lon="138.691102"></trkpt>
      <trkpt lat="35.48136" lon="138.690929"></trkpt>
      <trkpt lat="35.481636" lon="138.690682"></trkpt>
      <trkpt lat="35.4819" lon="138.690489"></trkpt>
      <trkpt lat="35.482283" lon="138.690248"></trkpt>
      <trkpt lat="35.482459" lon="138.690131"></trkpt>
      <trkpt lat="35.482645" lon="138.689952"></trkpt>
      <trkpt lat="35.482842" lon="138.689711"></trkpt>
      <trkpt lat="35.482954" lon="138.689526"></trkpt>
      <trkpt lat="35.483028" lon="138.689368"></trkpt>
      <trkpt lat="35.483129" lon="138.688899"></trkpt>
      <trkpt lat="35.483157" lon="138.688645"></trkpt>
      <trkpt lat="35.483163" lon="138.688535"></trkpt>
      <trkpt lat="35.483179" lon="138.688301"></trkpt>
      <trkpt lat="35.483195" lon="138.688136"></trkpt>
      <trkpt lat="35.483266" lon="138.687919"></trkpt>
      <trkpt lat="35.483405" lon="138.687696"></trkpt>
      <trkpt lat="35.483613" lon="138.687441"></trkpt>
      <trkpt lat="35.483861" lon="138.687186"></trkpt>
      <trkpt lat="35.48394" lon="138.687035"></trkpt>
      <trkpt lat="35.483861" lon="138.687186"></trkpt>
      <trkpt lat="35.483613" lon="138.687441"></trkpt>
      <trkpt lat="35.483405" lon="138.687696"></trkpt>
      <trkpt lat="35.483266" lon="138.687919"></trkpt>
      <trkpt lat="35.483195" lon="138.688136"></trkpt>
      <trkpt lat="35.483179" lon="138.688301"></trkpt>
      <trkpt lat="35.483163" lon="138.688535"></trkpt>
      <trkpt lat="35.483157" lon="138.688645"></trkpt>
      <trkpt lat="35.483129" lon="138.688899"></trkpt>
      <trkpt lat="35.483028" lon="138.689368"></trkpt>
      <trkpt lat="35.482954" lon="138.689526"></trkpt>
      <trkpt lat="35.482842" lon="138.689711"></trkpt>
      <trkpt lat="35.482645" lon="138.689952"></trkpt>
      <trkpt lat="35.482459" lon="138.690131"></trkpt>
      <trkpt lat="35.482283" lon="138.690248"></trkpt>
      <trkpt lat="35.4819" lon="138.690489"></trkpt>
      <trkpt lat="35.481636" lon="138.690682"></trkpt>
      <trkpt lat="35.48136" lon="138.690929"></trkpt>
      <trkpt lat="35.481157" lon="138.691102"></trkpt>
      <trkpt lat="35.480944" lon="138.691219"></trkpt>
      <trkpt lat="35.480854" lon="138.691281"></trkpt>
      <trkpt lat="35.480854" lon="138.691281"></trkpt>
      <trkpt lat="35.480713" lon="138.691439"></trkpt>
      <trkpt lat="35.480629" lon="138.691556"></trkpt>
      <trkpt lat="35.480391" lon="138.691977"></trkpt>
      <trkpt lat="35.480143" lon="138.692278"></trkpt>
      <trkpt lat="35.479952" lon="138.692487"></trkpt>
      <trkpt lat="35.479865" lon="138.692605"></trkpt>
      <trkpt lat="35.479812" lon="138.692684"></trkpt>
      <trkpt lat="35.479704" lon="138.692796"></trkpt>
      <trkpt lat="35.479633" lon="138.692877"></trkpt>
      <trkpt lat="35.479598" lon="138.692736"></trkpt>
      <trkpt lat="35.479566" lon="138.692607"></trkpt>
      <trkpt lat="35.479449" lon="138.692263"></trkpt>
      <trkpt lat="35.479271" lon="138.691939"></trkpt>
      <trkpt lat="35.478706" lon="138.691038"></trkpt>
      <trkpt lat="35.478168" lon="138.690165"></trkpt>
      <trkpt lat="35.477898" lon="138.689694"></trkpt>
      <trkpt lat="35.477785" lon="138.689426"></trkpt>
      <trkpt lat="35.477674" lon="138.689088"></trkpt>
      <trkpt lat="35.477586" lon="138.688688"></trkpt>
      <trkpt lat="35.477569" lon="138.688596"></trkpt>
      <trkpt lat="35.47752" lon="138.688371"></trkpt>
      <trkpt lat="35.477501" lon="138.688282"></trkpt>
      <trkpt lat="35.477452" lon="138.688031"></trkpt>
      <trkpt lat="35.47748" lon="138.687705"></trkpt>
      <trkpt lat="35.477538" lon="138.687263"></trkpt>
      <trkpt lat="35.477673" lon="138.686333"></trkpt>
      <trkpt lat="35.477995" lon="138.684284"></trkpt>
      <trkpt lat="35.478058" lon="138.68389"></trkpt>
      <trkpt lat="35.47811" lon="138.68353"></trkpt>
      <trkpt lat="35.478122" lon="138.683169"></trkpt>
      <trkpt lat="35.478078" lon="138.682847"></trkpt>
      <trkpt lat="35.477958" lon="138.682334"></trkpt>
      <trkpt lat="35.477828" lon="138.681852"></trkpt>
      <trkpt lat="35.477686" lon="138.681319"></trkpt>
      <trkpt lat="35.477619" lon="138.681005"></trkpt>
      <trkpt lat="35.477565" lon="138.680653"></trkpt>
      <trkpt lat="35.477572" lon="138.680046"></trkpt>
      <trkpt lat="35.477638" lon="138.67926"></trkpt>
      <trkpt lat="35.477689" lon="138.678601"></trkpt>
      <trkpt lat="35.477727" lon="138.678296"></trkpt>
      <trkpt lat="35.477785" lon="138.677958"></trkpt>
      <trkpt lat="35.477913" lon="138.677531"></trkpt>
      <trkpt lat="35.477968" lon="138.677377"></trkpt>
      <trkpt lat="35.478314" lon="138.676604"></trkpt>
      <trkpt lat="35.47846" lon="138.676293"></trkpt>
      <trkpt lat="35.478543" lon="138.676039"></trkpt>
      <trkpt lat="35.47858" lon="138.675868"></trkpt>
      <trkpt lat="35.47859" lon="138.675714"></trkpt>
      <trkpt lat="35.478603" lon="138.675494"></trkpt>
      <trkpt lat="35.478576" lon="138.675215"></trkpt>
      <trkpt lat="35.47853" lon="138.674948"></trkpt>
      <trkpt lat="35.478424" lon="138.674357"></trkpt>
      <trkpt lat="35.47828" lon="138.673595"></trkpt>
      <trkpt lat="35.478145" lon="138.672871"></trkpt>
      <trkpt lat="35.47801" lon="138.672226"></trkpt>
      <trkpt lat="35.477963" lon="138.671964"></trkpt>
      <trkpt lat="35.477951" lon="138.67182"></trkpt>
      <trkpt lat="35.477938" lon="138.671659"></trkpt>
      <trkpt lat="35.477934" lon="138.67132"></trkpt>
      <trkpt lat="35.477985" lon="138.670175"></trkpt>
      <trkpt lat="35.478036" lon="138.669071"></trkpt>
      <trkpt lat="35.478062" lon="138.668337"></trkpt>
      <trkpt lat="35.478062" lon="138.668015"></trkpt>
      <trkpt lat="35.478045" lon="138.667724"></trkpt>
      <trkpt lat="35.478024" lon="138.667486"></trkpt>
      <trkpt lat="35.477996" lon="138.667053"></trkpt>
      <trkpt lat="35.477975" lon="138.6667"></trkpt>
      <trkpt lat="35.477974" lon="138.666365"></trkpt>
      <trkpt lat="35.477984" lon="138.665941"></trkpt>
      <trkpt lat="35.477993" lon="138.665549"></trkpt>
      <trkpt lat="35.477988" lon="138.66532"></trkpt>
      <trkpt lat="35.477964" lon="138.665046"></trkpt>
      <trkpt lat="35.477935" lon="138.664889"></trkpt>
      <trkpt lat="35.477902" lon="138.664681"></trkpt>
      <trkpt lat="35.47788" lon="138.66457"></trkpt>
      <trkpt lat="35.477833" lon="138.664411"></trkpt>
      <trkpt lat="35.477694" lon="138.663984"></trkpt>
      <trkpt lat="35.477316" lon="138.662841"></trkpt>
      <trkpt lat="35.47727" lon="138.662668"></trkpt>
      <trkpt lat="35.477237" lon="138.662498"></trkpt>
      <trkpt lat="35.477225" lon="138.662357"></trkpt>
      <trkpt lat="35.477234" lon="138.662223"></trkpt>
      <trkpt lat="35.477249" lon="138.662105"></trkpt>
      <trkpt lat="35.477275" lon="138.661999"></trkpt>
      <trkpt lat="35.477316" lon="138.661894"></trkpt>
      <trkpt lat="35.477402" lon="138.661752"></trkpt>
      <trkpt lat="35.477488" lon="138.661638"></trkpt>
      <trkpt lat="35.477655" lon="138.661453"></trkpt>
      <trkpt lat="35.477826" lon="138.661276"></trkpt>
      <trkpt lat="35.477994" lon="138.661113"></trkpt>
      <trkpt lat="35.478128" lon="138.661022"></trkpt>
      <trkpt lat="35.478262" lon="138.660954"></trkpt>
      <trkpt lat="35.478534" lon="138.660799"></trkpt>
      <trkpt lat="35.478669" lon="138.660724"></trkpt>
      <trkpt lat="35.478759" lon="138.660658"></trkpt>
      <trkpt lat="35.478862" lon="138.660529"></trkpt>
      <trkpt lat="35.478943" lon="138.660367"></trkpt>
      <trkpt lat="35.479023" lon="138.66018"></trkpt>
      <trkpt lat="35.479064" lon="138.660021"></trkpt>
      <trkpt lat="35.479098" lon="138.659826"></trkpt>
      <trkpt lat="35.479138" lon="138.659613"></trkpt>
      <trkpt lat="35.479201" lon="138.659433"></trkpt>
      <trkpt lat="35.479265" lon="138.659322"></trkpt>
      <trkpt lat="35.479435" lon="138.659081"></trkpt>
      <trkpt lat="35.479598" lon="138.65882"></trkpt>
      <trkpt lat="35.479755" lon="138.658517"></trkpt>
      <trkpt lat="35.479858" lon="138.6583"></trkpt>
      <trkpt lat="35.480833" lon="138.656527"></trkpt>
      <trkpt lat="35.481204" lon="138.655836"></trkpt>
      <trkpt lat="35.481928" lon="138.654528"></trkpt>
      <trkpt lat="35.482291" lon="138.653865"></trkpt>
      <trkpt lat="35.482655" lon="138.653223"></trkpt>
      <trkpt lat="35.484539" lon="138.650247"></trkpt>
      <trkpt lat="35.486417" lon="138.647279"></trkpt>
      <trkpt lat="35.487476" lon="138.645611"></trkpt>
      <trkpt lat="35.48764" lon="138.645349"></trkpt>
      <trkpt lat="35.487799" lon="138.645072"></trkpt>
      <trkpt lat="35.487882" lon="138.644882"></trkpt>
      <trkpt lat="35.487957" lon="138.644662"></trkpt>
      <trkpt lat="35.488003" lon="138.644442"></trkpt>
      <trkpt lat="35.488031" lon="138.644211"></trkpt>
      <trkpt lat="35.488025" lon="138.643817"></trkpt>
      <trkpt lat="35.487999" lon="138.643611"></trkpt>
      <trkpt lat="35.487969" lon="138.643413"></trkpt>
      <trkpt lat="35.487938" lon="138.643317"></trkpt>
      <trkpt lat="35.48789" lon="138.643166"></trkpt>
      <trkpt lat="35.487811" lon="138.642945"></trkpt>
      <trkpt lat="35.487701" lon="138.642673"></trkpt>
      <trkpt lat="35.486751" lon="138.640416"></trkpt>
      <trkpt lat="35.486416" lon="138.639624"></trkpt>
      <trkpt lat="35.486237" lon="138.639201"></trkpt>
      <trkpt lat="35.486165" lon="138.639011"></trkpt>
      <trkpt lat="35.486099" lon="138.638814"></trkpt>
      <trkpt lat="35.486054" lon="138.638606"></trkpt>
      <trkpt lat="35.486035" lon="138.63847"></trkpt>
      <trkpt lat="35.486019" lon="138.638295"></trkpt>
      <trkpt lat="35.486017" lon="138.638135"></trkpt>
      <trkpt lat="35.486031" lon="138.637923"></trkpt>
      <trkpt lat="35.486079" lon="138.637613"></trkpt>
      <trkpt lat="35.486327" lon="138.636239"></trkpt>
      <trkpt lat="35.486377" lon="138.635959"></trkpt>
      <trkpt lat="35.486407" lon="138.635756"></trkpt>
      <trkpt lat="35.486409" lon="138.635571"></trkpt>
      <trkpt lat="35.486394" lon="138.635404"></trkpt>
      <trkpt lat="35.48636" lon="138.635229"></trkpt>
      <trkpt lat="35.486275" lon="138.634954"></trkpt>
      <trkpt lat="35.485982" lon="138.634289"></trkpt>
      <trkpt lat="35.485757" lon="138.633782"></trkpt>
      <trkpt lat="35.485687" lon="138.6336"></trkpt>
      <trkpt lat="35.485651" lon="138.633384"></trkpt>
      <trkpt lat="35.485651" lon="138.633205"></trkpt>
      <trkpt lat="35.485671" lon="138.632996"></trkpt>
      <trkpt lat="35.485707" lon="138.632852"></trkpt>
      <trkpt lat="35.485756" lon="138.63271"></trkpt>
      <trkpt lat="35.48653" lon="138.630806"></trkpt>
      <trkpt lat="35.486816" lon="138.630078"></trkpt>
      <trkpt lat="35.487071" lon="138.629408"></trkpt>
      <trkpt lat="35.487633" lon="138.627974"></trkpt>
      <trkpt lat="35.487785" lon="138.627618"></trkpt>
      <trkpt lat="35.487828" lon="138.627519"></trkpt>
      <trkpt lat="35.487933" lon="138.627279"></trkpt>
      <trkpt lat="35.488062" lon="138.627019"></trkpt>
      <trkpt lat="35.488258" lon="138.626664"></trkpt>
      <trkpt lat="35.488359" lon="138.626487"></trkpt>
      <trkpt lat="35.488572" lon="138.626138"></trkpt>
      <trkpt lat="35.489024" lon="138.625393"></trkpt>
      <trkpt lat="35.489124" lon="138.62522"></trkpt>
      <trkpt lat="35.489266" lon="138.624981"></trkpt>
      <trkpt lat="35.489379" lon="138.624744"></trkpt>
      <trkpt lat="35.489434" lon="138.624617"></trkpt>
      <trkpt lat="35.489482" lon="138.624441"></trkpt>
      <trkpt lat="35.489512" lon="138.624299"></trkpt>
      <trkpt lat="35.489539" lon="138.624115"></trkpt>
      <trkpt lat="35.489541" lon="138.623892"></trkpt>
      <trkpt lat="35.489523" lon="138.623696"></trkpt>
      <trkpt lat="35.489494" lon="138.623553"></trkpt>
      <trkpt lat="35.489441" lon="138.623367"></trkpt>
      <trkpt lat="35.489378" lon="138.623203"></trkpt>
      <trkpt lat="35.489309" lon="138.62305"></trkpt>
      <trkpt lat="35.489147" lon="138.622739"></trkpt>
      <trkpt lat="35.488863" lon="138.622237"></trkpt>
      <trkpt lat="35.488633" lon="138.621831"></trkpt>
      <trkpt lat="35.488314" lon="138.621293"></trkpt>
      <trkpt lat="35.488045" lon="138.620804"></trkpt>
      <trkpt lat="35.487828" lon="138.620435"></trkpt>
      <trkpt lat="35.487662" lon="138.620205"></trkpt>
      <trkpt lat="35.487479" lon="138.620012"></trkpt>
      <trkpt lat="35.487356" lon="138.619908"></trkpt>
      <trkpt lat="35.487234" lon="138.619826"></trkpt>
      <trkpt lat="35.487068" lon="138.61972"></trkpt>
      <trkpt lat="35.48689" lon="138.619642"></trkpt>
      <trkpt lat="35.486669" lon="138.619554"></trkpt>
      <trkpt lat="35.485393" lon="138.61907"></trkpt>
      <trkpt lat="35.485095" lon="138.618958"></trkpt>
      <trkpt lat="35.484821" lon="138.618845"></trkpt>
      <trkpt lat="35.484613" lon="138.618751"></trkpt>
      <trkpt lat="35.48444" lon="138.618657"></trkpt>
      <trkpt lat="35.484211" lon="138.618508"></trkpt>
      <trkpt lat="35.484027" lon="138.618372"></trkpt>
      <trkpt lat="35.483878" lon="138.618235"></trkpt>
      <trkpt lat="35.48373" lon="138.618077"></trkpt>
      <trkpt lat="35.483516" lon="138.617829"></trkpt>
      <trkpt lat="35.483401" lon="138.617636"></trkpt>
      <trkpt lat="35.483249" lon="138.61733"></trkpt>
      <trkpt lat="35.483115" lon="138.616987"></trkpt>
      <trkpt lat="35.482432" lon="138.615243"></trkpt>
      <trkpt lat="35.48175" lon="138.613524"></trkpt>
      <trkpt lat="35.481431" lon="138.612694"></trkpt>
      <trkpt lat="35.481278" lon="138.61231"></trkpt>
      <trkpt lat="35.481124" lon="138.611955"></trkpt>
      <trkpt lat="35.480912" lon="138.611527"></trkpt>
      <trkpt lat="35.480698" lon="138.611159"></trkpt>
      <trkpt lat="35.480536" lon="138.610918"></trkpt>
      <trkpt lat="35.480389" lon="138.610732"></trkpt>
      <trkpt lat="35.479866" lon="138.610079"></trkpt>
      <trkpt lat="35.479808" lon="138.61001"></trkpt>
      <trkpt lat="35.479529" lon="138.60968"></trkpt>
      <trkpt lat="35.47944" lon="138.609546"></trkpt>
      <trkpt lat="35.479369" lon="138.609398"></trkpt>
      <trkpt lat="35.47924" lon="138.609091"></trkpt>
      <trkpt lat="35.478836" lon="138.60808"></trkpt>
      <trkpt lat="35.478757" lon="138.60788"></trkpt>
      <trkpt lat="35.478686" lon="138.607702"></trkpt>
      <trkpt lat="35.478594" lon="138.607496"></trkpt>
      <trkpt lat="35.478498" lon="138.607348"></trkpt>
      <trkpt lat="35.478379" lon="138.607211"></trkpt>
      <trkpt lat="35.478252" lon="138.607103"></trkpt>
      <trkpt lat="35.478116" lon="138.607027"></trkpt>
      <trkpt lat="35.477965" lon="138.606978"></trkpt>
      <trkpt lat="35.477836" lon="138.606971"></trkpt>
      <trkpt lat="35.477705" lon="138.607005"></trkpt>
      <trkpt lat="35.477511" lon="138.607081"></trkpt>
      <trkpt lat="35.477273" lon="138.607191"></trkpt>
      <trkpt lat="35.476944" lon="138.607349"></trkpt>
      <trkpt lat="35.476593" lon="138.60752"></trkpt>
      <trkpt lat="35.476248" lon="138.60769"></trkpt>
      <trkpt lat="35.476133" lon="138.607732"></trkpt>
      <trkpt lat="35.475977" lon="138.607773"></trkpt>
      <trkpt lat="35.47584" lon="138.607773"></trkpt>
      <trkpt lat="35.475685" lon="138.607731"></trkpt>
      <trkpt lat="35.475488" lon="138.607658"></trkpt>
      <trkpt lat="35.475048" lon="138.607496"></trkpt>
      <trkpt lat="35.474887" lon="138.607482"></trkpt>
      <trkpt lat="35.474782" lon="138.607496"></trkpt>
      <trkpt lat="35.474655" lon="138.607541"></trkpt>
      <trkpt lat="35.474561" lon="138.607597"></trkpt>
      <trkpt lat="35.474488" lon="138.607654"></trkpt>
      <trkpt lat="35.474435" lon="138.607733"></trkpt>
      <trkpt lat="35.474385" lon="138.607821"></trkpt>
      <trkpt lat="35.474346" lon="138.607963"></trkpt>
      <trkpt lat="35.474318" lon="138.608133"></trkpt>
      <trkpt lat="35.474318" lon="138.608364"></trkpt>
      <trkpt lat="35.474338" lon="138.608643"></trkpt>
      <trkpt lat="35.474493" lon="138.610196"></trkpt>
      <trkpt lat="35.474502" lon="138.6104"></trkpt>
      <trkpt lat="35.474486" lon="138.610547"></trkpt>
      <trkpt lat="35.474452" lon="138.610693"></trkpt>
      <trkpt lat="35.474409" lon="138.610818"></trkpt>
      <trkpt lat="35.4743" lon="138.610989"></trkpt>
      <trkpt lat="35.474175" lon="138.611131"></trkpt>
      <trkpt lat="35.473996" lon="138.611314"></trkpt>
      <trkpt lat="35.473775" lon="138.611543"></trkpt>
      <trkpt lat="35.473555" lon="138.611784"></trkpt>
      <trkpt lat="35.473275" lon="138.612077"></trkpt>
      <trkpt lat="35.473095" lon="138.61226"></trkpt>
      <trkpt lat="35.472964" lon="138.612412"></trkpt>
      <trkpt lat="35.472841" lon="138.612557"></trkpt>
      <trkpt lat="35.472574" lon="138.612892"></trkpt>
      <trkpt lat="35.472292" lon="138.613259"></trkpt>
      <trkpt lat="35.472204" lon="138.613366"></trkpt>
      <trkpt lat="35.472116" lon="138.613445"></trkpt>
      <trkpt lat="35.471998" lon="138.613528"></trkpt>
      <trkpt lat="35.471865" lon="138.613603"></trkpt>
      <trkpt lat="35.471716" lon="138.613655"></trkpt>
      <trkpt lat="35.471601" lon="138.613667"></trkpt>
      <trkpt lat="35.471485" lon="138.613655"></trkpt>
      <trkpt lat="35.471344" lon="138.613602"></trkpt>
      <trkpt lat="35.471244" lon="138.613545"></trkpt>
      <trkpt lat="35.471104" lon="138.61346"></trkpt>
      <trkpt lat="35.470899" lon="138.613327"></trkpt>
      <trkpt lat="35.470704" lon="138.613253"></trkpt>
      <trkpt lat="35.470539" lon="138.613219"></trkpt>
      <trkpt lat="35.470361" lon="138.613198"></trkpt>
      <trkpt lat="35.470166" lon="138.613152"></trkpt>
      <trkpt lat="35.470028" lon="138.613071"></trkpt>
      <trkpt lat="35.469897" lon="138.612976"></trkpt>
      <trkpt lat="35.469752" lon="138.612813"></trkpt>
      <trkpt lat="35.469581" lon="138.612567"></trkpt>
      <trkpt lat="35.468302" lon="138.610803"></trkpt>
      <trkpt lat="35.46703" lon="138.609035"></trkpt>
      <trkpt lat="35.466039" lon="138.607668"></trkpt>
      <trkpt lat="35.465052" lon="138.606296"></trkpt>
      <trkpt lat="35.464921" lon="138.606129"></trkpt>
      <trkpt lat="35.46479" lon="138.606012"></trkpt>
      <trkpt lat="35.464693" lon="138.605944"></trkpt>
      <trkpt lat="35.464596" lon="138.605887"></trkpt>
      <trkpt lat="35.464482" lon="138.605825"></trkpt>
      <trkpt lat="35.464325" lon="138.605766"></trkpt>
      <trkpt lat="35.464146" lon="138.605733"></trkpt>
      <trkpt lat="35.463881" lon="138.605725"></trkpt>
      <trkpt lat="35.463623" lon="138.605736"></trkpt>
      <trkpt lat="35.463246" lon="138.605756"></trkpt>
      <trkpt lat="35.462829" lon="138.605756"></trkpt>
      <trkpt lat="35.462713" lon="138.605751"></trkpt>
      <trkpt lat="35.462717" lon="138.604984"></trkpt>
      <trkpt lat="35.462736" lon="138.604839"></trkpt>
      <trkpt lat="35.462754" lon="138.604709"></trkpt>
      <trkpt lat="35.462803" lon="138.604526"></trkpt>
      <trkpt lat="35.462862" lon="138.604359"></trkpt>
      <trkpt lat="35.462951" lon="138.60418"></trkpt>
      <trkpt lat="35.463049" lon="138.604029"></trkpt>
      <trkpt lat="35.463156" lon="138.60391"></trkpt>
      <trkpt lat="35.463285" lon="138.603784"></trkpt>
      <trkpt lat="35.463434" lon="138.603658"></trkpt>
      <trkpt lat="35.46373" lon="138.603414"></trkpt>
      <trkpt lat="35.464067" lon="138.603138"></trkpt>
      <trkpt lat="35.464569" lon="138.602682"></trkpt>
      <trkpt lat="35.464675" lon="138.602589"></trkpt>
      <trkpt lat="35.464831" lon="138.602458"></trkpt>
      <trkpt lat="35.46617" lon="138.601364"></trkpt>
      <trkpt lat="35.467505" lon="138.600234"></trkpt>
      <trkpt lat="35.469266" lon="138.598725"></trkpt>
      <trkpt lat="35.47101" lon="138.59724"></trkpt>
      <trkpt lat="35.471214" lon="138.597097"></trkpt>
      <trkpt lat="35.471328" lon="138.597029"></trkpt>
      <trkpt lat="35.471608" lon="138.596883"></trkpt>
      <trkpt lat="35.471895" lon="138.59676"></trkpt>
      <trkpt lat="35.473124" lon="138.596267"></trkpt>
      <trkpt lat="35.473316" lon="138.59616"></trkpt>
      <trkpt lat="35.473452" lon="138.596057"></trkpt>
      <trkpt lat="35.473569" lon="138.595912"></trkpt>
      <trkpt lat="35.473642" lon="138.595771"></trkpt>
      <trkpt lat="35.473706" lon="138.595595"></trkpt>
      <trkpt lat="35.473979" lon="138.594713"></trkpt>
      <trkpt lat="35.474006" lon="138.594509"></trkpt>
      <trkpt lat="35.474004" lon="138.594347"></trkpt>
      <trkpt lat="35.473966" lon="138.594087"></trkpt>
      <trkpt lat="35.473942" lon="138.593829"></trkpt>
      <trkpt lat="35.473963" lon="138.593676"></trkpt>
      <trkpt lat="35.474017" lon="138.593554"></trkpt>
      <trkpt lat="35.47411" lon="138.593476"></trkpt>
      <trkpt lat="35.474244" lon="138.59343"></trkpt>
      <trkpt lat="35.474455" lon="138.593402"></trkpt>
      <trkpt lat="35.474643" lon="138.593406"></trkpt>
      <trkpt lat="35.474793" lon="138.593448"></trkpt>
      <trkpt lat="35.4751" lon="138.593583"></trkpt>
      <trkpt lat="35.475511" lon="138.593769"></trkpt>
      <trkpt lat="35.475908" lon="138.593954"></trkpt>
      <trkpt lat="35.476092" lon="138.594012"></trkpt>
      <trkpt lat="35.476275" lon="138.594034"></trkpt>
      <trkpt lat="35.476445" lon="138.594016"></trkpt>
      <trkpt lat="35.47657" lon="138.593971"></trkpt>
      <trkpt lat="35.476689" lon="138.593906"></trkpt>
      <trkpt lat="35.476792" lon="138.593829"></trkpt>
      <trkpt lat="35.476885" lon="138.593724"></trkpt>
      <trkpt lat="35.477" lon="138.593572"></trkpt>
      <trkpt lat="35.477074" lon="138.593417"></trkpt>
      <trkpt lat="35.477139" lon="138.593249"></trkpt>
      <trkpt lat="35.477182" lon="138.593025"></trkpt>
      <trkpt lat="35.477189" lon="138.5928"></trkpt>
      <trkpt lat="35.47718" lon="138.592596"></trkpt>
      <trkpt lat="35.47714" lon="138.592368"></trkpt>
      <trkpt lat="35.476833" lon="138.591171"></trkpt>
      <trkpt lat="35.476572" lon="138.590084"></trkpt>
      <trkpt lat="35.476461" lon="138.589751"></trkpt>
      <trkpt lat="35.476394" lon="138.589624"></trkpt>
      <trkpt lat="35.476321" lon="138.589529"></trkpt>
      <trkpt lat="35.476219" lon="138.589446"></trkpt>
      <trkpt lat="35.47605" lon="138.589354"></trkpt>
      <trkpt lat="35.475808" lon="138.589282"></trkpt>
      <trkpt lat="35.475673" lon="138.58922"></trkpt>
      <trkpt lat="35.47551" lon="138.589099"></trkpt>
      <trkpt lat="35.475397" lon="138.588971"></trkpt>
      <trkpt lat="35.475165" lon="138.588583"></trkpt>
      <trkpt lat="35.475004" lon="138.588334"></trkpt>
      <trkpt lat="35.47465" lon="138.587787"></trkpt>
      <trkpt lat="35.47449" lon="138.587561"></trkpt>
      <trkpt lat="35.474309" lon="138.587274"></trkpt>
      <trkpt lat="35.474234" lon="138.587092"></trkpt>
      <trkpt lat="35.474172" lon="138.586911"></trkpt>
      <trkpt lat="35.474117" lon="138.586652"></trkpt>
      <trkpt lat="35.47406" lon="138.586199"></trkpt>
      <trkpt lat="35.474032" lon="138.58584"></trkpt>
      <trkpt lat="35.473998" lon="138.585403"></trkpt>
      <trkpt lat="35.473976" lon="138.584921"></trkpt>
      <trkpt lat="35.474" lon="138.584589"></trkpt>
      <trkpt lat="35.474037" lon="138.584224"></trkpt>
      <trkpt lat="35.474071" lon="138.584055"></trkpt>
      <trkpt lat="35.474124" lon="138.583896"></trkpt>
      <trkpt lat="35.474198" lon="138.583747"></trkpt>
      <trkpt lat="35.474293" lon="138.583661"></trkpt>
      <trkpt lat="35.474453" lon="138.583603"></trkpt>
      <trkpt lat="35.474601" lon="138.583567"></trkpt>
      <trkpt lat="35.474731" lon="138.583539"></trkpt>
      <trkpt lat="35.474901" lon="138.583505"></trkpt>
      <trkpt lat="35.475058" lon="138.583455"></trkpt>
      <trkpt lat="35.475221" lon="138.583372"></trkpt>
      <trkpt lat="35.475332" lon="138.5833"></trkpt>
      <trkpt lat="35.475437" lon="138.583229"></trkpt>
      <trkpt lat="35.475525" lon="138.583128"></trkpt>
      <trkpt lat="35.475587" lon="138.583035"></trkpt>
      <trkpt lat="35.475641" lon="138.582895"></trkpt>
      <trkpt lat="35.475665" lon="138.582724"></trkpt>
      <trkpt lat="35.475656" lon="138.582575"></trkpt>
      <trkpt lat="35.475626" lon="138.5824"></trkpt>
      <trkpt lat="35.475457" lon="138.581852"></trkpt>
      <trkpt lat="35.475372" lon="138.581585"></trkpt>
      <trkpt lat="35.475301" lon="138.581301"></trkpt>
      <trkpt lat="35.475183" lon="138.580721"></trkpt>
      <trkpt lat="35.475093" lon="138.580157"></trkpt>
      <trkpt lat="35.474953" lon="138.579251"></trkpt>
      <trkpt lat="35.474927" lon="138.578947"></trkpt>
      <trkpt lat="35.474952" lon="138.578592"></trkpt>
      <trkpt lat="35.475018" lon="138.578195"></trkpt>
      <trkpt lat="35.475058" lon="138.577905"></trkpt>
      <trkpt lat="35.475078" lon="138.577671"></trkpt>
      <trkpt lat="35.475072" lon="138.577435"></trkpt>
      <trkpt lat="35.47503" lon="138.577147"></trkpt>
      <trkpt lat="35.474974" lon="138.576929"></trkpt>
      <trkpt lat="35.474893" lon="138.576704"></trkpt>
      <trkpt lat="35.474791" lon="138.576532"></trkpt>
      <trkpt lat="35.47461" lon="138.576296"></trkpt>
      <trkpt lat="35.474446" lon="138.576081"></trkpt>
      <trkpt lat="35.474363" lon="138.575918"></trkpt>
      <trkpt lat="35.474292" lon="138.575732"></trkpt>
      <trkpt lat="35.474308" lon="138.575415"></trkpt>
      <trkpt lat="35.474347" lon="138.575152"></trkpt>
      <trkpt lat="35.474457" lon="138.574864"></trkpt>
      <trkpt lat="35.476737" lon="138.569412"></trkpt>
      <trkpt lat="35.476893" lon="138.568977"></trkpt>
      <trkpt lat="35.476977" lon="138.56864"></trkpt>
      <trkpt lat="35.47698" lon="138.568472"></trkpt>
      <trkpt lat="35.476864" lon="138.567599"></trkpt>
      <trkpt lat="35.476798" lon="138.567077"></trkpt>
      <trkpt lat="35.476742" lon="138.566415"></trkpt>
      <trkpt lat="35.476707" lon="138.566271"></trkpt>
      <trkpt lat="35.476647" lon="138.566075"></trkpt>
      <trkpt lat="35.47663" lon="138.565898"></trkpt>
      <trkpt lat="35.476642" lon="138.565725"></trkpt>
    </trkseg>
  </trk>
</gpx>