<?xml version="1.0" encoding="UTF-8"?>
<gpx version="1.1" creator="TokyoCycling2026" xmlns="http://www.topografix.com/GPX/1/1">
  <metadata>
    <name>Day 6: 下坡篇：本棲湖浩庵 ➔ 朝霧高原 ➔ 白糸之瀑 ➔ 富士宮 (千米長下坡)</name>
    <desc>39.6 km | +148m / -924m</desc>
  </metadata>
  <trk>
    <name>Day 6: 下坡篇：本棲湖浩庵 ➔ 朝霧高原 ➔ 白糸之瀑 ➔ 富士宮 (千米長下坡)</name>
    <trkseg>
      <trkpt lat="35.476642" lon="138.565725"></trkpt>
      <trkpt lat="35.47663" lon="138.565898"></trkpt>
      <trkpt lat="35.476647" lon="138.566075"></trkpt>
      <trkpt lat="35.476707" lon="138.566271"></trkpt>
      <trkpt lat="35.476742" lon="138.566415"></trkpt>
      <trkpt lat="35.476798" lon="138.567077"></trkpt>
      <trkpt lat="35.476864" lon="138.567599"></trkpt>
      <trkpt lat="35.47698" lon="138.568472"></trkpt>
      <trkpt lat="35.476977" lon="138.56864"></trkpt>
      <trkpt lat="35.476893" lon="138.568977"></trkpt>
      <trkpt lat="35.476737" lon="138.569412"></trkpt>
      <trkpt lat="35.474457" lon="138.574864"></trkpt>
      <trkpt lat="35.474347" lon="138.575152"></trkpt>
      <trkpt lat="35.474308" lon="138.575415"></trkpt>
      <trkpt lat="35.474292" lon="138.575732"></trkpt>
      <trkpt lat="35.474363" lon="138.575918"></trkpt>
      <trkpt lat="35.474446" lon="138.576081"></trkpt>
      <trkpt lat="35.47461" lon="138.576296"></trkpt>
      <trkpt lat="35.474791" lon="138.576532"></trkpt>
      <trkpt lat="35.474893" lon="138.576704"></trkpt>
      <trkpt lat="35.474974" lon="138.576929"></trkpt>
      <trkpt lat="35.47503" lon="138.577147"></trkpt>
      <trkpt lat="35.475072" lon="138.577435"></trkpt>
      <trkpt lat="35.475078" lon="138.577671"></trkpt>
      <trkpt lat="35.475058" lon="138.577905"></trkpt>
      <trkpt lat="35.475018" lon="138.578195"></trkpt>
      <trkpt lat="35.474952" lon="138.578592"></trkpt>
      <trkpt lat="35.474927" lon="138.578947"></trkpt>
      <trkpt lat="35.474953" lon="138.579251"></trkpt>
      <trkpt lat="35.475093" lon="138.580157"></trkpt>
      <trkpt lat="35.475183" lon="138.580721"></trkpt>
      <trkpt lat="35.475301" lon="138.581301"></trkpt>
      <trkpt lat="35.475372" lon="138.581585"></trkpt>
      <trkpt lat="35.475457" lon="138.581852"></trkpt>
      <trkpt lat="35.475626" lon="138.5824"></trkpt>
      <trkpt lat="35.475656" lon="138.582575"></trkpt>
      <trkpt lat="35.475665" lon="138.582724"></trkpt>
      <trkpt lat="35.475641" lon="138.582895"></trkpt>
      <trkpt lat="35.475587" lon="138.583035"></trkpt>
      <trkpt lat="35.475525" lon="138.583128"></trkpt>
      <trkpt lat="35.475437" lon="138.583229"></trkpt>
      <trkpt lat="35.475332" lon="138.5833"></trkpt>
      <trkpt lat="35.475221" lon="138.583372"></trkpt>
      <trkpt lat="35.475058" lon="138.583455"></trkpt>
      <trkpt lat="35.474901" lon="138.583505"></trkpt>
      <trkpt lat="35.474731" lon="138.583539"></trkpt>
      <trkpt lat="35.474601" lon="138.583567"></trkpt>
      <trkpt lat="35.474453" lon="138.583603"></trkpt>
      <trkpt lat="35.474293" lon="138.583661"></trkpt>
      <trkpt lat="35.474198" lon="138.583747"></trkpt>
      <trkpt lat="35.474124" lon="138.583896"></trkpt>
      <trkpt lat="35.474071" lon="138.584055"></trkpt>
      <trkpt lat="35.474037" lon="138.584224"></trkpt>
      <trkpt lat="35.474" lon="138.584589"></trkpt>
      <trkpt lat="35.473976" lon="138.584921"></trkpt>
      <trkpt lat="35.473998" lon="138.585403"></trkpt>
      <trkpt lat="35.474032" lon="138.58584"></trkpt>
      <trkpt lat="35.47406" lon="138.586199"></trkpt>
      <trkpt lat="35.474117" lon="138.586652"></trkpt>
      <trkpt lat="35.474172" lon="138.586911"></trkpt>
      <trkpt lat="35.474234" lon="138.587092"></trkpt>
      <trkpt lat="35.474309" lon="138.587274"></trkpt>
      <trkpt lat="35.47449" lon="138.587561"></trkpt>
      <trkpt lat="35.47465" lon="138.587787"></trkpt>
      <trkpt lat="35.475004" lon="138.588334"></trkpt>
      <trkpt lat="35.475165" lon="138.588583"></trkpt>
      <trkpt lat="35.475397" lon="138.588971"></trkpt>
      <trkpt lat="35.47551" lon="138.589099"></trkpt>
      <trkpt lat="35.475673" lon="138.58922"></trkpt>
      <trkpt lat="35.475808" lon="138.589282"></trkpt>
      <trkpt lat="35.47605" lon="138.589354"></trkpt>
      <trkpt lat="35.476219" lon="138.589446"></trkpt>
      <trkpt lat="35.476321" lon="138.589529"></trkpt>
      <trkpt lat="35.476394" lon="138.589624"></trkpt>
      <trkpt lat="35.476461" lon="138.589751"></trkpt>
      <trkpt lat="35.476572" lon="138.590084"></trkpt>
      <trkpt lat="35.476833" lon="138.591171"></trkpt>
      <trkpt lat="35.47714" lon="138.592368"></trkpt>
      <trkpt lat="35.47718" lon="138.592596"></trkpt>
      <trkpt lat="35.477189" lon="138.5928"></trkpt>
      <trkpt lat="35.477182" lon="138.593025"></trkpt>
      <trkpt lat="35.477139" lon="138.593249"></trkpt>
      <trkpt lat="35.477074" lon="138.593417"></trkpt>
      <trkpt lat="35.477" lon="138.593572"></trkpt>
      <trkpt lat="35.476885" lon="138.593724"></trkpt>
      <trkpt lat="35.476792" lon="138.593829"></trkpt>
      <trkpt lat="35.476689" lon="138.593906"></trkpt>
      <trkpt lat="35.47657" lon="138.593971"></trkpt>
      <trkpt lat="35.476445" lon="138.594016"></trkpt>
      <trkpt lat="35.476275" lon="138.594034"></trkpt>
      <trkpt lat="35.476092" lon="138.594012"></trkpt>
      <trkpt lat="35.475908" lon="138.593954"></trkpt>
      <trkpt lat="35.475511" lon="138.593769"></trkpt>
      <trkpt lat="35.4751" lon="138.593583"></trkpt>
      <trkpt lat="35.474793" lon="138.593448"></trkpt>
      <trkpt lat="35.474643" lon="138.593406"></trkpt>
      <trkpt lat="35.474455" lon="138.593402"></trkpt>
      <trkpt lat="35.474244" lon="138.59343"></trkpt>
      <trkpt lat="35.47411" lon="138.593476"></trkpt>
      <trkpt lat="35.474017" lon="138.593554"></trkpt>
      <trkpt lat="35.473963" lon="138.593676"></trkpt>
      <trkpt lat="35.473942" lon="138.593829"></trkpt>
      <trkpt lat="35.473966" lon="138.594087"></trkpt>
      <trkpt lat="35.474004" lon="138.594347"></trkpt>
      <trkpt lat="35.474006" lon="138.594509"></trkpt>
      <trkpt lat="35.473979" lon="138.594713"></trkpt>
      <trkpt lat="35.473706" lon="138.595595"></trkpt>
      <trkpt lat="35.473642" lon="138.595771"></trkpt>
      <trkpt lat="35.473569" lon="138.595912"></trkpt>
      <trkpt lat="35.473452" lon="138.596057"></trkpt>
      <trkpt lat="35.473316" lon="138.59616"></trkpt>
      <trkpt lat="35.473124" lon="138.596267"></trkpt>
      <trkpt lat="35.471895" lon="138.59676"></trkpt>
      <trkpt lat="35.471608" lon="138.596883"></trkpt>
      <trkpt lat="35.471328" lon="138.597029"></trkpt>
      <trkpt lat="35.471214" lon="138.597097"></trkpt>
      <trkpt lat="35.47101" lon="138.59724"></trkpt>
      <trkpt lat="35.469266" lon="138.598725"></trkpt>
      <trkpt lat="35.467505" lon="138.600234"></trkpt>
      <trkpt lat="35.46617" lon="138.601364"></trkpt>
      <trkpt lat="35.464831" lon="138.602458"></trkpt>
      <trkpt lat="35.464675" lon="138.602589"></trkpt>
      <trkpt lat="35.464569" lon="138.602682"></trkpt>
      <trkpt lat="35.464067" lon="138.603138"></trkpt>
      <trkpt lat="35.46373" lon="138.603414"></trkpt>
      <trkpt lat="35.463434" lon="138.603658"></trkpt>
      <trkpt lat="35.463285" lon="138.603784"></trkpt>
      <trkpt lat="35.463156" lon="138.60391"></trkpt>
      <trkpt lat="35.463049" lon="138.604029"></trkpt>
      <trkpt lat="35.462951" lon="138.60418"></trkpt>
      <trkpt lat="35.462862" lon="138.604359"></trkpt>
      <trkpt lat="35.462803" lon="138.604526"></trkpt>
      <trkpt lat="35.462754" lon="138.604709"></trkpt>
      <trkpt lat="35.462736" lon="138.604839"></trkpt>
      <trkpt lat="35.462717" lon="138.604984"></trkpt>
      <trkpt lat="35.462713" lon="138.605751"></trkpt>
      <trkpt lat="35.462298" lon="138.605762"></trkpt>
      <trkpt lat="35.462074" lon="138.605791"></trkpt>
      <trkpt lat="35.461902" lon="138.605844"></trkpt>
      <trkpt lat="35.461773" lon="138.605904"></trkpt>
      <trkpt lat="35.461639" lon="138.605999"></trkpt>
      <trkpt lat="35.461534" lon="138.606092"></trkpt>
      <trkpt lat="35.461423" lon="138.6062"></trkpt>
      <trkpt lat="35.461364" lon="138.606277"></trkpt>
      <trkpt lat="35.461305" lon="138.606362"></trkpt>
      <trkpt lat="35.461232" lon="138.606472"></trkpt>
      <trkpt lat="35.461158" lon="138.606603"></trkpt>
      <trkpt lat="35.460616" lon="138.607723"></trkpt>
      <trkpt lat="35.46051" lon="138.607959"></trkpt>
      <trkpt lat="35.460438" lon="138.608103"></trkpt>
      <trkpt lat="35.460365" lon="138.608219"></trkpt>
      <trkpt lat="35.460264" lon="138.608355"></trkpt>
      <trkpt lat="35.460164" lon="138.608476"></trkpt>
      <trkpt lat="35.46001" lon="138.608643"></trkpt>
      <trkpt lat="35.459863" lon="138.608787"></trkpt>
      <trkpt lat="35.459731" lon="138.6089"></trkpt>
      <trkpt lat="35.45954" lon="138.609042"></trkpt>
      <trkpt lat="35.45935" lon="138.609163"></trkpt>
      <trkpt lat="35.459154" lon="138.609287"></trkpt>
      <trkpt lat="35.459033" lon="138.609363"></trkpt>
      <trkpt lat="35.458952" lon="138.609403"></trkpt>
      <trkpt lat="35.458816" lon="138.609452"></trkpt>
      <trkpt lat="35.458705" lon="138.609472"></trkpt>
      <trkpt lat="35.458574" lon="138.609471"></trkpt>
      <trkpt lat="35.458441" lon="138.609447"></trkpt>
      <trkpt lat="35.458333" lon="138.609414"></trkpt>
      <trkpt lat="35.458199" lon="138.609345"></trkpt>
      <trkpt lat="35.458086" lon="138.609254"></trkpt>
      <trkpt lat="35.457981" lon="138.609143"></trkpt>
      <trkpt lat="35.457554" lon="138.608595"></trkpt>
      <trkpt lat="35.457459" lon="138.608484"></trkpt>
      <trkpt lat="35.457373" lon="138.608422"></trkpt>
      <trkpt lat="35.457271" lon="138.608379"></trkpt>
      <trkpt lat="35.457166" lon="138.608358"></trkpt>
      <trkpt lat="35.457062" lon="138.608372"></trkpt>
      <trkpt lat="35.456961" lon="138.608403"></trkpt>
      <trkpt lat="35.456753" lon="138.608482"></trkpt>
      <trkpt lat="35.456544" lon="138.608558"></trkpt>
      <trkpt lat="35.456405" lon="138.608595"></trkpt>
      <trkpt lat="35.456094" lon="138.608626"></trkpt>
      <trkpt lat="35.455828" lon="138.608659"></trkpt>
      <trkpt lat="35.455603" lon="138.608707"></trkpt>
      <trkpt lat="35.45547" lon="138.608748"></trkpt>
      <trkpt lat="35.455345" lon="138.608796"></trkpt>
      <trkpt lat="35.455114" lon="138.608919"></trkpt>
      <trkpt lat="35.454948" lon="138.608977"></trkpt>
      <trkpt lat="35.454832" lon="138.609009"></trkpt>
      <trkpt lat="35.454664" lon="138.609033"></trkpt>
      <trkpt lat="35.454355" lon="138.609041"></trkpt>
      <trkpt lat="35.454186" lon="138.609034"></trkpt>
      <trkpt lat="35.453973" lon="138.609012"></trkpt>
      <trkpt lat="35.453806" lon="138.608983"></trkpt>
      <trkpt lat="35.453652" lon="138.608953"></trkpt>
      <trkpt lat="35.453486" lon="138.608896"></trkpt>
      <trkpt lat="35.453325" lon="138.608825"></trkpt>
      <trkpt lat="35.453168" lon="138.608739"></trkpt>
      <trkpt lat="35.453016" lon="138.608639"></trkpt>
      <trkpt lat="35.452871" lon="138.608527"></trkpt>
      <trkpt lat="35.452733" lon="138.608401"></trkpt>
      <trkpt lat="35.452526" lon="138.608215"></trkpt>
      <trkpt lat="35.452358" lon="138.608054"></trkpt>
      <trkpt lat="35.452222" lon="138.607939"></trkpt>
      <trkpt lat="35.452086" lon="138.607842"></trkpt>
      <trkpt lat="35.451918" lon="138.607739"></trkpt>
      <trkpt lat="35.451809" lon="138.607695"></trkpt>
      <trkpt lat="35.451701" lon="138.607653"></trkpt>
      <trkpt lat="35.451576" lon="138.607616"></trkpt>
      <trkpt lat="35.451426" lon="138.607591"></trkpt>
      <trkpt lat="35.45119" lon="138.607582"></trkpt>
      <trkpt lat="35.450883" lon="138.60762"></trkpt>
      <trkpt lat="35.450652" lon="138.607671"></trkpt>
      <trkpt lat="35.450124" lon="138.60785"></trkpt>
      <trkpt lat="35.449703" lon="138.607992"></trkpt>
      <trkpt lat="35.449147" lon="138.60817"></trkpt>
      <trkpt lat="35.44813" lon="138.608516"></trkpt>
      <trkpt lat="35.447559" lon="138.608703"></trkpt>
      <trkpt lat="35.447318" lon="138.608761"></trkpt>
      <trkpt lat="35.44711" lon="138.608787"></trkpt>
      <trkpt lat="35.44686" lon="138.60879"></trkpt>
      <trkpt lat="35.446616" lon="138.608755"></trkpt>
      <trkpt lat="35.446357" lon="138.60869"></trkpt>
      <trkpt lat="35.446201" lon="138.608645"></trkpt>
      <trkpt lat="35.446046" lon="138.608586"></trkpt>
      <trkpt lat="35.445895" lon="138.608509"></trkpt>
      <trkpt lat="35.445746" lon="138.608433"></trkpt>
      <trkpt lat="35.445595" lon="138.608333"></trkpt>
      <trkpt lat="35.445463" lon="138.60823"></trkpt>
      <trkpt lat="35.445328" lon="138.608106"></trkpt>
      <trkpt lat="35.44457" lon="138.607363"></trkpt>
      <trkpt lat="35.444444" lon="138.607223"></trkpt>
      <trkpt lat="35.444318" lon="138.607069"></trkpt>
      <trkpt lat="35.444228" lon="138.606928"></trkpt>
      <trkpt lat="35.444132" lon="138.606759"></trkpt>
      <trkpt lat="35.444026" lon="138.606553"></trkpt>
      <trkpt lat="35.443846" lon="138.606202"></trkpt>
      <trkpt lat="35.443731" lon="138.605994"></trkpt>
      <trkpt lat="35.443635" lon="138.605841"></trkpt>
      <trkpt lat="35.44354" lon="138.605702"></trkpt>
      <trkpt lat="35.44342" lon="138.605561"></trkpt>
      <trkpt lat="35.443293" lon="138.605407"></trkpt>
      <trkpt lat="35.443116" lon="138.605223"></trkpt>
      <trkpt lat="35.442908" lon="138.605038"></trkpt>
      <trkpt lat="35.442649" lon="138.604848"></trkpt>
      <trkpt lat="35.442169" lon="138.604528"></trkpt>
      <trkpt lat="35.441682" lon="138.604214"></trkpt>
      <trkpt lat="35.440913" lon="138.603712"></trkpt>
      <trkpt lat="35.438852" lon="138.602382"></trkpt>
      <trkpt lat="35.43798" lon="138.601813"></trkpt>
      <trkpt lat="35.437785" lon="138.601677"></trkpt>
      <trkpt lat="35.437572" lon="138.601502"></trkpt>
      <trkpt lat="35.43737" lon="138.601314"></trkpt>
      <trkpt lat="35.437156" lon="138.601075"></trkpt>
      <trkpt lat="35.436863" lon="138.60073"></trkpt>
      <trkpt lat="35.436519" lon="138.600329"></trkpt>
      <trkpt lat="35.435847" lon="138.59954"></trkpt>
      <trkpt lat="35.435601" lon="138.599268"></trkpt>
      <trkpt lat="35.435431" lon="138.5991"></trkpt>
      <trkpt lat="35.435261" lon="138.598954"></trkpt>
      <trkpt lat="35.435014" lon="138.598768"></trkpt>
      <trkpt lat="35.434699" lon="138.598564"></trkpt>
      <trkpt lat="35.433727" lon="138.597954"></trkpt>
      <trkpt lat="35.433535" lon="138.597822"></trkpt>
      <trkpt lat="35.433349" lon="138.597675"></trkpt>
      <trkpt lat="35.432982" lon="138.597356"></trkpt>
      <trkpt lat="35.432155" lon="138.596529"></trkpt>
      <trkpt lat="35.431719" lon="138.596083"></trkpt>
      <trkpt lat="35.431253" lon="138.595628"></trkpt>
      <trkpt lat="35.430782" lon="138.595172"></trkpt>
      <trkpt lat="35.430321" lon="138.594718"></trkpt>
      <trkpt lat="35.430094" lon="138.594484"></trkpt>
      <trkpt lat="35.429974" lon="138.594319"></trkpt>
      <trkpt lat="35.42988" lon="138.594178"></trkpt>
      <trkpt lat="35.429804" lon="138.594043"></trkpt>
      <trkpt lat="35.429729" lon="138.593876"></trkpt>
      <trkpt lat="35.429615" lon="138.593567"></trkpt>
      <trkpt lat="35.429553" lon="138.593242"></trkpt>
      <trkpt lat="35.429509" lon="138.592993"></trkpt>
      <trkpt lat="35.429417" lon="138.591842"></trkpt>
      <trkpt lat="35.429386" lon="138.591668"></trkpt>
      <trkpt lat="35.429341" lon="138.59151"></trkpt>
      <trkpt lat="35.429293" lon="138.591346"></trkpt>
      <trkpt lat="35.429231" lon="138.591191"></trkpt>
      <trkpt lat="35.429137" lon="138.591031"></trkpt>
      <trkpt lat="35.428976" lon="138.590814"></trkpt>
      <trkpt lat="35.428824" lon="138.590665"></trkpt>
      <trkpt lat="35.42862" lon="138.590525"></trkpt>
      <trkpt lat="35.428482" lon="138.59047"></trkpt>
      <trkpt lat="35.428344" lon="138.590415"></trkpt>
      <trkpt lat="35.427938" lon="138.590334"></trkpt>
      <trkpt lat="35.427592" lon="138.590309"></trkpt>
      <trkpt lat="35.427416" lon="138.590331"></trkpt>
      <trkpt lat="35.427234" lon="138.59037"></trkpt>
      <trkpt lat="35.427101" lon="138.590419"></trkpt>
      <trkpt lat="35.426919" lon="138.59053"></trkpt>
      <trkpt lat="35.426721" lon="138.590674"></trkpt>
      <trkpt lat="35.426516" lon="138.590883"></trkpt>
      <trkpt lat="35.426007" lon="138.591432"></trkpt>
      <trkpt lat="35.425098" lon="138.592365"></trkpt>
      <trkpt lat="35.424962" lon="138.592469"></trkpt>
      <trkpt lat="35.424829" lon="138.592557"></trkpt>
      <trkpt lat="35.42471" lon="138.592616"></trkpt>
      <trkpt lat="35.424582" lon="138.592662"></trkpt>
      <trkpt lat="35.424462" lon="138.592698"></trkpt>
      <trkpt lat="35.424311" lon="138.592709"></trkpt>
      <trkpt lat="35.424114" lon="138.592707"></trkpt>
      <trkpt lat="35.423933" lon="138.592683"></trkpt>
      <trkpt lat="35.423663" lon="138.592602"></trkpt>
      <trkpt lat="35.423004" lon="138.592356"></trkpt>
      <trkpt lat="35.421965" lon="138.591948"></trkpt>
      <trkpt lat="35.421614" lon="138.591815"></trkpt>
      <trkpt lat="35.421398" lon="138.591728"></trkpt>
      <trkpt lat="35.421144" lon="138.591633"></trkpt>
      <trkpt lat="35.420674" lon="138.591512"></trkpt>
      <trkpt lat="35.419598" lon="138.591285"></trkpt>
      <trkpt lat="35.418654" lon="138.591108"></trkpt>
      <trkpt lat="35.41672" lon="138.590697"></trkpt>
      <trkpt lat="35.416155" lon="138.590534"></trkpt>
      <trkpt lat="35.416029" lon="138.590495"></trkpt>
      <trkpt lat="35.415079" lon="138.590194"></trkpt>
      <trkpt lat="35.414438" lon="138.589982"></trkpt>
      <trkpt lat="35.413722" lon="138.589763"></trkpt>
      <trkpt lat="35.413437" lon="138.589648"></trkpt>
      <trkpt lat="35.413184" lon="138.58951"></trkpt>
      <trkpt lat="35.413068" lon="138.589428"></trkpt>
      <trkpt lat="35.412785" lon="138.589212"></trkpt>
      <trkpt lat="35.41265" lon="138.589076"></trkpt>
      <trkpt lat="35.412511" lon="138.588924"></trkpt>
      <trkpt lat="35.411804" lon="138.588117"></trkpt>
      <trkpt lat="35.410984" lon="138.587164"></trkpt>
      <trkpt lat="35.410157" lon="138.586239"></trkpt>
      <trkpt lat="35.409748" lon="138.585755"></trkpt>
      <trkpt lat="35.409539" lon="138.585523"></trkpt>
      <trkpt lat="35.409371" lon="138.585379"></trkpt>
      <trkpt lat="35.409157" lon="138.585225"></trkpt>
      <trkpt lat="35.40882" lon="138.585055"></trkpt>
      <trkpt lat="35.408533" lon="138.58495"></trkpt>
      <trkpt lat="35.408157" lon="138.584881"></trkpt>
      <trkpt lat="35.407782" lon="138.584812"></trkpt>
      <trkpt lat="35.406716" lon="138.584653"></trkpt>
      <trkpt lat="35.40595" lon="138.584542"></trkpt>
      <trkpt lat="35.405553" lon="138.584444"></trkpt>
      <trkpt lat="35.405256" lon="138.584344"></trkpt>
      <trkpt lat="35.404949" lon="138.584193"></trkpt>
      <trkpt lat="35.404775" lon="138.584038"></trkpt>
      <trkpt lat="35.404594" lon="138.583864"></trkpt>
      <trkpt lat="35.404425" lon="138.583649"></trkpt>
      <trkpt lat="35.404257" lon="138.583397"></trkpt>
      <trkpt lat="35.404091" lon="138.583123"></trkpt>
      <trkpt lat="35.403909" lon="138.582859"></trkpt>
      <trkpt lat="35.403782" lon="138.58271"></trkpt>
      <trkpt lat="35.403639" lon="138.582571"></trkpt>
      <trkpt lat="35.403334" lon="138.582342"></trkpt>
      <trkpt lat="35.403124" lon="138.582222"></trkpt>
      <trkpt lat="35.402737" lon="138.582076"></trkpt>
      <trkpt lat="35.401411" lon="138.581618"></trkpt>
      <trkpt lat="35.400738" lon="138.581369"></trkpt>
      <trkpt lat="35.400094" lon="138.581105"></trkpt>
      <trkpt lat="35.39945" lon="138.580827"></trkpt>
      <trkpt lat="35.399491" lon="138.580761"></trkpt>
      <trkpt lat="35.399542" lon="138.580703"></trkpt>
      <trkpt lat="35.399615" lon="138.580648"></trkpt>
      <trkpt lat="35.399778" lon="138.580558"></trkpt>
      <trkpt lat="35.399947" lon="138.580497"></trkpt>
      <trkpt lat="35.400234" lon="138.58049"></trkpt>
      <trkpt lat="35.400296" lon="138.580462"></trkpt>
      <trkpt lat="35.400389" lon="138.58036"></trkpt>
      <trkpt lat="35.400476" lon="138.580263"></trkpt>
      <trkpt lat="35.400555" lon="138.580177"></trkpt>
      <trkpt lat="35.400882" lon="138.580057"></trkpt>
      <trkpt lat="35.400995" lon="138.580002"></trkpt>
      <trkpt lat="35.401141" lon="138.579898"></trkpt>
      <trkpt lat="35.401197" lon="138.579775"></trkpt>
      <trkpt lat="35.401265" lon="138.579507"></trkpt>
      <trkpt lat="35.401327" lon="138.579128"></trkpt>
      <trkpt lat="35.401507" lon="138.577968"></trkpt>
      <trkpt lat="35.401552" lon="138.5777"></trkpt>
      <trkpt lat="35.401551" lon="138.577605"></trkpt>
      <trkpt lat="35.401504" lon="138.577409"></trkpt>
      <trkpt lat="35.401465" lon="138.577278"></trkpt>
      <trkpt lat="35.401454" lon="138.577155"></trkpt>
      <trkpt lat="35.40147" lon="138.577014"></trkpt>
      <trkpt lat="35.401681" lon="138.576291"></trkpt>
      <trkpt lat="35.401805" lon="138.575902"></trkpt>
      <trkpt lat="35.401859" lon="138.575679"></trkpt>
      <trkpt lat="35.401936" lon="138.575362"></trkpt>
      <trkpt lat="35.402003" lon="138.575104"></trkpt>
      <trkpt lat="35.402124" lon="138.574568"></trkpt>
      <trkpt lat="35.402153" lon="138.574384"></trkpt>
      <trkpt lat="35.402192" lon="138.574237"></trkpt>
      <trkpt lat="35.402233" lon="138.574125"></trkpt>
      <trkpt lat="35.402265" lon="138.573989"></trkpt>
      <trkpt lat="35.402308" lon="138.573856"></trkpt>
      <trkpt lat="35.402356" lon="138.573702"></trkpt>
      <trkpt lat="35.402396" lon="138.573586"></trkpt>
      <trkpt lat="35.402447" lon="138.573384"></trkpt>
      <trkpt lat="35.402519" lon="138.573041"></trkpt>
      <trkpt lat="35.402601" lon="138.57256"></trkpt>
      <trkpt lat="35.402622" lon="138.57223"></trkpt>
      <trkpt lat="35.402654" lon="138.57176"></trkpt>
      <trkpt lat="35.402696" lon="138.571521"></trkpt>
      <trkpt lat="35.402752" lon="138.571153"></trkpt>
      <trkpt lat="35.40289" lon="138.5706"></trkpt>
      <trkpt lat="35.403026" lon="138.570257"></trkpt>
      <trkpt lat="35.403072" lon="138.57015"></trkpt>
      <trkpt lat="35.403129" lon="138.570015"></trkpt>
      <trkpt lat="35.403198" lon="138.569779"></trkpt>
      <trkpt lat="35.403388" lon="138.569293"></trkpt>
      <trkpt lat="35.403445" lon="138.569072"></trkpt>
      <trkpt lat="35.403434" lon="138.568891"></trkpt>
      <trkpt lat="35.403357" lon="138.568603"></trkpt>
      <trkpt lat="35.403296" lon="138.568368"></trkpt>
      <trkpt lat="35.403196" lon="138.568149"></trkpt>
      <trkpt lat="35.403114" lon="138.567781"></trkpt>
      <trkpt lat="35.402954" lon="138.567098"></trkpt>
      <trkpt lat="35.40273" lon="138.566274"></trkpt>
      <trkpt lat="35.402543" lon="138.565782"></trkpt>
      <trkpt lat="35.402486" lon="138.565541"></trkpt>
      <trkpt lat="35.402449" lon="138.565269"></trkpt>
      <trkpt lat="35.402328" lon="138.564758"></trkpt>
      <trkpt lat="35.402156" lon="138.563857"></trkpt>
      <trkpt lat="35.402053" lon="138.562991"></trkpt>
      <trkpt lat="35.401941" lon="138.5622"></trkpt>
      <trkpt lat="35.401893" lon="138.561781"></trkpt>
      <trkpt lat="35.401821" lon="138.561149"></trkpt>
      <trkpt lat="35.401536" lon="138.558618"></trkpt>
      <trkpt lat="35.401487" lon="138.558322"></trkpt>
      <trkpt lat="35.401073" lon="138.558874"></trkpt>
      <trkpt lat="35.400757" lon="138.559362"></trkpt>
      <trkpt lat="35.40039" lon="138.559904"></trkpt>
      <trkpt lat="35.400092" lon="138.560379"></trkpt>
      <trkpt lat="35.399649" lon="138.561062"></trkpt>
      <trkpt lat="35.399448" lon="138.561371"></trkpt>
      <trkpt lat="35.399293" lon="138.561589"></trkpt>
      <trkpt lat="35.398544" lon="138.562718"></trkpt>
      <trkpt lat="35.398353" lon="138.562997"></trkpt>
      <trkpt lat="35.398162" lon="138.563272"></trkpt>
      <trkpt lat="35.397931" lon="138.56363"></trkpt>
      <trkpt lat="35.397829" lon="138.563768"></trkpt>
      <trkpt lat="35.397694" lon="138.563974"></trkpt>
      <trkpt lat="35.397161" lon="138.564775"></trkpt>
      <trkpt lat="35.396646" lon="138.565548"></trkpt>
      <trkpt lat="35.396512" lon="138.565741"></trkpt>
      <trkpt lat="35.396489" lon="138.565789"></trkpt>
      <trkpt lat="35.39641" lon="138.565899"></trkpt>
      <trkpt lat="35.396236" lon="138.566167"></trkpt>
      <trkpt lat="35.396016" lon="138.566485"></trkpt>
      <trkpt lat="35.395486" lon="138.567274"></trkpt>
      <trkpt lat="35.39497" lon="138.568025"></trkpt>
      <trkpt lat="35.394855" lon="138.568153"></trkpt>
      <trkpt lat="35.394748" lon="138.568255"></trkpt>
      <trkpt lat="35.39466" lon="138.568316"></trkpt>
      <trkpt lat="35.394542" lon="138.568383"></trkpt>
      <trkpt lat="35.394352" lon="138.568477"></trkpt>
      <trkpt lat="35.394243" lon="138.568523"></trkpt>
      <trkpt lat="35.394019" lon="138.568616"></trkpt>
      <trkpt lat="35.393828" lon="138.568701"></trkpt>
      <trkpt lat="35.393742" lon="138.568765"></trkpt>
      <trkpt lat="35.393673" lon="138.568843"></trkpt>
      <trkpt lat="35.393627" lon="138.568925"></trkpt>
      <trkpt lat="35.393575" lon="138.569053"></trkpt>
      <trkpt lat="35.393539" lon="138.569163"></trkpt>
      <trkpt lat="35.393508" lon="138.569255"></trkpt>
      <trkpt lat="35.393448" lon="138.569454"></trkpt>
      <trkpt lat="35.393387" lon="138.5696"></trkpt>
      <trkpt lat="35.393348" lon="138.569658"></trkpt>
      <trkpt lat="35.393295" lon="138.56972"></trkpt>
      <trkpt lat="35.393086" lon="138.569858"></trkpt>
      <trkpt lat="35.392369" lon="138.570245"></trkpt>
      <trkpt lat="35.392212" lon="138.570308"></trkpt>
      <trkpt lat="35.392091" lon="138.570336"></trkpt>
      <trkpt lat="35.391969" lon="138.570354"></trkpt>
      <trkpt lat="35.391023" lon="138.570413"></trkpt>
      <trkpt lat="35.390703" lon="138.570453"></trkpt>
      <trkpt lat="35.390589" lon="138.570467"></trkpt>
      <trkpt lat="35.39048" lon="138.570505"></trkpt>
      <trkpt lat="35.39036" lon="138.570568"></trkpt>
      <trkpt lat="35.390146" lon="138.570727"></trkpt>
      <trkpt lat="35.389986" lon="138.570854"></trkpt>
      <trkpt lat="35.389521" lon="138.571232"></trkpt>
      <trkpt lat="35.388407" lon="138.572072"></trkpt>
      <trkpt lat="35.388278" lon="138.572022"></trkpt>
      <trkpt lat="35.388153" lon="138.571983"></trkpt>
      <trkpt lat="35.387973" lon="138.571945"></trkpt>
      <trkpt lat="35.387764" lon="138.571917"></trkpt>
      <trkpt lat="35.387448" lon="138.571896"></trkpt>
      <trkpt lat="35.387108" lon="138.571935"></trkpt>
      <trkpt lat="35.386401" lon="138.572089"></trkpt>
      <trkpt lat="35.385888" lon="138.572214"></trkpt>
      <trkpt lat="35.38543" lon="138.572319"></trkpt>
      <trkpt lat="35.384884" lon="138.57243"></trkpt>
      <trkpt lat="35.384573" lon="138.572494"></trkpt>
      <trkpt lat="35.38427" lon="138.57253"></trkpt>
      <trkpt lat="35.38386" lon="138.572525"></trkpt>
      <trkpt lat="35.383102" lon="138.57247"></trkpt>
      <trkpt lat="35.38249" lon="138.572429"></trkpt>
      <trkpt lat="35.382106" lon="138.572453"></trkpt>
      <trkpt lat="35.381721" lon="138.572518"></trkpt>
      <trkpt lat="35.381413" lon="138.572599"></trkpt>
      <trkpt lat="35.381018" lon="138.572711"></trkpt>
      <trkpt lat="35.38028" lon="138.572937"></trkpt>
      <trkpt lat="35.379508" lon="138.573191"></trkpt>
      <trkpt lat="35.37912" lon="138.573329"></trkpt>
      <trkpt lat="35.378732" lon="138.5735"></trkpt>
      <trkpt lat="35.377959" lon="138.573971"></trkpt>
      <trkpt lat="35.376885" lon="138.574632"></trkpt>
      <trkpt lat="35.376264" lon="138.575017"></trkpt>
      <trkpt lat="35.375974" lon="138.575204"></trkpt>
      <trkpt lat="35.375687" lon="138.575367"></trkpt>
      <trkpt lat="35.375173" lon="138.575632"></trkpt>
      <trkpt lat="35.374576" lon="138.575818"></trkpt>
      <trkpt lat="35.374192" lon="138.575884"></trkpt>
      <trkpt lat="35.37382" lon="138.575921"></trkpt>
      <trkpt lat="35.371743" lon="138.576063"></trkpt>
      <trkpt lat="35.370577" lon="138.576125"></trkpt>
      <trkpt lat="35.369411" lon="138.576215"></trkpt>
      <trkpt lat="35.368957" lon="138.576291"></trkpt>
      <trkpt lat="35.368723" lon="138.576339"></trkpt>
      <trkpt lat="35.368489" lon="138.576387"></trkpt>
      <trkpt lat="35.367583" lon="138.576626"></trkpt>
      <trkpt lat="35.366084" lon="138.57702"></trkpt>
      <trkpt lat="35.364584" lon="138.577415"></trkpt>
      <trkpt lat="35.364244" lon="138.577497"></trkpt>
      <trkpt lat="35.363904" lon="138.577532"></trkpt>
      <trkpt lat="35.363448" lon="138.57757"></trkpt>
      <trkpt lat="35.361595" lon="138.577532"></trkpt>
      <trkpt lat="35.360472" lon="138.577503"></trkpt>
      <trkpt lat="35.359889" lon="138.577515"></trkpt>
      <trkpt lat="35.359568" lon="138.577534"></trkpt>
      <trkpt lat="35.359234" lon="138.577589"></trkpt>
      <trkpt lat="35.358907" lon="138.577677"></trkpt>
      <trkpt lat="35.358555" lon="138.577802"></trkpt>
      <trkpt lat="35.358166" lon="138.577978"></trkpt>
      <trkpt lat="35.357584" lon="138.578271"></trkpt>
      <trkpt lat="35.355303" lon="138.579379"></trkpt>
      <trkpt lat="35.354774" lon="138.579669"></trkpt>
      <trkpt lat="35.354216" lon="138.58002"></trkpt>
      <trkpt lat="35.353876" lon="138.580307"></trkpt>
      <trkpt lat="35.353538" lon="138.580602"></trkpt>
      <trkpt lat="35.353193" lon="138.580926"></trkpt>
      <trkpt lat="35.352412" lon="138.581675"></trkpt>
      <trkpt lat="35.351623" lon="138.582429"></trkpt>
      <trkpt lat="35.350834" lon="138.583171"></trkpt>
      <trkpt lat="35.350045" lon="138.583927"></trkpt>
      <trkpt lat="35.349633" lon="138.58431"></trkpt>
      <trkpt lat="35.349414" lon="138.584524"></trkpt>
      <trkpt lat="35.348629" lon="138.585267"></trkpt>
      <trkpt lat="35.347845" lon="138.586024"></trkpt>
      <trkpt lat="35.347601" lon="138.586222"></trkpt>
      <trkpt lat="35.347357" lon="138.586402"></trkpt>
      <trkpt lat="35.347047" lon="138.586602"></trkpt>
      <trkpt lat="35.346729" lon="138.586783"></trkpt>
      <trkpt lat="35.346417" lon="138.586915"></trkpt>
      <trkpt lat="35.346111" lon="138.587023"></trkpt>
      <trkpt lat="35.345739" lon="138.587127"></trkpt>
      <trkpt lat="35.345378" lon="138.587203"></trkpt>
      <trkpt lat="35.344113" lon="138.587403"></trkpt>
      <trkpt lat="35.343735" lon="138.58749"></trkpt>
      <trkpt lat="35.34347" lon="138.587558"></trkpt>
      <trkpt lat="35.343135" lon="138.587678"></trkpt>
      <trkpt lat="35.342767" lon="138.587858"></trkpt>
      <trkpt lat="35.342322" lon="138.588077"></trkpt>
      <trkpt lat="35.342032" lon="138.588195"></trkpt>
      <trkpt lat="35.341732" lon="138.588281"></trkpt>
      <trkpt lat="35.341455" lon="138.588327"></trkpt>
      <trkpt lat="35.34116" lon="138.588343"></trkpt>
      <trkpt lat="35.340842" lon="138.588323"></trkpt>
      <trkpt lat="35.340572" lon="138.588278"></trkpt>
      <trkpt lat="35.34032" lon="138.58821"></trkpt>
      <trkpt lat="35.340022" lon="138.588074"></trkpt>
      <trkpt lat="35.339802" lon="138.587965"></trkpt>
      <trkpt lat="35.339604" lon="138.587818"></trkpt>
      <trkpt lat="35.339334" lon="138.587596"></trkpt>
      <trkpt lat="35.338814" lon="138.587068"></trkpt>
      <trkpt lat="35.338196" lon="138.586418"></trkpt>
      <trkpt lat="35.337538" lon="138.585717"></trkpt>
      <trkpt lat="35.337268" lon="138.585429"></trkpt>
      <trkpt lat="35.336862" lon="138.585039"></trkpt>
      <trkpt lat="35.336474" lon="138.584695"></trkpt>
      <trkpt lat="35.336226" lon="138.584501"></trkpt>
      <trkpt lat="35.335905" lon="138.584298"></trkpt>
      <trkpt lat="35.335531" lon="138.584086"></trkpt>
      <trkpt lat="35.33533" lon="138.584014"></trkpt>
      <trkpt lat="35.334853" lon="138.583883"></trkpt>
      <trkpt lat="35.33455" lon="138.583826"></trkpt>
      <trkpt lat="35.334241" lon="138.58379"></trkpt>
      <trkpt lat="35.333923" lon="138.583787"></trkpt>
      <trkpt lat="35.333544" lon="138.583842"></trkpt>
      <trkpt lat="35.333187" lon="138.583928"></trkpt>
      <trkpt lat="35.332711" lon="138.584105"></trkpt>
      <trkpt lat="35.332217" lon="138.584337"></trkpt>
      <trkpt lat="35.331794" lon="138.584553"></trkpt>
      <trkpt lat="35.331225" lon="138.584898"></trkpt>
      <trkpt lat="35.329759" lon="138.585794"></trkpt>
      <trkpt lat="35.329229" lon="138.58613"></trkpt>
      <trkpt lat="35.32874" lon="138.586447"></trkpt>
      <trkpt lat="35.328285" lon="138.586802"></trkpt>
      <trkpt lat="35.328061" lon="138.586806"></trkpt>
      <trkpt lat="35.327839" lon="138.586806"></trkpt>
      <trkpt lat="35.327105" lon="138.586947"></trkpt>
      <trkpt lat="35.326313" lon="138.587017"></trkpt>
      <trkpt lat="35.325921" lon="138.586989"></trkpt>
      <trkpt lat="35.325029" lon="138.586856"></trkpt>
      <trkpt lat="35.324038" lon="138.586556"></trkpt>
      <trkpt lat="35.323223" lon="138.586311"></trkpt>
      <trkpt lat="35.321857" lon="138.585965"></trkpt>
      <trkpt lat="35.320348" lon="138.585625"></trkpt>
      <trkpt lat="35.319843" lon="138.585461"></trkpt>
      <trkpt lat="35.319287" lon="138.585213"></trkpt>
      <trkpt lat="35.31895" lon="138.585046"></trkpt>
      <trkpt lat="35.31861" lon="138.584942"></trkpt>
      <trkpt lat="35.318352" lon="138.584912"></trkpt>
      <trkpt lat="35.318107" lon="138.584949"></trkpt>
      <trkpt lat="35.317875" lon="138.585032"></trkpt>
      <trkpt lat="35.317703" lon="138.585142"></trkpt>
      <trkpt lat="35.317575" lon="138.585236"></trkpt>
      <trkpt lat="35.317366" lon="138.585465"></trkpt>
      <trkpt lat="35.316855" lon="138.586244"></trkpt>
      <trkpt lat="35.316635" lon="138.586518"></trkpt>
      <trkpt lat="35.316461" lon="138.586692"></trkpt>
      <trkpt lat="35.316235" lon="138.58688"></trkpt>
      <trkpt lat="35.315509" lon="138.58735"></trkpt>
      <trkpt lat="35.315205" lon="138.587551"></trkpt>
      <trkpt lat="35.315017" lon="138.587707"></trkpt>
      <trkpt lat="35.314848" lon="138.587874"></trkpt>
      <trkpt lat="35.314697" lon="138.588053"></trkpt>
      <trkpt lat="35.314549" lon="138.588239"></trkpt>
      <trkpt lat="35.314421" lon="138.588452"></trkpt>
      <trkpt lat="35.314172" lon="138.588865"></trkpt>
      <trkpt lat="35.314189" lon="138.588892"></trkpt>
      <trkpt lat="35.3142" lon="138.588925"></trkpt>
      <trkpt lat="35.314202" lon="138.588959"></trkpt>
      <trkpt lat="35.314197" lon="138.588993"></trkpt>
      <trkpt lat="35.314183" lon="138.589024"></trkpt>
      <trkpt lat="35.314163" lon="138.589048"></trkpt>
      <trkpt lat="35.314138" lon="138.589064"></trkpt>
      <trkpt lat="35.31411" lon="138.589071"></trkpt>
      <trkpt lat="35.314082" lon="138.589068"></trkpt>
      <trkpt lat="35.314055" lon="138.589054"></trkpt>
      <trkpt lat="35.314033" lon="138.589031"></trkpt>
      <trkpt lat="35.314017" lon="138.589001"></trkpt>
      <trkpt lat="35.314009" lon="138.588967"></trkpt>
      <trkpt lat="35.31401" lon="138.588931"></trkpt>
      <trkpt lat="35.314019" lon="138.588897"></trkpt>
      <trkpt lat="35.313978" lon="138.588861"></trkpt>
      <trkpt lat="35.31381" lon="138.588696"></trkpt>
      <trkpt lat="35.313787" lon="138.588652"></trkpt>
      <trkpt lat="35.313682" lon="138.588695"></trkpt>
      <trkpt lat="35.313523" lon="138.588732"></trkpt>
      <trkpt lat="35.313374" lon="138.588746"></trkpt>
      <trkpt lat="35.312548" lon="138.588852"></trkpt>
      <trkpt lat="35.31239" lon="138.588813"></trkpt>
      <trkpt lat="35.312298" lon="138.588637"></trkpt>
      <trkpt lat="35.312246" lon="138.588604"></trkpt>
      <trkpt lat="35.312178" lon="138.588599"></trkpt>
      <trkpt lat="35.311906" lon="138.588585"></trkpt>
      <trkpt lat="35.311726" lon="138.588557"></trkpt>
      <trkpt lat="35.311415" lon="138.588451"></trkpt>
      <trkpt lat="35.31126" lon="138.588681"></trkpt>
      <trkpt lat="35.311202" lon="138.588681"></trkpt>
      <trkpt lat="35.31126" lon="138.588681"></trkpt>
      <trkpt lat="35.311415" lon="138.588451"></trkpt>
      <trkpt lat="35.311726" lon="138.588557"></trkpt>
      <trkpt lat="35.311906" lon="138.588585"></trkpt>
      <trkpt lat="35.31198" lon="138.588589"></trkpt>
      <trkpt lat="35.312178" lon="138.588599"></trkpt>
      <trkpt lat="35.312246" lon="138.588604"></trkpt>
      <trkpt lat="35.312298" lon="138.588637"></trkpt>
      <trkpt lat="35.31239" lon="138.588813"></trkpt>
      <trkpt lat="35.312548" lon="138.588852"></trkpt>
      <trkpt lat="35.313374" lon="138.588746"></trkpt>
      <trkpt lat="35.313523" lon="138.588732"></trkpt>
      <trkpt lat="35.313682" lon="138.588695"></trkpt>
      <trkpt lat="35.313787" lon="138.588652"></trkpt>
      <trkpt lat="35.31381" lon="138.588696"></trkpt>
      <trkpt lat="35.313978" lon="138.588861"></trkpt>
      <trkpt lat="35.314019" lon="138.588897"></trkpt>
      <trkpt lat="35.314037" lon="138.588868"></trkpt>
      <trkpt lat="35.314061" lon="138.588846"></trkpt>
      <trkpt lat="35.314089" lon="138.588835"></trkpt>
      <trkpt lat="35.314119" lon="138.588834"></trkpt>
      <trkpt lat="35.314147" lon="138.588845"></trkpt>
      <trkpt lat="35.314172" lon="138.588865"></trkpt>
      <trkpt lat="35.314189" lon="138.588892"></trkpt>
      <trkpt lat="35.3142" lon="138.588925"></trkpt>
      <trkpt lat="35.314202" lon="138.588959"></trkpt>
      <trkpt lat="35.314197" lon="138.588993"></trkpt>
      <trkpt lat="35.314183" lon="138.589024"></trkpt>
      <trkpt lat="35.314163" lon="138.589048"></trkpt>
      <trkpt lat="35.314138" lon="138.589064"></trkpt>
      <trkpt lat="35.31411" lon="138.589071"></trkpt>
      <trkpt lat="35.314082" lon="138.589068"></trkpt>
      <trkpt lat="35.313965" lon="138.589689"></trkpt>
      <trkpt lat="35.313807" lon="138.590651"></trkpt>
      <trkpt lat="35.313802" lon="138.590688"></trkpt>
      <trkpt lat="35.313636" lon="138.5916"></trkpt>
      <trkpt lat="35.313569" lon="138.591822"></trkpt>
      <trkpt lat="35.313471" lon="138.592052"></trkpt>
      <trkpt lat="35.313355" lon="138.592271"></trkpt>
      <trkpt lat="35.313213" lon="138.592493"></trkpt>
      <trkpt lat="35.312995" lon="138.592746"></trkpt>
      <trkpt lat="35.312781" lon="138.592963"></trkpt>
      <trkpt lat="35.31257" lon="138.593121"></trkpt>
      <trkpt lat="35.312504" lon="138.593196"></trkpt>
      <trkpt lat="35.312311" lon="138.594139"></trkpt>
      <trkpt lat="35.312106" lon="138.595291"></trkpt>
      <trkpt lat="35.311998" lon="138.595881"></trkpt>
      <trkpt lat="35.311912" lon="138.596351"></trkpt>
      <trkpt lat="35.31189" lon="138.596476"></trkpt>
      <trkpt lat="35.31183" lon="138.596874"></trkpt>
      <trkpt lat="35.311746" lon="138.597372"></trkpt>
      <trkpt lat="35.311723" lon="138.597542"></trkpt>
      <trkpt lat="35.311715" lon="138.597622"></trkpt>
      <trkpt lat="35.311689" lon="138.598002"></trkpt>
      <trkpt lat="35.31168" lon="138.598357"></trkpt>
      <trkpt lat="35.311659" lon="138.599036"></trkpt>
      <trkpt lat="35.31163" lon="138.599993"></trkpt>
      <trkpt lat="35.311608" lon="138.600261"></trkpt>
      <trkpt lat="35.311565" lon="138.601715"></trkpt>
      <trkpt lat="35.311559" lon="138.601888"></trkpt>
      <trkpt lat="35.311554" lon="138.602015"></trkpt>
      <trkpt lat="35.311551" lon="138.602172"></trkpt>
      <trkpt lat="35.311549" lon="138.60229"></trkpt>
      <trkpt lat="35.311542" lon="138.602562"></trkpt>
      <trkpt lat="35.311527" lon="138.602791"></trkpt>
      <trkpt lat="35.311497" lon="138.602999"></trkpt>
      <trkpt lat="35.311464" lon="138.60316"></trkpt>
      <trkpt lat="35.31138" lon="138.603365"></trkpt>
      <trkpt lat="35.311283" lon="138.60352"></trkpt>
      <trkpt lat="35.311118" lon="138.603715"></trkpt>
      <trkpt lat="35.310946" lon="138.603867"></trkpt>
      <trkpt lat="35.310777" lon="138.603944"></trkpt>
      <trkpt lat="35.310644" lon="138.603991"></trkpt>
      <trkpt lat="35.310341" lon="138.604058"></trkpt>
      <trkpt lat="35.310146" lon="138.604111"></trkpt>
      <trkpt lat="35.309965" lon="138.604202"></trkpt>
      <trkpt lat="35.309907" lon="138.604049"></trkpt>
      <trkpt lat="35.309832" lon="138.603968"></trkpt>
      <trkpt lat="35.309745" lon="138.60394"></trkpt>
      <trkpt lat="35.309648" lon="138.603936"></trkpt>
      <trkpt lat="35.309461" lon="138.603932"></trkpt>
      <trkpt lat="35.309313" lon="138.603948"></trkpt>
      <trkpt lat="35.309087" lon="138.604018"></trkpt>
      <trkpt lat="35.3085" lon="138.604219"></trkpt>
      <trkpt lat="35.308325" lon="138.604266"></trkpt>
      <trkpt lat="35.308092" lon="138.604275"></trkpt>
      <trkpt lat="35.307808" lon="138.60434"></trkpt>
      <trkpt lat="35.307512" lon="138.604395"></trkpt>
      <trkpt lat="35.307213" lon="138.604433"></trkpt>
      <trkpt lat="35.306746" lon="138.604487"></trkpt>
      <trkpt lat="35.306419" lon="138.604502"></trkpt>
      <trkpt lat="35.305929" lon="138.6045"></trkpt>
      <trkpt lat="35.305497" lon="138.604461"></trkpt>
      <trkpt lat="35.305024" lon="138.604373"></trkpt>
      <trkpt lat="35.3047" lon="138.604316"></trkpt>
      <trkpt lat="35.303663" lon="138.604026"></trkpt>
      <trkpt lat="35.30272" lon="138.603715"></trkpt>
      <trkpt lat="35.302119" lon="138.603551"></trkpt>
      <trkpt lat="35.301582" lon="138.603442"></trkpt>
      <trkpt lat="35.301002" lon="138.603358"></trkpt>
      <trkpt lat="35.300503" lon="138.603316"></trkpt>
      <trkpt lat="35.299943" lon="138.603313"></trkpt>
      <trkpt lat="35.299368" lon="138.603357"></trkpt>
      <trkpt lat="35.298769" lon="138.603456"></trkpt>
      <trkpt lat="35.29811" lon="138.603623"></trkpt>
      <trkpt lat="35.297606" lon="138.603788"></trkpt>
      <trkpt lat="35.297174" lon="138.60397"></trkpt>
      <trkpt lat="35.296724" lon="138.60419"></trkpt>
      <trkpt lat="35.296302" lon="138.604427"></trkpt>
      <trkpt lat="35.295892" lon="138.604695"></trkpt>
      <trkpt lat="35.295517" lon="138.604961"></trkpt>
      <trkpt lat="35.295012" lon="138.605371"></trkpt>
      <trkpt lat="35.294225" lon="138.606032"></trkpt>
      <trkpt lat="35.293249" lon="138.606862"></trkpt>
      <trkpt lat="35.292702" lon="138.607327"></trkpt>
      <trkpt lat="35.291659" lon="138.608197"></trkpt>
      <trkpt lat="35.291164" lon="138.608642"></trkpt>
      <trkpt lat="35.290466" lon="138.609252"></trkpt>
      <trkpt lat="35.289749" lon="138.609859"></trkpt>
      <trkpt lat="35.289039" lon="138.610422"></trkpt>
      <trkpt lat="35.288388" lon="138.610872"></trkpt>
      <trkpt lat="35.287948" lon="138.611154"></trkpt>
      <trkpt lat="35.287343" lon="138.611489"></trkpt>
      <trkpt lat="35.286587" lon="138.611857"></trkpt>
      <trkpt lat="35.286009" lon="138.612097"></trkpt>
      <trkpt lat="35.285377" lon="138.6123"></trkpt>
      <trkpt lat="35.284757" lon="138.612468"></trkpt>
      <trkpt lat="35.284374" lon="138.612543"></trkpt>
      <trkpt lat="35.283954" lon="138.612616"></trkpt>
      <trkpt lat="35.283526" lon="138.612672"></trkpt>
      <trkpt lat="35.283108" lon="138.612708"></trkpt>
      <trkpt lat="35.282569" lon="138.612726"></trkpt>
      <trkpt lat="35.282042" lon="138.612727"></trkpt>
      <trkpt lat="35.281392" lon="138.61268"></trkpt>
      <trkpt lat="35.280976" lon="138.612634"></trkpt>
      <trkpt lat="35.280638" lon="138.612583"></trkpt>
      <trkpt lat="35.27993" lon="138.612446"></trkpt>
      <trkpt lat="35.27938" lon="138.612294"></trkpt>
      <trkpt lat="35.278828" lon="138.612137"></trkpt>
      <trkpt lat="35.278115" lon="138.611991"></trkpt>
      <trkpt lat="35.27765" lon="138.611918"></trkpt>
      <trkpt lat="35.27715" lon="138.611856"></trkpt>
      <trkpt lat="35.276874" lon="138.611837"></trkpt>
      <trkpt lat="35.276633" lon="138.611832"></trkpt>
      <trkpt lat="35.27634" lon="138.611836"></trkpt>
      <trkpt lat="35.275972" lon="138.611859"></trkpt>
      <trkpt lat="35.275562" lon="138.611906"></trkpt>
      <trkpt lat="35.275122" lon="138.61198"></trkpt>
      <trkpt lat="35.274612" lon="138.612095"></trkpt>
      <trkpt lat="35.27423" lon="138.612199"></trkpt>
      <trkpt lat="35.273874" lon="138.612328"></trkpt>
      <trkpt lat="35.27342" lon="138.612521"></trkpt>
      <trkpt lat="35.273133" lon="138.61266"></trkpt>
      <trkpt lat="35.272851" lon="138.612807"></trkpt>
      <trkpt lat="35.2725" lon="138.61302"></trkpt>
      <trkpt lat="35.272038" lon="138.613332"></trkpt>
      <trkpt lat="35.271003" lon="138.613955"></trkpt>
      <trkpt lat="35.270484" lon="138.614246"></trkpt>
      <trkpt lat="35.270275" lon="138.614356"></trkpt>
      <trkpt lat="35.269849" lon="138.614529"></trkpt>
      <trkpt lat="35.269451" lon="138.614665"></trkpt>
      <trkpt lat="35.269218" lon="138.61474"></trkpt>
      <trkpt lat="35.26891" lon="138.614829"></trkpt>
      <trkpt lat="35.268548" lon="138.614904"></trkpt>
      <trkpt lat="35.268031" lon="138.614977"></trkpt>
      <trkpt lat="35.267377" lon="138.615031"></trkpt>
      <trkpt lat="35.266426" lon="138.61506"></trkpt>
      <trkpt lat="35.262623" lon="138.61509"></trkpt>
      <trkpt lat="35.261503" lon="138.615093"></trkpt>
      <trkpt lat="35.260801" lon="138.615076"></trkpt>
      <trkpt lat="35.259583" lon="138.61509"></trkpt>
      <trkpt lat="35.25878" lon="138.615138"></trkpt>
      <trkpt lat="35.258298" lon="138.615236"></trkpt>
      <trkpt lat="35.257884" lon="138.61528"></trkpt>
      <trkpt lat="35.257279" lon="138.615357"></trkpt>
      <trkpt lat="35.256521" lon="138.615469"></trkpt>
      <trkpt lat="35.25625" lon="138.615513"></trkpt>
      <trkpt lat="35.255532" lon="138.615655"></trkpt>
      <trkpt lat="35.254787" lon="138.615813"></trkpt>
      <trkpt lat="35.254241" lon="138.615945"></trkpt>
      <trkpt lat="35.253345" lon="138.616154"></trkpt>
      <trkpt lat="35.252575" lon="138.616339"></trkpt>
      <trkpt lat="35.251699" lon="138.616543"></trkpt>
      <trkpt lat="35.250917" lon="138.616736"></trkpt>
      <trkpt lat="35.250125" lon="138.616932"></trkpt>
      <trkpt lat="35.249309" lon="138.617124"></trkpt>
      <trkpt lat="35.24813" lon="138.617405"></trkpt>
      <trkpt lat="35.246853" lon="138.617718"></trkpt>
      <trkpt lat="35.245943" lon="138.617938"></trkpt>
      <trkpt lat="35.245436" lon="138.618061"></trkpt>
      <trkpt lat="35.24425" lon="138.618356"></trkpt>
      <trkpt lat="35.243742" lon="138.618483"></trkpt>
      <trkpt lat="35.242813" lon="138.618698"></trkpt>
      <trkpt lat="35.242658" lon="138.618736"></trkpt>
      <trkpt lat="35.242401" lon="138.618797"></trkpt>
      <trkpt lat="35.240338" lon="138.619285"></trkpt>
      <trkpt lat="35.240247" lon="138.619195"></trkpt>
      <trkpt lat="35.239324" lon="138.618272"></trkpt>
      <trkpt lat="35.239267" lon="138.61822"></trkpt>
      <trkpt lat="35.239068" lon="138.618023"></trkpt>
      <trkpt lat="35.238193" lon="138.61716"></trkpt>
      <trkpt lat="35.238104" lon="138.617072"></trkpt>
      <trkpt lat="35.237526" lon="138.616495"></trkpt>
      <trkpt lat="35.237384" lon="138.616335"></trkpt>
      <trkpt lat="35.237087" lon="138.615995"></trkpt>
      <trkpt lat="35.236748" lon="138.615581"></trkpt>
      <trkpt lat="35.236656" lon="138.615468"></trkpt>
      <trkpt lat="35.236191" lon="138.614903"></trkpt>
      <trkpt lat="35.236141" lon="138.614857"></trkpt>
      <trkpt lat="35.236082" lon="138.614838"></trkpt>
      <trkpt lat="35.236039" lon="138.614845"></trkpt>
      <trkpt lat="35.234865" lon="138.615067"></trkpt>
      <trkpt lat="35.234399" lon="138.61516"></trkpt>
      <trkpt lat="35.234063" lon="138.615227"></trkpt>
      <trkpt lat="35.233918" lon="138.615256"></trkpt>
      <trkpt lat="35.233689" lon="138.6153"></trkpt>
      <trkpt lat="35.23302" lon="138.615432"></trkpt>
      <trkpt lat="35.232878" lon="138.615459"></trkpt>
      <trkpt lat="35.232747" lon="138.615462"></trkpt>
      <trkpt lat="35.232602" lon="138.61543"></trkpt>
      <trkpt lat="35.232493" lon="138.61539"></trkpt>
      <trkpt lat="35.232381" lon="138.615326"></trkpt>
      <trkpt lat="35.231625" lon="138.614745"></trkpt>
      <trkpt lat="35.231374" lon="138.614572"></trkpt>
      <trkpt lat="35.23109" lon="138.614427"></trkpt>
      <trkpt lat="35.230703" lon="138.614222"></trkpt>
      <trkpt lat="35.230344" lon="138.614029"></trkpt>
      <trkpt lat="35.229693" lon="138.613681"></trkpt>
      <trkpt lat="35.229348" lon="138.61351"></trkpt>
      <trkpt lat="35.228894" lon="138.613279"></trkpt>
      <trkpt lat="35.228482" lon="138.613069"></trkpt>
      <trkpt lat="35.228464" lon="138.61306"></trkpt>
      <trkpt lat="35.228416" lon="138.613033"></trkpt>
      <trkpt lat="35.228307" lon="138.612974"></trkpt>
      <trkpt lat="35.228179" lon="138.612865"></trkpt>
      <trkpt lat="35.228139" lon="138.612822"></trkpt>
      <trkpt lat="35.227932" lon="138.612595"></trkpt>
      <trkpt lat="35.227514" lon="138.612141"></trkpt>
      <trkpt lat="35.227062" lon="138.61165"></trkpt>
      <trkpt lat="35.226833" lon="138.611396"></trkpt>
      <trkpt lat="35.226718" lon="138.611297"></trkpt>
      <trkpt lat="35.226534" lon="138.611183"></trkpt>
      <trkpt lat="35.226246" lon="138.61102"></trkpt>
      <trkpt lat="35.226099" lon="138.610952"></trkpt>
      <trkpt lat="35.225956" lon="138.610913"></trkpt>
      <trkpt lat="35.225811" lon="138.610907"></trkpt>
      <trkpt lat="35.225468" lon="138.610891"></trkpt>
      <trkpt lat="35.224973" lon="138.610781"></trkpt>
      <trkpt lat="35.224369" lon="138.610602"></trkpt>
      <trkpt lat="35.223465" lon="138.610371"></trkpt>
      <trkpt lat="35.222997" lon="138.610323"></trkpt>
      <trkpt lat="35.222706" lon="138.611375"></trkpt>
      <trkpt lat="35.222692" lon="138.611427"></trkpt>
      <trkpt lat="35.222579" lon="138.611838"></trkpt>
      <trkpt lat="35.222374" lon="138.612582"></trkpt>
      <trkpt lat="35.222281" lon="138.61292"></trkpt>
      <trkpt lat="35.222079" lon="138.613655"></trkpt>
      <trkpt lat="35.221803" lon="138.614601"></trkpt>
      <trkpt lat="35.221627" lon="138.615205"></trkpt>
      <trkpt lat="35.221964" lon="138.615272"></trkpt>
    </trkseg>
  </trk>
</gpx>