<?xml version="1.0" encoding="UTF-8"?>
<gpx version="1.1" creator="rebuild_routes_brouter.py" xmlns="http://www.topografix.com/GPX/1/1">
<metadata><name>Day 7 rebuilt (trekking)</name></metadata>
<trk><name>Day 7 rebuilt (trekking)</name><trkseg>
<trkpt lat="35.221962" lon="138.615271"><ele>127.8</ele></trkpt>
<trkpt lat="35.221627" lon="138.615205"><ele>128.0</ele></trkpt>
<trkpt lat="35.221403" lon="138.615975"><ele>126.8</ele></trkpt>
<trkpt lat="35.221270" lon="138.616506"><ele>125.2</ele></trkpt>
<trkpt lat="35.221200" lon="138.616966"><ele>124.5</ele></trkpt>
<trkpt lat="35.221114" lon="138.617932"><ele>124.5</ele></trkpt>
<trkpt lat="35.221042" lon="138.618568"><ele>124.8</ele></trkpt>
<trkpt lat="35.221022" lon="138.618708"><ele>124.5</ele></trkpt>
<trkpt lat="35.220985" lon="138.619076"><ele>123.8</ele></trkpt>
<trkpt lat="35.220944" lon="138.619327"><ele>123.2</ele></trkpt>
<trkpt lat="35.220880" lon="138.619512"><ele>122.8</ele></trkpt>
<trkpt lat="35.220772" lon="138.619732"><ele>122.0</ele></trkpt>
<trkpt lat="35.220371" lon="138.620475"><ele>121.0</ele></trkpt>
<trkpt lat="35.219738" lon="138.621423"><ele>119.8</ele></trkpt>
<trkpt lat="35.219105" lon="138.622398"><ele>115.2</ele></trkpt>
<trkpt lat="35.218617" lon="138.623118"><ele>115.0</ele></trkpt>
<trkpt lat="35.218261" lon="138.623659"><ele>114.2</ele></trkpt>
<trkpt lat="35.217935" lon="138.624141"><ele>112.5</ele></trkpt>
<trkpt lat="35.217138" lon="138.625326"><ele>108.5</ele></trkpt>
<trkpt lat="35.217094" lon="138.625385"><ele>108.2</ele></trkpt>
<trkpt lat="35.216660" lon="138.626042"><ele>106.2</ele></trkpt>
<trkpt lat="35.216157" lon="138.626177"><ele>104.0</ele></trkpt>
<trkpt lat="35.215958" lon="138.626278"><ele>103.2</ele></trkpt>
<trkpt lat="35.215625" lon="138.626353"><ele>102.8</ele></trkpt>
<trkpt lat="35.215386" lon="138.626442"><ele>102.8</ele></trkpt>
<trkpt lat="35.215165" lon="138.626531"><ele>102.2</ele></trkpt>
<trkpt lat="35.214839" lon="138.626596"><ele>101.5</ele></trkpt>
<trkpt lat="35.214653" lon="138.626612"><ele>100.8</ele></trkpt>
<trkpt lat="35.214614" lon="138.626616"><ele>100.8</ele></trkpt>
<trkpt lat="35.214436" lon="138.626632"><ele>100.0</ele></trkpt>
<trkpt lat="35.214044" lon="138.626723"><ele>98.8</ele></trkpt>
<trkpt lat="35.213837" lon="138.626821"><ele>98.5</ele></trkpt>
<trkpt lat="35.213706" lon="138.626937"><ele>98.2</ele></trkpt>
<trkpt lat="35.213566" lon="138.627209"><ele>97.8</ele></trkpt>
<trkpt lat="35.213444" lon="138.627452"><ele>97.0</ele></trkpt>
<trkpt lat="35.213236" lon="138.627972"><ele>95.8</ele></trkpt>
<trkpt lat="35.213102" lon="138.628188"><ele>95.0</ele></trkpt>
<trkpt lat="35.212857" lon="138.628551"><ele>93.2</ele></trkpt>
<trkpt lat="35.212720" lon="138.628675"><ele>92.5</ele></trkpt>
<trkpt lat="35.212689" lon="138.628695"><ele>92.2</ele></trkpt>
<trkpt lat="35.212557" lon="138.628780"><ele>91.5</ele></trkpt>
<trkpt lat="35.211563" lon="138.629490"><ele>89.5</ele></trkpt>
<trkpt lat="35.211383" lon="138.629623"><ele>89.0</ele></trkpt>
<trkpt lat="35.211308" lon="138.629677"><ele>88.8</ele></trkpt>
<trkpt lat="35.210381" lon="138.630361"><ele>86.8</ele></trkpt>
<trkpt lat="35.210237" lon="138.630456"><ele>86.5</ele></trkpt>
<trkpt lat="35.208823" lon="138.631473"><ele>82.5</ele></trkpt>
<trkpt lat="35.208128" lon="138.631967"><ele>81.2</ele></trkpt>
<trkpt lat="35.207807" lon="138.632195"><ele>80.5</ele></trkpt>
<trkpt lat="35.207298" lon="138.632569"><ele>79.5</ele></trkpt>
<trkpt lat="35.206481" lon="138.633160"><ele>77.2</ele></trkpt>
<trkpt lat="35.205232" lon="138.634040"><ele>74.8</ele></trkpt>
<trkpt lat="35.204428" lon="138.634632"><ele>75.0</ele></trkpt>
<trkpt lat="35.204281" lon="138.634741"><ele>75.2</ele></trkpt>
<trkpt lat="35.203903" lon="138.635012"><ele>74.5</ele></trkpt>
<trkpt lat="35.203616" lon="138.635218"><ele>73.5</ele></trkpt>
<trkpt lat="35.203603" lon="138.635228"><ele>73.5</ele></trkpt>
<trkpt lat="35.203537" lon="138.635271"><ele>73.2</ele></trkpt>
<trkpt lat="35.203260" lon="138.635475"><ele>72.2</ele></trkpt>
<trkpt lat="35.203111" lon="138.635574"><ele>71.8</ele></trkpt>
<trkpt lat="35.202831" lon="138.635769"><ele>70.5</ele></trkpt>
<trkpt lat="35.202668" lon="138.635899"><ele>69.8</ele></trkpt>
<trkpt lat="35.201820" lon="138.636513"><ele>68.0</ele></trkpt>
<trkpt lat="35.201286" lon="138.636903"><ele>67.2</ele></trkpt>
<trkpt lat="35.200480" lon="138.637485"><ele>65.5</ele></trkpt>
<trkpt lat="35.200313" lon="138.637609"><ele>65.5</ele></trkpt>
<trkpt lat="35.200162" lon="138.637732"><ele>65.2</ele></trkpt>
<trkpt lat="35.199825" lon="138.638049"><ele>64.8</ele></trkpt>
<trkpt lat="35.199535" lon="138.638337"><ele>64.2</ele></trkpt>
<trkpt lat="35.198827" lon="138.639002"><ele>64.5</ele></trkpt>
<trkpt lat="35.198171" lon="138.639625"><ele>64.5</ele></trkpt>
<trkpt lat="35.198116" lon="138.639683"><ele>64.5</ele></trkpt>
<trkpt lat="35.197637" lon="138.640152"><ele>64.5</ele></trkpt>
<trkpt lat="35.197325" lon="138.640449"><ele>64.5</ele></trkpt>
<trkpt lat="35.197169" lon="138.640589"><ele>65.0</ele></trkpt>
<trkpt lat="35.196587" lon="138.641138"><ele>65.0</ele></trkpt>
<trkpt lat="35.196196" lon="138.641528"><ele>63.2</ele></trkpt>
<trkpt lat="35.195989" lon="138.641722"><ele>63.5</ele></trkpt>
<trkpt lat="35.195850" lon="138.641822"><ele>64.0</ele></trkpt>
<trkpt lat="35.195793" lon="138.641844"><ele>64.2</ele></trkpt>
<trkpt lat="35.195639" lon="138.641856"><ele>64.2</ele></trkpt>
<trkpt lat="35.195388" lon="138.641833"><ele>64.5</ele></trkpt>
<trkpt lat="35.195195" lon="138.641788"><ele>64.8</ele></trkpt>
<trkpt lat="35.195122" lon="138.641773"><ele>64.8</ele></trkpt>
<trkpt lat="35.194857" lon="138.641736"><ele>64.8</ele></trkpt>
<trkpt lat="35.194535" lon="138.641705"><ele>64.8</ele></trkpt>
<trkpt lat="35.194326" lon="138.641713"><ele>64.8</ele></trkpt>
<trkpt lat="35.194243" lon="138.641734"><ele>64.8</ele></trkpt>
<trkpt lat="35.194168" lon="138.641775"><ele>64.5</ele></trkpt>
<trkpt lat="35.194079" lon="138.641850"><ele>64.2</ele></trkpt>
<trkpt lat="35.193988" lon="138.641944"><ele>64.2</ele></trkpt>
<trkpt lat="35.193938" lon="138.642001"><ele>64.0</ele></trkpt>
<trkpt lat="35.193712" lon="138.642259"><ele>64.2</ele></trkpt>
<trkpt lat="35.193502" lon="138.642487"><ele>65.2</ele></trkpt>
<trkpt lat="35.193412" lon="138.642561"><ele>65.5</ele></trkpt>
<trkpt lat="35.192930" lon="138.642878"><ele>64.8</ele></trkpt>
<trkpt lat="35.192219" lon="138.643360"><ele>63.5</ele></trkpt>
<trkpt lat="35.192054" lon="138.643472"><ele>63.0</ele></trkpt>
<trkpt lat="35.191537" lon="138.643823"><ele>61.2</ele></trkpt>
<trkpt lat="35.191481" lon="138.643858"><ele>61.0</ele></trkpt>
<trkpt lat="35.191095" lon="138.644118"><ele>59.5</ele></trkpt>
<trkpt lat="35.188716" lon="138.645714"><ele>49.5</ele></trkpt>
<trkpt lat="35.188286" lon="138.645997"><ele>48.8</ele></trkpt>
<trkpt lat="35.188154" lon="138.646067"><ele>48.2</ele></trkpt>
<trkpt lat="35.188047" lon="138.646097"><ele>47.8</ele></trkpt>
<trkpt lat="35.187634" lon="138.646201"><ele>46.0</ele></trkpt>
<trkpt lat="35.187386" lon="138.646254"><ele>45.0</ele></trkpt>
<trkpt lat="35.186996" lon="138.646329"><ele>43.5</ele></trkpt>
<trkpt lat="35.186728" lon="138.646379"><ele>42.5</ele></trkpt>
<trkpt lat="35.186204" lon="138.646486"><ele>40.5</ele></trkpt>
<trkpt lat="35.185901" lon="138.646555"><ele>39.2</ele></trkpt>
<trkpt lat="35.185761" lon="138.646605"><ele>38.5</ele></trkpt>
<trkpt lat="35.185676" lon="138.646646"><ele>38.2</ele></trkpt>
<trkpt lat="35.185487" lon="138.646779"><ele>37.5</ele></trkpt>
<trkpt lat="35.185454" lon="138.646810"><ele>37.5</ele></trkpt>
<trkpt lat="35.185254" lon="138.647037"><ele>36.5</ele></trkpt>
<trkpt lat="35.185128" lon="138.647240"><ele>35.8</ele></trkpt>
<trkpt lat="35.184997" lon="138.647488"><ele>35.0</ele></trkpt>
<trkpt lat="35.184858" lon="138.647737"><ele>35.0</ele></trkpt>
<trkpt lat="35.184470" lon="138.648440"><ele>36.0</ele></trkpt>
<trkpt lat="35.184374" lon="138.648614"><ele>36.5</ele></trkpt>
<trkpt lat="35.184263" lon="138.648771"><ele>37.0</ele></trkpt>
<trkpt lat="35.184021" lon="138.649108"><ele>37.2</ele></trkpt>
<trkpt lat="35.183094" lon="138.650297"><ele>36.0</ele></trkpt>
<trkpt lat="35.181814" lon="138.652021"><ele>36.5</ele></trkpt>
<trkpt lat="35.180663" lon="138.653559"><ele>33.0</ele></trkpt>
<trkpt lat="35.180335" lon="138.653990"><ele>31.8</ele></trkpt>
<trkpt lat="35.180079" lon="138.654318"><ele>31.5</ele></trkpt>
<trkpt lat="35.179784" lon="138.654697"><ele>31.5</ele></trkpt>
<trkpt lat="35.179735" lon="138.654762"><ele>31.5</ele></trkpt>
<trkpt lat="35.179692" lon="138.654819"><ele>31.5</ele></trkpt>
<trkpt lat="35.179627" lon="138.654904"><ele>31.8</ele></trkpt>
<trkpt lat="35.179531" lon="138.655048"><ele>32.0</ele></trkpt>
<trkpt lat="35.179219" lon="138.655484"><ele>32.2</ele></trkpt>
<trkpt lat="35.178861" lon="138.655964"><ele>32.0</ele></trkpt>
<trkpt lat="35.178403" lon="138.656563"><ele>30.2</ele></trkpt>
<trkpt lat="35.178216" lon="138.656826"><ele>29.8</ele></trkpt>
<trkpt lat="35.177661" lon="138.657760"><ele>29.2</ele></trkpt>
<trkpt lat="35.177294" lon="138.658402"><ele>29.5</ele></trkpt>
<trkpt lat="35.176903" lon="138.659035"><ele>29.0</ele></trkpt>
<trkpt lat="35.176534" lon="138.659672"><ele>28.8</ele></trkpt>
<trkpt lat="35.175986" lon="138.660518"><ele>30.0</ele></trkpt>
<trkpt lat="35.175465" lon="138.661440"><ele>29.0</ele></trkpt>
<trkpt lat="35.174978" lon="138.662218"><ele>28.8</ele></trkpt>
<trkpt lat="35.174798" lon="138.662552"><ele>28.8</ele></trkpt>
<trkpt lat="35.174448" lon="138.663146"><ele>29.0</ele></trkpt>
<trkpt lat="35.173859" lon="138.664139"><ele>28.0</ele></trkpt>
<trkpt lat="35.173782" lon="138.664274"><ele>28.0</ele></trkpt>
<trkpt lat="35.173574" lon="138.664592"><ele>27.8</ele></trkpt>
<trkpt lat="35.173520" lon="138.664687"><ele>27.8</ele></trkpt>
<trkpt lat="35.173452" lon="138.664818"><ele>27.8</ele></trkpt>
<trkpt lat="35.173172" lon="138.665292"><ele>28.0</ele></trkpt>
<trkpt lat="35.173138" lon="138.665348"><ele>28.0</ele></trkpt>
<trkpt lat="35.172703" lon="138.666033"><ele>26.8</ele></trkpt>
<trkpt lat="35.172326" lon="138.666703"><ele>25.8</ele></trkpt>
<trkpt lat="35.172265" lon="138.666774"><ele>25.8</ele></trkpt>
<trkpt lat="35.172167" lon="138.666957"><ele>25.2</ele></trkpt>
<trkpt lat="35.172140" lon="138.667031"><ele>25.0</ele></trkpt>
<trkpt lat="35.172089" lon="138.667184"><ele>24.8</ele></trkpt>
<trkpt lat="35.172053" lon="138.667333"><ele>24.2</ele></trkpt>
<trkpt lat="35.172033" lon="138.667611"><ele>24.0</ele></trkpt>
<trkpt lat="35.172021" lon="138.667742"><ele>24.2</ele></trkpt>
<trkpt lat="35.172015" lon="138.667802"><ele>24.2</ele></trkpt>
<trkpt lat="35.171996" lon="138.668010"><ele>24.8</ele></trkpt>
<trkpt lat="35.171967" lon="138.668178"><ele>25.0</ele></trkpt>
<trkpt lat="35.171932" lon="138.668277"><ele>25.0</ele></trkpt>
<trkpt lat="35.171886" lon="138.668375"><ele>25.2</ele></trkpt>
<trkpt lat="35.171551" lon="138.668865"><ele>24.8</ele></trkpt>
<trkpt lat="35.171548" lon="138.668871"><ele>24.8</ele></trkpt>
<trkpt lat="35.171526" lon="138.668905"><ele>24.8</ele></trkpt>
<trkpt lat="35.171337" lon="138.669209"><ele>24.5</ele></trkpt>
<trkpt lat="35.171137" lon="138.669571"><ele>24.5</ele></trkpt>
<trkpt lat="35.171071" lon="138.669690"><ele>24.5</ele></trkpt>
<trkpt lat="35.170822" lon="138.670189"><ele>23.8</ele></trkpt>
<trkpt lat="35.170727" lon="138.670383"><ele>23.5</ele></trkpt>
<trkpt lat="35.170542" lon="138.670752"><ele>23.0</ele></trkpt>
<trkpt lat="35.170263" lon="138.671329"><ele>22.8</ele></trkpt>
<trkpt lat="35.170018" lon="138.671861"><ele>23.0</ele></trkpt>
<trkpt lat="35.169979" lon="138.671951"><ele>23.0</ele></trkpt>
<trkpt lat="35.169512" lon="138.672927"><ele>20.2</ele></trkpt>
<trkpt lat="35.169367" lon="138.672892"><ele>19.8</ele></trkpt>
<trkpt lat="35.169172" lon="138.672894"><ele>19.0</ele></trkpt>
<trkpt lat="35.168741" lon="138.672911"><ele>17.0</ele></trkpt>
<trkpt lat="35.168509" lon="138.672946"><ele>16.2</ele></trkpt>
<trkpt lat="35.168234" lon="138.673047"><ele>15.2</ele></trkpt>
<trkpt lat="35.168163" lon="138.673073"><ele>15.2</ele></trkpt>
<trkpt lat="35.168014" lon="138.673087"><ele>14.8</ele></trkpt>
<trkpt lat="35.167668" lon="138.673068"><ele>14.0</ele></trkpt>
<trkpt lat="35.167372" lon="138.673031"><ele>13.2</ele></trkpt>
<trkpt lat="35.166988" lon="138.672917"><ele>13.0</ele></trkpt>
<trkpt lat="35.166665" lon="138.672808"><ele>13.2</ele></trkpt>
<trkpt lat="35.166246" lon="138.672658"><ele>13.0</ele></trkpt>
<trkpt lat="35.165889" lon="138.672531"><ele>13.0</ele></trkpt>
<trkpt lat="35.165520" lon="138.672400"><ele>13.5</ele></trkpt>
<trkpt lat="35.165110" lon="138.672250"><ele>14.0</ele></trkpt>
<trkpt lat="35.164717" lon="138.672105"><ele>14.0</ele></trkpt>
<trkpt lat="35.164328" lon="138.671959"><ele>14.0</ele></trkpt>
<trkpt lat="35.164096" lon="138.671874"><ele>14.0</ele></trkpt>
<trkpt lat="35.164004" lon="138.671840"><ele>14.0</ele></trkpt>
<trkpt lat="35.163772" lon="138.671755"><ele>13.8</ele></trkpt>
<trkpt lat="35.163218" lon="138.673474"><ele>13.8</ele></trkpt>
<trkpt lat="35.162874" lon="138.674566"><ele>12.2</ele></trkpt>
<trkpt lat="35.162804" lon="138.675357"><ele>11.2</ele></trkpt>
<trkpt lat="35.162693" lon="138.676408"><ele>11.5</ele></trkpt>
<trkpt lat="35.162657" lon="138.676579"><ele>11.8</ele></trkpt>
<trkpt lat="35.162566" lon="138.676648"><ele>11.8</ele></trkpt>
<trkpt lat="35.162347" lon="138.677582"><ele>11.2</ele></trkpt>
<trkpt lat="35.162084" lon="138.677532"><ele>11.5</ele></trkpt>
<trkpt lat="35.161456" lon="138.677413"><ele>13.2</ele></trkpt>
<trkpt lat="35.161265" lon="138.677377"><ele>14.5</ele></trkpt>
<trkpt lat="35.160717" lon="138.677273"><ele>16.5</ele></trkpt>
<trkpt lat="35.160575" lon="138.678381"><ele>13.0</ele></trkpt>
<trkpt lat="35.160490" lon="138.678931"><ele>13.0</ele></trkpt>
<trkpt lat="35.160369" lon="138.679669"><ele>12.2</ele></trkpt>
<trkpt lat="35.160328" lon="138.679937"><ele>11.8</ele></trkpt>
<trkpt lat="35.160224" lon="138.680578"><ele>11.0</ele></trkpt>
<trkpt lat="35.160015" lon="138.681880"><ele>12.8</ele></trkpt>
<trkpt lat="35.159934" lon="138.682412"><ele>12.8</ele></trkpt>
<trkpt lat="35.159595" lon="138.684505"><ele>9.0</ele></trkpt>
<trkpt lat="35.159483" lon="138.685145"><ele>9.8</ele></trkpt>
<trkpt lat="35.159404" lon="138.685321"><ele>10.0</ele></trkpt>
<trkpt lat="35.159188" lon="138.685832"><ele>10.0</ele></trkpt>
<trkpt lat="35.158956" lon="138.686383"><ele>10.0</ele></trkpt>
<trkpt lat="35.158374" lon="138.687755"><ele>6.2</ele></trkpt>
<trkpt lat="35.157949" lon="138.688723"><ele>5.2</ele></trkpt>
<trkpt lat="35.157865" lon="138.688924"><ele>5.5</ele></trkpt>
<trkpt lat="35.157383" lon="138.690072"><ele>8.0</ele></trkpt>
<trkpt lat="35.157238" lon="138.690305"><ele>8.2</ele></trkpt>
<trkpt lat="35.157069" lon="138.690506"><ele>8.2</ele></trkpt>
<trkpt lat="35.156940" lon="138.690608"><ele>8.0</ele></trkpt>
<trkpt lat="35.155585" lon="138.691830"><ele>8.5</ele></trkpt>
<trkpt lat="35.155355" lon="138.692023"><ele>8.2</ele></trkpt>
<trkpt lat="35.154990" lon="138.692213"><ele>7.5</ele></trkpt>
<trkpt lat="35.154835" lon="138.692261"><ele>7.5</ele></trkpt>
<trkpt lat="35.154715" lon="138.692288"><ele>7.5</ele></trkpt>
<trkpt lat="35.154436" lon="138.692278"><ele>7.5</ele></trkpt>
<trkpt lat="35.154081" lon="138.692213"><ele>7.5</ele></trkpt>
<trkpt lat="35.153459" lon="138.692075"><ele>7.0</ele></trkpt>
<trkpt lat="35.153294" lon="138.692044"><ele>6.8</ele></trkpt>
<trkpt lat="35.153152" lon="138.692014"><ele>7.0</ele></trkpt>
<trkpt lat="35.151201" lon="138.691575"><ele>6.5</ele></trkpt>
<trkpt lat="35.151074" lon="138.691547"><ele>6.8</ele></trkpt>
<trkpt lat="35.150861" lon="138.691502"><ele>7.0</ele></trkpt>
<trkpt lat="35.150561" lon="138.691449"><ele>8.2</ele></trkpt>
<trkpt lat="35.148800" lon="138.691080"><ele>9.2</ele></trkpt>
<trkpt lat="35.146552" lon="138.690559"><ele>8.8</ele></trkpt>
<trkpt lat="35.145348" lon="138.690287"><ele>7.5</ele></trkpt>
<trkpt lat="35.144552" lon="138.690103"><ele>8.2</ele></trkpt>
<trkpt lat="35.144409" lon="138.690123"><ele>8.5</ele></trkpt>
<trkpt lat="35.144331" lon="138.690149"><ele>8.8</ele></trkpt>
<trkpt lat="35.144273" lon="138.690188"><ele>9.0</ele></trkpt>
<trkpt lat="35.144236" lon="138.690232"><ele>9.2</ele></trkpt>
<trkpt lat="35.144182" lon="138.690343"><ele>9.8</ele></trkpt>
<trkpt lat="35.144318" lon="138.691292"><ele>11.0</ele></trkpt>
<trkpt lat="35.144346" lon="138.691394"><ele>11.0</ele></trkpt>
<trkpt lat="35.144369" lon="138.691448"><ele>11.0</ele></trkpt>
<trkpt lat="35.144419" lon="138.691497"><ele>10.8</ele></trkpt>
<trkpt lat="35.145381" lon="138.691777"><ele>8.8</ele></trkpt>
<trkpt lat="35.145213" lon="138.692709"><ele>10.5</ele></trkpt>
<trkpt lat="35.145133" lon="138.693362"><ele>5.2</ele></trkpt>
<trkpt lat="35.145114" lon="138.693656"><ele>4.5</ele></trkpt>
<trkpt lat="35.145107" lon="138.693929"><ele>4.0</ele></trkpt>
<trkpt lat="35.145117" lon="138.694404"><ele>4.5</ele></trkpt>
<trkpt lat="35.145107" lon="138.694657"><ele>5.5</ele></trkpt>
<trkpt lat="35.145057" lon="138.695052"><ele>7.0</ele></trkpt>
<trkpt lat="35.144962" lon="138.695575"><ele>7.5</ele></trkpt>
<trkpt lat="35.144869" lon="138.695988"><ele>8.0</ele></trkpt>
<trkpt lat="35.144720" lon="138.696551"><ele>9.2</ele></trkpt>
<trkpt lat="35.144685" lon="138.696746"><ele>9.5</ele></trkpt>
<trkpt lat="35.144587" lon="138.697078"><ele>9.2</ele></trkpt>
<trkpt lat="35.144519" lon="138.697453"><ele>8.5</ele></trkpt>
<trkpt lat="35.144474" lon="138.697545"><ele>8.5</ele></trkpt>
<trkpt lat="35.144441" lon="138.697582"><ele>8.5</ele></trkpt>
<trkpt lat="35.144401" lon="138.697609"><ele>8.5</ele></trkpt>
<trkpt lat="35.144345" lon="138.697616"><ele>8.5</ele></trkpt>
<trkpt lat="35.144044" lon="138.697553"><ele>8.5</ele></trkpt>
<trkpt lat="35.143898" lon="138.697524"><ele>8.0</ele></trkpt>
<trkpt lat="35.143926" lon="138.697324"><ele>8.2</ele></trkpt>
<trkpt lat="35.144035" lon="138.696585"><ele>10.0</ele></trkpt>
<trkpt lat="35.144066" lon="138.696451"><ele>9.5</ele></trkpt>
<trkpt lat="35.144107" lon="138.696322"><ele>9.0</ele></trkpt>
<trkpt lat="35.144028" lon="138.696294"><ele>8.8</ele></trkpt>
<trkpt lat="35.143475" lon="138.696164"><ele>8.8</ele></trkpt>
<trkpt lat="35.141888" lon="138.695861"><ele>8.8</ele></trkpt>
<trkpt lat="35.143475" lon="138.696164"><ele>8.8</ele></trkpt>
<trkpt lat="35.144028" lon="138.696294"><ele>8.8</ele></trkpt>
<trkpt lat="35.144107" lon="138.696322"><ele>9.0</ele></trkpt>
<trkpt lat="35.144066" lon="138.696451"><ele>9.5</ele></trkpt>
<trkpt lat="35.144035" lon="138.696585"><ele>10.0</ele></trkpt>
<trkpt lat="35.143926" lon="138.697324"><ele>8.2</ele></trkpt>
<trkpt lat="35.143898" lon="138.697524"><ele>8.0</ele></trkpt>
<trkpt lat="35.143873" lon="138.697711"><ele>7.8</ele></trkpt>
<trkpt lat="35.143483" lon="138.700589"><ele>8.5</ele></trkpt>
<trkpt lat="35.143429" lon="138.701120"><ele>8.2</ele></trkpt>
<trkpt lat="35.143412" lon="138.701312"><ele>8.2</ele></trkpt>
<trkpt lat="35.143303" lon="138.702079"><ele>8.5</ele></trkpt>
<trkpt lat="35.143282" lon="138.702208"><ele>8.8</ele></trkpt>
<trkpt lat="35.143278" lon="138.702237"><ele>8.8</ele></trkpt>
<trkpt lat="35.143176" lon="138.702907"><ele>9.2</ele></trkpt>
<trkpt lat="35.143105" lon="138.703368"><ele>9.5</ele></trkpt>
<trkpt lat="35.143099" lon="138.703466"><ele>9.8</ele></trkpt>
<trkpt lat="35.143101" lon="138.703592"><ele>9.8</ele></trkpt>
<trkpt lat="35.143146" lon="138.704236"><ele>9.5</ele></trkpt>
<trkpt lat="35.143156" lon="138.704305"><ele>9.2</ele></trkpt>
<trkpt lat="35.143182" lon="138.704397"><ele>8.8</ele></trkpt>
<trkpt lat="35.143291" lon="138.704593"><ele>7.5</ele></trkpt>
<trkpt lat="35.143327" lon="138.704687"><ele>7.0</ele></trkpt>
<trkpt lat="35.143341" lon="138.704760"><ele>6.8</ele></trkpt>
<trkpt lat="35.143344" lon="138.704835"><ele>6.5</ele></trkpt>
<trkpt lat="35.143300" lon="138.705224"><ele>6.0</ele></trkpt>
<trkpt lat="35.143288" lon="138.705340"><ele>6.2</ele></trkpt>
<trkpt lat="35.143262" lon="138.705549"><ele>6.5</ele></trkpt>
<trkpt lat="35.143109" lon="138.706424"><ele>7.2</ele></trkpt>
<trkpt lat="35.143053" lon="138.706807"><ele>7.5</ele></trkpt>
<trkpt lat="35.143001" lon="138.706935"><ele>7.5</ele></trkpt>
<trkpt lat="35.142771" lon="138.707150"><ele>7.5</ele></trkpt>
<trkpt lat="35.142569" lon="138.707374"><ele>7.2</ele></trkpt>
<trkpt lat="35.142525" lon="138.707526"><ele>7.0</ele></trkpt>
<trkpt lat="35.142480" lon="138.707762"><ele>7.2</ele></trkpt>
<trkpt lat="35.142422" lon="138.708136"><ele>7.8</ele></trkpt>
<trkpt lat="35.142363" lon="138.708520"><ele>8.2</ele></trkpt>
<trkpt lat="35.142277" lon="138.709310"><ele>9.8</ele></trkpt>
<trkpt lat="35.142259" lon="138.709508"><ele>9.8</ele></trkpt>
<trkpt lat="35.142203" lon="138.709814"><ele>9.5</ele></trkpt>
<trkpt lat="35.142154" lon="138.710028"><ele>9.5</ele></trkpt>
<trkpt lat="35.142101" lon="138.710212"><ele>9.8</ele></trkpt>
<trkpt lat="35.141853" lon="138.711077"><ele>10.2</ele></trkpt>
<trkpt lat="35.141822" lon="138.711203"><ele>10.2</ele></trkpt>
<trkpt lat="35.141757" lon="138.711468"><ele>10.0</ele></trkpt>
<trkpt lat="35.141660" lon="138.711892"><ele>10.0</ele></trkpt>
<trkpt lat="35.141637" lon="138.712008"><ele>10.2</ele></trkpt>
<trkpt lat="35.141623" lon="138.712140"><ele>10.2</ele></trkpt>
<trkpt lat="35.141594" lon="138.712709"><ele>11.0</ele></trkpt>
<trkpt lat="35.141589" lon="138.712878"><ele>11.5</ele></trkpt>
<trkpt lat="35.141570" lon="138.713043"><ele>12.0</ele></trkpt>
<trkpt lat="35.141550" lon="138.713155"><ele>12.5</ele></trkpt>
<trkpt lat="35.141546" lon="138.713178"><ele>12.5</ele></trkpt>
<trkpt lat="35.141485" lon="138.713343"><ele>13.5</ele></trkpt>
<trkpt lat="35.141289" lon="138.713844"><ele>12.8</ele></trkpt>
<trkpt lat="35.141085" lon="138.714508"><ele>10.5</ele></trkpt>
<trkpt lat="35.140986" lon="138.714818"><ele>9.8</ele></trkpt>
<trkpt lat="35.140943" lon="138.715005"><ele>9.5</ele></trkpt>
<trkpt lat="35.140892" lon="138.715346"><ele>9.2</ele></trkpt>
<trkpt lat="35.140857" lon="138.715625"><ele>9.0</ele></trkpt>
<trkpt lat="35.140841" lon="138.715851"><ele>9.0</ele></trkpt>
<trkpt lat="35.140829" lon="138.716033"><ele>9.2</ele></trkpt>
<trkpt lat="35.140846" lon="138.716900"><ele>9.2</ele></trkpt>
<trkpt lat="35.140836" lon="138.717431"><ele>8.0</ele></trkpt>
<trkpt lat="35.140813" lon="138.717570"><ele>7.8</ele></trkpt>
<trkpt lat="35.140720" lon="138.717917"><ele>7.2</ele></trkpt>
<trkpt lat="35.140493" lon="138.718915"><ele>5.2</ele></trkpt>
<trkpt lat="35.140388" lon="138.719375"><ele>4.8</ele></trkpt>
<trkpt lat="35.140263" lon="138.719940"><ele>6.5</ele></trkpt>
<trkpt lat="35.140181" lon="138.720421"><ele>7.0</ele></trkpt>
<trkpt lat="35.140065" lon="138.721058"><ele>8.0</ele></trkpt>
<trkpt lat="35.139819" lon="138.722471"><ele>9.2</ele></trkpt>
<trkpt lat="35.139689" lon="138.723154"><ele>9.2</ele></trkpt>
<trkpt lat="35.139621" lon="138.723422"><ele>9.2</ele></trkpt>
<trkpt lat="35.139430" lon="138.724071"><ele>9.0</ele></trkpt>
<trkpt lat="35.139073" lon="138.725195"><ele>6.5</ele></trkpt>
<trkpt lat="35.138927" lon="138.725708"><ele>6.2</ele></trkpt>
<trkpt lat="35.138808" lon="138.725931"><ele>6.5</ele></trkpt>
<trkpt lat="35.138770" lon="138.726008"><ele>6.8</ele></trkpt>
<trkpt lat="35.138712" lon="138.726151"><ele>7.0</ele></trkpt>
<trkpt lat="35.138663" lon="138.726312"><ele>7.2</ele></trkpt>
<trkpt lat="35.138624" lon="138.726488"><ele>7.5</ele></trkpt>
<trkpt lat="35.138614" lon="138.726559"><ele>7.5</ele></trkpt>
<trkpt lat="35.138622" lon="138.726652"><ele>7.5</ele></trkpt>
<trkpt lat="35.138737" lon="138.726749"><ele>7.0</ele></trkpt>
<trkpt lat="35.138837" lon="138.726795"><ele>6.8</ele></trkpt>
<trkpt lat="35.138524" lon="138.727830"><ele>9.2</ele></trkpt>
<trkpt lat="35.138403" lon="138.728260"><ele>10.5</ele></trkpt>
<trkpt lat="35.138219" lon="138.728887"><ele>10.8</ele></trkpt>
<trkpt lat="35.138213" lon="138.728909"><ele>10.8</ele></trkpt>
<trkpt lat="35.138117" lon="138.729273"><ele>10.5</ele></trkpt>
<trkpt lat="35.137976" lon="138.729937"><ele>9.8</ele></trkpt>
<trkpt lat="35.137957" lon="138.730061"><ele>9.8</ele></trkpt>
<trkpt lat="35.137900" lon="138.730418"><ele>9.8</ele></trkpt>
<trkpt lat="35.137780" lon="138.731340"><ele>9.8</ele></trkpt>
<trkpt lat="35.137771" lon="138.731400"><ele>10.0</ele></trkpt>
<trkpt lat="35.137727" lon="138.731717"><ele>10.0</ele></trkpt>
<trkpt lat="35.137698" lon="138.731927"><ele>9.8</ele></trkpt>
<trkpt lat="35.137666" lon="138.732266"><ele>9.2</ele></trkpt>
<trkpt lat="35.137641" lon="138.732476"><ele>9.0</ele></trkpt>
<trkpt lat="35.137621" lon="138.732654"><ele>9.0</ele></trkpt>
<trkpt lat="35.137560" lon="138.733126"><ele>8.8</ele></trkpt>
<trkpt lat="35.137542" lon="138.733264"><ele>8.8</ele></trkpt>
<trkpt lat="35.137444" lon="138.734024"><ele>8.2</ele></trkpt>
<trkpt lat="35.137390" lon="138.734384"><ele>8.2</ele></trkpt>
<trkpt lat="35.137331" lon="138.734841"><ele>7.8</ele></trkpt>
<trkpt lat="35.137315" lon="138.734983"><ele>7.5</ele></trkpt>
<trkpt lat="35.137208" lon="138.735691"><ele>9.8</ele></trkpt>
<trkpt lat="35.137140" lon="138.736071"><ele>10.5</ele></trkpt>
<trkpt lat="35.137127" lon="138.736132"><ele>10.5</ele></trkpt>
<trkpt lat="35.136888" lon="138.737476"><ele>13.2</ele></trkpt>
<trkpt lat="35.136791" lon="138.738034"><ele>9.8</ele></trkpt>
<trkpt lat="35.136785" lon="138.738072"><ele>9.5</ele></trkpt>
<trkpt lat="35.136693" lon="138.738613"><ele>7.8</ele></trkpt>
<trkpt lat="35.136685" lon="138.738671"><ele>7.8</ele></trkpt>
<trkpt lat="35.136563" lon="138.739374"><ele>8.5</ele></trkpt>
<trkpt lat="35.136544" lon="138.739460"><ele>8.8</ele></trkpt>
<trkpt lat="35.136468" lon="138.739967"><ele>10.0</ele></trkpt>
<trkpt lat="35.136255" lon="138.740897"><ele>10.5</ele></trkpt>
<trkpt lat="35.136045" lon="138.741731"><ele>11.8</ele></trkpt>
<trkpt lat="35.135829" lon="138.742630"><ele>12.5</ele></trkpt>
<trkpt lat="35.135708" lon="138.743125"><ele>11.8</ele></trkpt>
<trkpt lat="35.135606" lon="138.743580"><ele>11.5</ele></trkpt>
<trkpt lat="35.135376" lon="138.744796"><ele>12.2</ele></trkpt>
<trkpt lat="35.135339" lon="138.744989"><ele>12.2</ele></trkpt>
<trkpt lat="35.135300" lon="138.745206"><ele>12.2</ele></trkpt>
<trkpt lat="35.135240" lon="138.745536"><ele>12.0</ele></trkpt>
<trkpt lat="35.135208" lon="138.745687"><ele>11.8</ele></trkpt>
<trkpt lat="35.135190" lon="138.745785"><ele>11.8</ele></trkpt>
<trkpt lat="35.135050" lon="138.746410"><ele>11.0</ele></trkpt>
<trkpt lat="35.134930" lon="138.746933"><ele>11.0</ele></trkpt>
<trkpt lat="35.134675" lon="138.747993"><ele>10.2</ele></trkpt>
<trkpt lat="35.134586" lon="138.748382"><ele>9.8</ele></trkpt>
<trkpt lat="35.134581" lon="138.748406"><ele>9.8</ele></trkpt>
<trkpt lat="35.134406" lon="138.749165"><ele>9.8</ele></trkpt>
<trkpt lat="35.134380" lon="138.749268"><ele>9.5</ele></trkpt>
<trkpt lat="35.134321" lon="138.749513"><ele>9.2</ele></trkpt>
<trkpt lat="35.134302" lon="138.749589"><ele>9.2</ele></trkpt>
<trkpt lat="35.134292" lon="138.749626"><ele>9.2</ele></trkpt>
<trkpt lat="35.134289" lon="138.749642"><ele>9.2</ele></trkpt>
<trkpt lat="35.134238" lon="138.749884"><ele>8.8</ele></trkpt>
<trkpt lat="35.134138" lon="138.750273"><ele>9.2</ele></trkpt>
<trkpt lat="35.134126" lon="138.750318"><ele>9.2</ele></trkpt>
<trkpt lat="35.134036" lon="138.750657"><ele>10.0</ele></trkpt>
<trkpt lat="35.133842" lon="138.751407"><ele>11.5</ele></trkpt>
<trkpt lat="35.133731" lon="138.751884"><ele>12.5</ele></trkpt>
<trkpt lat="35.133631" lon="138.752334"><ele>12.8</ele></trkpt>
<trkpt lat="35.133409" lon="138.753224"><ele>13.5</ele></trkpt>
<trkpt lat="35.133314" lon="138.753626"><ele>13.5</ele></trkpt>
<trkpt lat="35.133117" lon="138.754420"><ele>12.5</ele></trkpt>
<trkpt lat="35.132692" lon="138.756170"><ele>14.8</ele></trkpt>
<trkpt lat="35.132675" lon="138.756250"><ele>14.8</ele></trkpt>
<trkpt lat="35.132277" lon="138.758056"><ele>12.0</ele></trkpt>
<trkpt lat="35.132114" lon="138.758864"><ele>12.5</ele></trkpt>
<trkpt lat="35.132073" lon="138.759122"><ele>12.8</ele></trkpt>
<trkpt lat="35.132030" lon="138.759349"><ele>13.0</ele></trkpt>
<trkpt lat="35.131970" lon="138.759703"><ele>13.2</ele></trkpt>
<trkpt lat="35.131904" lon="138.760098"><ele>13.2</ele></trkpt>
<trkpt lat="35.131764" lon="138.760924"><ele>13.5</ele></trkpt>
<trkpt lat="35.131660" lon="138.761714"><ele>14.8</ele></trkpt>
<trkpt lat="35.131465" lon="138.763301"><ele>12.5</ele></trkpt>
<trkpt lat="35.131385" lon="138.763717"><ele>12.8</ele></trkpt>
<trkpt lat="35.130421" lon="138.768184"><ele>13.2</ele></trkpt>
<trkpt lat="35.130278" lon="138.768848"><ele>13.8</ele></trkpt>
<trkpt lat="35.129758" lon="138.771295"><ele>13.8</ele></trkpt>
<trkpt lat="35.129312" lon="138.773178"><ele>13.8</ele></trkpt>
<trkpt lat="35.128784" lon="138.775465"><ele>14.2</ele></trkpt>
<trkpt lat="35.128381" lon="138.777151"><ele>13.5</ele></trkpt>
<trkpt lat="35.127946" lon="138.778879"><ele>14.2</ele></trkpt>
<trkpt lat="35.127449" lon="138.780843"><ele>15.0</ele></trkpt>
<trkpt lat="35.127371" lon="138.781151"><ele>15.0</ele></trkpt>
<trkpt lat="35.127238" lon="138.781679"><ele>15.2</ele></trkpt>
<trkpt lat="35.127140" lon="138.782046"><ele>15.5</ele></trkpt>
<trkpt lat="35.127049" lon="138.782367"><ele>15.5</ele></trkpt>
<trkpt lat="35.127014" lon="138.782472"><ele>15.8</ele></trkpt>
<trkpt lat="35.126949" lon="138.782664"><ele>15.2</ele></trkpt>
<trkpt lat="35.126852" lon="138.782897"><ele>14.5</ele></trkpt>
<trkpt lat="35.126444" lon="138.783737"><ele>11.8</ele></trkpt>
<trkpt lat="35.126101" lon="138.784441"><ele>11.0</ele></trkpt>
<trkpt lat="35.126041" lon="138.784588"><ele>11.2</ele></trkpt>
<trkpt lat="35.125972" lon="138.784830"><ele>11.2</ele></trkpt>
<trkpt lat="35.125827" lon="138.785355"><ele>11.5</ele></trkpt>
<trkpt lat="35.125374" lon="138.786961"><ele>11.0</ele></trkpt>
<trkpt lat="35.125169" lon="138.787695"><ele>12.5</ele></trkpt>
<trkpt lat="35.125062" lon="138.788146"><ele>12.8</ele></trkpt>
<trkpt lat="35.125047" lon="138.788207"><ele>12.8</ele></trkpt>
<trkpt lat="35.124885" lon="138.788918"><ele>13.8</ele></trkpt>
<trkpt lat="35.124707" lon="138.789700"><ele>14.5</ele></trkpt>
<trkpt lat="35.124493" lon="138.790643"><ele>14.0</ele></trkpt>
<trkpt lat="35.124460" lon="138.790783"><ele>14.0</ele></trkpt>
<trkpt lat="35.124423" lon="138.790764"><ele>14.0</ele></trkpt>
<trkpt lat="35.124278" lon="138.790643"><ele>15.0</ele></trkpt>
<trkpt lat="35.124158" lon="138.790554"><ele>15.5</ele></trkpt>
<trkpt lat="35.124066" lon="138.790516"><ele>15.2</ele></trkpt>
<trkpt lat="35.123796" lon="138.790416"><ele>13.8</ele></trkpt>
<trkpt lat="35.123679" lon="138.790844"><ele>13.8</ele></trkpt>
<trkpt lat="35.123402" lon="138.791731"><ele>15.0</ele></trkpt>
<trkpt lat="35.122795" lon="138.793607"><ele>13.5</ele></trkpt>
<trkpt lat="35.122769" lon="138.793751"><ele>13.2</ele></trkpt>
<trkpt lat="35.122746" lon="138.793894"><ele>13.2</ele></trkpt>
<trkpt lat="35.122649" lon="138.794160"><ele>13.2</ele></trkpt>
<trkpt lat="35.122554" lon="138.794325"><ele>13.8</ele></trkpt>
<trkpt lat="35.122062" lon="138.795750"><ele>15.0</ele></trkpt>
<trkpt lat="35.121678" lon="138.796909"><ele>13.2</ele></trkpt>
<trkpt lat="35.121292" lon="138.798041"><ele>13.2</ele></trkpt>
<trkpt lat="35.121114" lon="138.798610"><ele>14.2</ele></trkpt>
<trkpt lat="35.121105" lon="138.798656"><ele>14.2</ele></trkpt>
<trkpt lat="35.121099" lon="138.798742"><ele>14.5</ele></trkpt>
<trkpt lat="35.121082" lon="138.798755"><ele>14.5</ele></trkpt>
<trkpt lat="35.121066" lon="138.798785"><ele>14.5</ele></trkpt>
<trkpt lat="35.121029" lon="138.798903"><ele>14.5</ele></trkpt>
<trkpt lat="35.120941" lon="138.799099"><ele>15.0</ele></trkpt>
<trkpt lat="35.120850" lon="138.799206"><ele>15.0</ele></trkpt>
<trkpt lat="35.120813" lon="138.799329"><ele>14.8</ele></trkpt>
<trkpt lat="35.120458" lon="138.800504"><ele>14.0</ele></trkpt>
<trkpt lat="35.120333" lon="138.800873"><ele>14.5</ele></trkpt>
<trkpt lat="35.120007" lon="138.801685"><ele>15.0</ele></trkpt>
<trkpt lat="35.119377" lon="138.803244"><ele>13.2</ele></trkpt>
<trkpt lat="35.119313" lon="138.803401"><ele>13.5</ele></trkpt>
<trkpt lat="35.118386" lon="138.805677"><ele>10.2</ele></trkpt>
<trkpt lat="35.118336" lon="138.805803"><ele>10.8</ele></trkpt>
<trkpt lat="35.118256" lon="138.805748"><ele>9.8</ele></trkpt>
<trkpt lat="35.118217" lon="138.805724"><ele>9.2</ele></trkpt>
<trkpt lat="35.118203" lon="138.805688"><ele>9.0</ele></trkpt>
<trkpt lat="35.118173" lon="138.805652"><ele>8.5</ele></trkpt>
<trkpt lat="35.118034" lon="138.805548"><ele>7.0</ele></trkpt>
<trkpt lat="35.118173" lon="138.805652"><ele>8.5</ele></trkpt>
<trkpt lat="35.118203" lon="138.805688"><ele>9.0</ele></trkpt>
<trkpt lat="35.118217" lon="138.805724"><ele>9.2</ele></trkpt>
<trkpt lat="35.118256" lon="138.805748"><ele>9.8</ele></trkpt>
<trkpt lat="35.118336" lon="138.805803"><ele>10.8</ele></trkpt>
<trkpt lat="35.116879" lon="138.809403"><ele>10.8</ele></trkpt>
<trkpt lat="35.115930" lon="138.811742"><ele>11.5</ele></trkpt>
<trkpt lat="35.115882" lon="138.811847"><ele>11.8</ele></trkpt>
<trkpt lat="35.116071" lon="138.811959"><ele>12.5</ele></trkpt>
<trkpt lat="35.116089" lon="138.811969"><ele>12.8</ele></trkpt>
<trkpt lat="35.116025" lon="138.812121"><ele>12.8</ele></trkpt>
<trkpt lat="35.116014" lon="138.812197"><ele>13.0</ele></trkpt>
<trkpt lat="35.116008" lon="138.812345"><ele>13.2</ele></trkpt>
<trkpt lat="35.115881" lon="138.812680"><ele>14.5</ele></trkpt>
<trkpt lat="35.115824" lon="138.812748"><ele>14.8</ele></trkpt>
<trkpt lat="35.115794" lon="138.812770"><ele>14.5</ele></trkpt>
<trkpt lat="35.115724" lon="138.812865"><ele>14.2</ele></trkpt>
<trkpt lat="35.115663" lon="138.813014"><ele>14.0</ele></trkpt>
<trkpt lat="35.115583" lon="138.813198"><ele>14.0</ele></trkpt>
<trkpt lat="35.115487" lon="138.813387"><ele>13.8</ele></trkpt>
<trkpt lat="35.115138" lon="138.814018"><ele>13.0</ele></trkpt>
<trkpt lat="35.115081" lon="138.814132"><ele>13.0</ele></trkpt>
<trkpt lat="35.115003" lon="138.814378"><ele>13.8</ele></trkpt>
<trkpt lat="35.114882" lon="138.814651"><ele>14.0</ele></trkpt>
<trkpt lat="35.114790" lon="138.814787"><ele>14.0</ele></trkpt>
<trkpt lat="35.114350" lon="138.815724"><ele>14.0</ele></trkpt>
<trkpt lat="35.114308" lon="138.815861"><ele>14.2</ele></trkpt>
<trkpt lat="35.114272" lon="138.815998"><ele>14.5</ele></trkpt>
<trkpt lat="35.114153" lon="138.816243"><ele>14.8</ele></trkpt>
<trkpt lat="35.113991" lon="138.816439"><ele>14.5</ele></trkpt>
<trkpt lat="35.113228" lon="138.818056"><ele>13.5</ele></trkpt>
<trkpt lat="35.113127" lon="138.818277"><ele>13.0</ele></trkpt>
<trkpt lat="35.113094" lon="138.818400"><ele>13.0</ele></trkpt>
<trkpt lat="35.113033" lon="138.818573"><ele>13.0</ele></trkpt>
<trkpt lat="35.112916" lon="138.818814"><ele>13.2</ele></trkpt>
<trkpt lat="35.112827" lon="138.818925"><ele>13.2</ele></trkpt>
<trkpt lat="35.112767" lon="138.819035"><ele>13.5</ele></trkpt>
<trkpt lat="35.112449" lon="138.819706"><ele>14.5</ele></trkpt>
<trkpt lat="35.112212" lon="138.820207"><ele>14.2</ele></trkpt>
<trkpt lat="35.112175" lon="138.820340"><ele>14.2</ele></trkpt>
<trkpt lat="35.112147" lon="138.820438"><ele>14.5</ele></trkpt>
<trkpt lat="35.112002" lon="138.820748"><ele>14.0</ele></trkpt>
<trkpt lat="35.111881" lon="138.820894"><ele>13.5</ele></trkpt>
<trkpt lat="35.111296" lon="138.822131"><ele>14.2</ele></trkpt>
<trkpt lat="35.111090" lon="138.822554"><ele>14.8</ele></trkpt>
<trkpt lat="35.110662" lon="138.823319"><ele>14.2</ele></trkpt>
<trkpt lat="35.110629" lon="138.823421"><ele>14.5</ele></trkpt>
<trkpt lat="35.110548" lon="138.823598"><ele>14.8</ele></trkpt>
<trkpt lat="35.110426" lon="138.823799"><ele>15.2</ele></trkpt>
<trkpt lat="35.110301" lon="138.823926"><ele>15.8</ele></trkpt>
<trkpt lat="35.109586" lon="138.825164"><ele>14.8</ele></trkpt>
<trkpt lat="35.109147" lon="138.825908"><ele>11.0</ele></trkpt>
<trkpt lat="35.109124" lon="138.825931"><ele>11.0</ele></trkpt>
<trkpt lat="35.109087" lon="138.825949"><ele>10.5</ele></trkpt>
<trkpt lat="35.109048" lon="138.825975"><ele>10.2</ele></trkpt>
<trkpt lat="35.109024" lon="138.826004"><ele>10.2</ele></trkpt>
<trkpt lat="35.108248" lon="138.827334"><ele>10.5</ele></trkpt>
<trkpt lat="35.107560" lon="138.828519"><ele>11.5</ele></trkpt>
<trkpt lat="35.107319" lon="138.828915"><ele>12.2</ele></trkpt>
<trkpt lat="35.106718" lon="138.829964"><ele>12.2</ele></trkpt>
<trkpt lat="35.106334" lon="138.830660"><ele>11.8</ele></trkpt>
<trkpt lat="35.106166" lon="138.830951"><ele>11.2</ele></trkpt>
<trkpt lat="35.105480" lon="138.832115"><ele>11.2</ele></trkpt>
<trkpt lat="35.104953" lon="138.832994"><ele>11.5</ele></trkpt>
<trkpt lat="35.104868" lon="138.833128"><ele>11.5</ele></trkpt>
<trkpt lat="35.104433" lon="138.833855"><ele>11.8</ele></trkpt>
<trkpt lat="35.104354" lon="138.833989"><ele>11.8</ele></trkpt>
<trkpt lat="35.103551" lon="138.835324"><ele>10.8</ele></trkpt>
<trkpt lat="35.102955" lon="138.836295"><ele>11.0</ele></trkpt>
<trkpt lat="35.102778" lon="138.836555"><ele>10.5</ele></trkpt>
<trkpt lat="35.102757" lon="138.836587"><ele>10.5</ele></trkpt>
<trkpt lat="35.102240" lon="138.837360"><ele>11.0</ele></trkpt>
<trkpt lat="35.101890" lon="138.837860"><ele>11.2</ele></trkpt>
<trkpt lat="35.101040" lon="138.838971"><ele>9.5</ele></trkpt>
<trkpt lat="35.100202" lon="138.840077"><ele>10.2</ele></trkpt>
<trkpt lat="35.099948" lon="138.840402"><ele>10.8</ele></trkpt>
<trkpt lat="35.099533" lon="138.840932"><ele>11.0</ele></trkpt>
<trkpt lat="35.098893" lon="138.841731"><ele>11.2</ele></trkpt>
<trkpt lat="35.098772" lon="138.841890"><ele>11.0</ele></trkpt>
<trkpt lat="35.098447" lon="138.842353"><ele>10.8</ele></trkpt>
<trkpt lat="35.097859" lon="138.843195"><ele>9.5</ele></trkpt>
<trkpt lat="35.097455" lon="138.843735"><ele>10.2</ele></trkpt>
<trkpt lat="35.097326" lon="138.843890"><ele>10.2</ele></trkpt>
<trkpt lat="35.096883" lon="138.844359"><ele>8.8</ele></trkpt>
<trkpt lat="35.095552" lon="138.845501"><ele>8.2</ele></trkpt>
<trkpt lat="35.095516" lon="138.845529"><ele>8.2</ele></trkpt>
<trkpt lat="35.095284" lon="138.845711"><ele>8.2</ele></trkpt>
<trkpt lat="35.094491" lon="138.846249"><ele>5.5</ele></trkpt>
<trkpt lat="35.094179" lon="138.846450"><ele>4.5</ele></trkpt>
<trkpt lat="35.094135" lon="138.846478"><ele>4.2</ele></trkpt>
<trkpt lat="35.093683" lon="138.846785"><ele>2.8</ele></trkpt>
<trkpt lat="35.093337" lon="138.847020"><ele>3.2</ele></trkpt>
<trkpt lat="35.092908" lon="138.847312"><ele>6.5</ele></trkpt>
<trkpt lat="35.092790" lon="138.847392"><ele>7.5</ele></trkpt>
<trkpt lat="35.092561" lon="138.847547"><ele>9.0</ele></trkpt>
<trkpt lat="35.092356" lon="138.847687"><ele>8.0</ele></trkpt>
<trkpt lat="35.092113" lon="138.847852"><ele>6.5</ele></trkpt>
<trkpt lat="35.091881" lon="138.848012"><ele>5.5</ele></trkpt>
<trkpt lat="35.091631" lon="138.848180"><ele>4.2</ele></trkpt>
<trkpt lat="35.091050" lon="138.848572"><ele>2.0</ele></trkpt>
<trkpt lat="35.090681" lon="138.848822"><ele>2.0</ele></trkpt>
<trkpt lat="35.089878" lon="138.849382"><ele>0.2</ele></trkpt>
<trkpt lat="35.089736" lon="138.849481"><ele>0.2</ele></trkpt>
<trkpt lat="35.088022" lon="138.850659"><ele>1.2</ele></trkpt>
<trkpt lat="35.087861" lon="138.850761"><ele>1.2</ele></trkpt>
<trkpt lat="35.087553" lon="138.850958"><ele>1.5</ele></trkpt>
<trkpt lat="35.087334" lon="138.851099"><ele>1.5</ele></trkpt>
<trkpt lat="35.087035" lon="138.851290"><ele>2.2</ele></trkpt>
<trkpt lat="35.087025" lon="138.851296"><ele>2.2</ele></trkpt>
<trkpt lat="35.086816" lon="138.851433"><ele>3.0</ele></trkpt>
<trkpt lat="35.086802" lon="138.851441"><ele>3.0</ele></trkpt>
<trkpt lat="35.086787" lon="138.851452"><ele>3.2</ele></trkpt>
<trkpt lat="35.086247" lon="138.851767"><ele>4.0</ele></trkpt>
<trkpt lat="35.085720" lon="138.852095"><ele>4.8</ele></trkpt>
<trkpt lat="35.085171" lon="138.852438"><ele>5.2</ele></trkpt>
<trkpt lat="35.084955" lon="138.852598"><ele>4.5</ele></trkpt>
<trkpt lat="35.084491" lon="138.852985"><ele>4.0</ele></trkpt>
<trkpt lat="35.084372" lon="138.853077"><ele>4.0</ele></trkpt>
<trkpt lat="35.083888" lon="138.853372"><ele>4.2</ele></trkpt>
<trkpt lat="35.083759" lon="138.853444"><ele>4.0</ele></trkpt>
<trkpt lat="35.083728" lon="138.853505"><ele>4.2</ele></trkpt>
<trkpt lat="35.083674" lon="138.853570"><ele>4.2</ele></trkpt>
<trkpt lat="35.083576" lon="138.853648"><ele>4.0</ele></trkpt>
<trkpt lat="35.083538" lon="138.853664"><ele>4.0</ele></trkpt>
<trkpt lat="35.083447" lon="138.853676"><ele>4.0</ele></trkpt>
<trkpt lat="35.083415" lon="138.853805"><ele>4.2</ele></trkpt>
<trkpt lat="35.083399" lon="138.853902"><ele>4.2</ele></trkpt>
<trkpt lat="35.083390" lon="138.854007"><ele>4.5</ele></trkpt>
<trkpt lat="35.083391" lon="138.854093"><ele>4.8</ele></trkpt>
<trkpt lat="35.083407" lon="138.854227"><ele>5.0</ele></trkpt>
<trkpt lat="35.083459" lon="138.854445"><ele>5.0</ele></trkpt>
<trkpt lat="35.083586" lon="138.854905"><ele>5.0</ele></trkpt>
<trkpt lat="35.083789" lon="138.855564"><ele>2.8</ele></trkpt>
<trkpt lat="35.083796" lon="138.855586"><ele>2.8</ele></trkpt>
<trkpt lat="35.083826" lon="138.855683"><ele>2.5</ele></trkpt>
<trkpt lat="35.083840" lon="138.855731"><ele>2.2</ele></trkpt>
<trkpt lat="35.083890" lon="138.855897"><ele>2.0</ele></trkpt>
<trkpt lat="35.083915" lon="138.855983"><ele>2.0</ele></trkpt>
<trkpt lat="35.083940" lon="138.856068"><ele>2.0</ele></trkpt>
<trkpt lat="35.083963" lon="138.856147"><ele>2.0</ele></trkpt>
<trkpt lat="35.083986" lon="138.856226"><ele>2.0</ele></trkpt>
<trkpt lat="35.084102" lon="138.856607"><ele>2.5</ele></trkpt>
<trkpt lat="35.084118" lon="138.856663"><ele>2.8</ele></trkpt>
<trkpt lat="35.084285" lon="138.857260"><ele>3.0</ele></trkpt>
<trkpt lat="35.084367" lon="138.857546"><ele>3.2</ele></trkpt>
<trkpt lat="35.084414" lon="138.857710"><ele>3.5</ele></trkpt>
<trkpt lat="35.084622" lon="138.858407"><ele>4.8</ele></trkpt>
<trkpt lat="35.083899" lon="138.858354"><ele>4.2</ele></trkpt>
<trkpt lat="35.083667" lon="138.858337"><ele>3.8</ele></trkpt>
<trkpt lat="35.083563" lon="138.858330"><ele>3.5</ele></trkpt>
<trkpt lat="35.082984" lon="138.858285"><ele>2.8</ele></trkpt>
<trkpt lat="35.082506" lon="138.858249"><ele>2.8</ele></trkpt>
<trkpt lat="35.082539" lon="138.857558"><ele>1.0</ele></trkpt>
<trkpt lat="35.083594" lon="138.857651"><ele>1.8</ele></trkpt>
<trkpt lat="35.083703" lon="138.857659"><ele>2.2</ele></trkpt>
<trkpt lat="35.083934" lon="138.857674"><ele>2.8</ele></trkpt>
<trkpt lat="35.084311" lon="138.857692"><ele>3.5</ele></trkpt>
<trkpt lat="35.084414" lon="138.857710"><ele>3.5</ele></trkpt>
<trkpt lat="35.084541" lon="138.857742"><ele>3.8</ele></trkpt>
<trkpt lat="35.084685" lon="138.857746"><ele>4.0</ele></trkpt>
<trkpt lat="35.084794" lon="138.857731"><ele>4.0</ele></trkpt>
<trkpt lat="35.084863" lon="138.857707"><ele>4.0</ele></trkpt>
<trkpt lat="35.085793" lon="138.857310"><ele>3.8</ele></trkpt>
<trkpt lat="35.086791" lon="138.856897"><ele>4.8</ele></trkpt>
<trkpt lat="35.087748" lon="138.856494"><ele>3.2</ele></trkpt>
<trkpt lat="35.087922" lon="138.856421"><ele>3.0</ele></trkpt>
<trkpt lat="35.088006" lon="138.856385"><ele>3.0</ele></trkpt>
<trkpt lat="35.088089" lon="138.856349"><ele>2.8</ele></trkpt>
<trkpt lat="35.088603" lon="138.856120"><ele>2.5</ele></trkpt>
<trkpt lat="35.088783" lon="138.856078"><ele>2.8</ele></trkpt>
<trkpt lat="35.088956" lon="138.856070"><ele>3.0</ele></trkpt>
<trkpt lat="35.089092" lon="138.856076"><ele>3.0</ele></trkpt>
<trkpt lat="35.089233" lon="138.856099"><ele>3.5</ele></trkpt>
<trkpt lat="35.089337" lon="138.856116"><ele>3.8</ele></trkpt>
<trkpt lat="35.089469" lon="138.856142"><ele>4.0</ele></trkpt>
<trkpt lat="35.089566" lon="138.856159"><ele>4.2</ele></trkpt>
<trkpt lat="35.090073" lon="138.856291"><ele>5.2</ele></trkpt>
<trkpt lat="35.090235" lon="138.856323"><ele>5.0</ele></trkpt>
<trkpt lat="35.090722" lon="138.856426"><ele>4.8</ele></trkpt>
<trkpt lat="35.090827" lon="138.856446"><ele>4.5</ele></trkpt>
<trkpt lat="35.091343" lon="138.856558"><ele>5.2</ele></trkpt>
<trkpt lat="35.091520" lon="138.856596"><ele>5.5</ele></trkpt>
<trkpt lat="35.091809" lon="138.856660"><ele>6.0</ele></trkpt>
<trkpt lat="35.092713" lon="138.856851"><ele>7.0</ele></trkpt>
<trkpt lat="35.093087" lon="138.856941"><ele>7.2</ele></trkpt>
<trkpt lat="35.093265" lon="138.856982"><ele>7.5</ele></trkpt>
<trkpt lat="35.093886" lon="138.857128"><ele>8.0</ele></trkpt>
<trkpt lat="35.093811" lon="138.857690"><ele>7.0</ele></trkpt>
<trkpt lat="35.093662" lon="138.859032"><ele>4.5</ele></trkpt>
<trkpt lat="35.093645" lon="138.859248"><ele>4.2</ele></trkpt>
<trkpt lat="35.093647" lon="138.859450"><ele>3.8</ele></trkpt>
<trkpt lat="35.093651" lon="138.859490"><ele>4.0</ele></trkpt>
<trkpt lat="35.093722" lon="138.859498"><ele>4.2</ele></trkpt>
<trkpt lat="35.093931" lon="138.859468"><ele>4.5</ele></trkpt>
<trkpt lat="35.094503" lon="138.859504"><ele>7.2</ele></trkpt>
<trkpt lat="35.095040" lon="138.859580"><ele>10.0</ele></trkpt>
<trkpt lat="35.095419" lon="138.859665"><ele>10.5</ele></trkpt>
<trkpt lat="35.095704" lon="138.859692"><ele>11.0</ele></trkpt>
<trkpt lat="35.095911" lon="138.859774"><ele>10.8</ele></trkpt>
<trkpt lat="35.096065" lon="138.859843"><ele>10.2</ele></trkpt>
<trkpt lat="35.096211" lon="138.859935"><ele>9.2</ele></trkpt>
<trkpt lat="35.096446" lon="138.860144"><ele>8.2</ele></trkpt>
<trkpt lat="35.096718" lon="138.860434"><ele>7.5</ele></trkpt>
<trkpt lat="35.096727" lon="138.860491"><ele>7.5</ele></trkpt>
<trkpt lat="35.096903" lon="138.860834"><ele>7.8</ele></trkpt>
<trkpt lat="35.097129" lon="138.861045"><ele>7.8</ele></trkpt>
<trkpt lat="35.097279" lon="138.861276"><ele>7.0</ele></trkpt>
<trkpt lat="35.097439" lon="138.861728"><ele>4.8</ele></trkpt>
<trkpt lat="35.097523" lon="138.862069"><ele>4.0</ele></trkpt>
<trkpt lat="35.097579" lon="138.862374"><ele>3.5</ele></trkpt>
<trkpt lat="35.097611" lon="138.862644"><ele>3.2</ele></trkpt>
<trkpt lat="35.097655" lon="138.863130"><ele>3.8</ele></trkpt>
<trkpt lat="35.097661" lon="138.864015"><ele>6.2</ele></trkpt>
<trkpt lat="35.097685" lon="138.864452"><ele>6.5</ele></trkpt>
<trkpt lat="35.097690" lon="138.865700"><ele>4.5</ele></trkpt>
<trkpt lat="35.097674" lon="138.866202"><ele>4.0</ele></trkpt>
<trkpt lat="35.097633" lon="138.866703"><ele>3.8</ele></trkpt>
<trkpt lat="35.097505" lon="138.867457"><ele>5.8</ele></trkpt>
<trkpt lat="35.097469" lon="138.867882"><ele>5.0</ele></trkpt>
<trkpt lat="35.097440" lon="138.868664"><ele>4.0</ele></trkpt>
<trkpt lat="35.097481" lon="138.869597"><ele>5.5</ele></trkpt>
<trkpt lat="35.097559" lon="138.870691"><ele>8.2</ele></trkpt>
<trkpt lat="35.097607" lon="138.870687"><ele>8.0</ele></trkpt>
<trkpt lat="35.099302" lon="138.870459"><ele>7.5</ele></trkpt>
<trkpt lat="35.099671" lon="138.870421"><ele>8.2</ele></trkpt>
<trkpt lat="35.100167" lon="138.870311"><ele>9.0</ele></trkpt>
<trkpt lat="35.100285" lon="138.871501"><ele>7.5</ele></trkpt>
<trkpt lat="35.100370" lon="138.872729"><ele>6.8</ele></trkpt>
<trkpt lat="35.100424" lon="138.873446"><ele>8.0</ele></trkpt>
<trkpt lat="35.100503" lon="138.873899"><ele>8.2</ele></trkpt>
<trkpt lat="35.100602" lon="138.874283"><ele>8.5</ele></trkpt>
<trkpt lat="35.100744" lon="138.874674"><ele>9.5</ele></trkpt>
<trkpt lat="35.100863" lon="138.874943"><ele>10.5</ele></trkpt>
<trkpt lat="35.100988" lon="138.875178"><ele>10.8</ele></trkpt>
<trkpt lat="35.101204" lon="138.875555"><ele>11.0</ele></trkpt>
<trkpt lat="35.102340" lon="138.877183"><ele>15.0</ele></trkpt>
<trkpt lat="35.103287" lon="138.878565"><ele>12.8</ele></trkpt>
<trkpt lat="35.103638" lon="138.879099"><ele>13.0</ele></trkpt>
<trkpt lat="35.103701" lon="138.879218"><ele>12.8</ele></trkpt>
<trkpt lat="35.103797" lon="138.879401"><ele>12.5</ele></trkpt>
<trkpt lat="35.103849" lon="138.879513"><ele>12.2</ele></trkpt>
<trkpt lat="35.104128" lon="138.880074"><ele>11.5</ele></trkpt>
<trkpt lat="35.104447" lon="138.880763"><ele>9.8</ele></trkpt>
<trkpt lat="35.104551" lon="138.881011"><ele>9.5</ele></trkpt>
<trkpt lat="35.104612" lon="138.881155"><ele>9.2</ele></trkpt>
<trkpt lat="35.104721" lon="138.881414"><ele>9.0</ele></trkpt>
<trkpt lat="35.104787" lon="138.881615"><ele>8.8</ele></trkpt>
<trkpt lat="35.104980" lon="138.882022"><ele>9.8</ele></trkpt>
<trkpt lat="35.105015" lon="138.882096"><ele>9.8</ele></trkpt>
<trkpt lat="35.105407" lon="138.882919"><ele>9.8</ele></trkpt>
<trkpt lat="35.105508" lon="138.883131"><ele>9.8</ele></trkpt>
<trkpt lat="35.105596" lon="138.883291"><ele>10.0</ele></trkpt>
<trkpt lat="35.105986" lon="138.884004"><ele>10.5</ele></trkpt>
<trkpt lat="35.106744" lon="138.885216"><ele>11.5</ele></trkpt>
<trkpt lat="35.106896" lon="138.885477"><ele>11.5</ele></trkpt>
<trkpt lat="35.107040" lon="138.885750"><ele>11.8</ele></trkpt>
<trkpt lat="35.107272" lon="138.886250"><ele>12.2</ele></trkpt>
<trkpt lat="35.107286" lon="138.886432"><ele>12.2</ele></trkpt>
<trkpt lat="35.107282" lon="138.886589"><ele>12.2</ele></trkpt>
<trkpt lat="35.107279" lon="138.886746"><ele>12.0</ele></trkpt>
<trkpt lat="35.107294" lon="138.886864"><ele>11.2</ele></trkpt>
<trkpt lat="35.107331" lon="138.886992"><ele>10.5</ele></trkpt>
<trkpt lat="35.107349" lon="138.887052"><ele>10.2</ele></trkpt>
<trkpt lat="35.107597" lon="138.887951"><ele>12.8</ele></trkpt>
<trkpt lat="35.107636" lon="138.888052"><ele>13.5</ele></trkpt>
<trkpt lat="35.107705" lon="138.888122"><ele>14.2</ele></trkpt>
<trkpt lat="35.107762" lon="138.888148"><ele>14.2</ele></trkpt>
<trkpt lat="35.107814" lon="138.888186"><ele>14.5</ele></trkpt>
<trkpt lat="35.107859" lon="138.888233"><ele>14.8</ele></trkpt>
<trkpt lat="35.108026" lon="138.888481"><ele>14.8</ele></trkpt>
<trkpt lat="35.108950" lon="138.891466"><ele>17.2</ele></trkpt>
<trkpt lat="35.109079" lon="138.891819"><ele>18.8</ele></trkpt>
<trkpt lat="35.109399" lon="138.892452"><ele>22.2</ele></trkpt>
<trkpt lat="35.109469" lon="138.892601"><ele>22.2</ele></trkpt>
<trkpt lat="35.109576" lon="138.892776"><ele>22.0</ele></trkpt>
<trkpt lat="35.110139" lon="138.893569"><ele>21.5</ele></trkpt>
<trkpt lat="35.110379" lon="138.893905"><ele>21.8</ele></trkpt>
<trkpt lat="35.110950" lon="138.894708"><ele>24.2</ele></trkpt>
<trkpt lat="35.111375" lon="138.895301"><ele>24.5</ele></trkpt>
<trkpt lat="35.111674" lon="138.895719"><ele>24.0</ele></trkpt>
<trkpt lat="35.111862" lon="138.895984"><ele>24.0</ele></trkpt>
<trkpt lat="35.111937" lon="138.896098"><ele>23.8</ele></trkpt>
<trkpt lat="35.112555" lon="138.896952"><ele>24.2</ele></trkpt>
<trkpt lat="35.112991" lon="138.897572"><ele>25.5</ele></trkpt>
<trkpt lat="35.113386" lon="138.898142"><ele>25.8</ele></trkpt>
<trkpt lat="35.114019" lon="138.899003"><ele>26.0</ele></trkpt>
<trkpt lat="35.114051" lon="138.899047"><ele>26.0</ele></trkpt>
<trkpt lat="35.114111" lon="138.899118"><ele>26.0</ele></trkpt>
<trkpt lat="35.114557" lon="138.899760"><ele>27.5</ele></trkpt>
<trkpt lat="35.115013" lon="138.900441"><ele>27.2</ele></trkpt>
<trkpt lat="35.115083" lon="138.900579"><ele>27.2</ele></trkpt>
<trkpt lat="35.115120" lon="138.900657"><ele>27.2</ele></trkpt>
<trkpt lat="35.115719" lon="138.901817"><ele>28.8</ele></trkpt>
<trkpt lat="35.116263" lon="138.902849"><ele>29.8</ele></trkpt>
<trkpt lat="35.116306" lon="138.902929"><ele>29.5</ele></trkpt>
<trkpt lat="35.116869" lon="138.904010"><ele>30.2</ele></trkpt>
<trkpt lat="35.117379" lon="138.905010"><ele>30.0</ele></trkpt>
<trkpt lat="35.117474" lon="138.905262"><ele>30.5</ele></trkpt>
<trkpt lat="35.117552" lon="138.905253"><ele>30.5</ele></trkpt>
<trkpt lat="35.117609" lon="138.905260"><ele>30.5</ele></trkpt>
<trkpt lat="35.117688" lon="138.905295"><ele>30.8</ele></trkpt>
<trkpt lat="35.118180" lon="138.905605"><ele>31.0</ele></trkpt>
<trkpt lat="35.118222" lon="138.905642"><ele>31.0</ele></trkpt>
<trkpt lat="35.118323" lon="138.905794"><ele>31.0</ele></trkpt>
<trkpt lat="35.118360" lon="138.905769"><ele>31.0</ele></trkpt>
<trkpt lat="35.118384" lon="138.905775"><ele>31.0</ele></trkpt>
<trkpt lat="35.118453" lon="138.905887"><ele>31.0</ele></trkpt>
<trkpt lat="35.118531" lon="138.906075"><ele>31.2</ele></trkpt>
<trkpt lat="35.118588" lon="138.906142"><ele>31.2</ele></trkpt>
<trkpt lat="35.118677" lon="138.906208"><ele>31.2</ele></trkpt>
<trkpt lat="35.118747" lon="138.906283"><ele>31.5</ele></trkpt>
<trkpt lat="35.118804" lon="138.906358"><ele>31.5</ele></trkpt>
<trkpt lat="35.118839" lon="138.906389"><ele>31.5</ele></trkpt>
<trkpt lat="35.118888" lon="138.906413"><ele>31.5</ele></trkpt>
<trkpt lat="35.119030" lon="138.906456"><ele>31.5</ele></trkpt>
<trkpt lat="35.119044" lon="138.906653"><ele>31.8</ele></trkpt>
<trkpt lat="35.119177" lon="138.907175"><ele>32.5</ele></trkpt>
<trkpt lat="35.119397" lon="138.908019"><ele>34.2</ele></trkpt>
<trkpt lat="35.119471" lon="138.908300"><ele>34.8</ele></trkpt>
<trkpt lat="35.119584" lon="138.908761"><ele>34.0</ele></trkpt>
<trkpt lat="35.119766" lon="138.909440"><ele>33.8</ele></trkpt>
<trkpt lat="35.119808" lon="138.909873"><ele>33.8</ele></trkpt>
<trkpt lat="35.119868" lon="138.910145"><ele>33.5</ele></trkpt>
<trkpt lat="35.119899" lon="138.910310"><ele>33.0</ele></trkpt>
<trkpt lat="35.119927" lon="138.910399"><ele>33.0</ele></trkpt>
<trkpt lat="35.119969" lon="138.910470"><ele>32.8</ele></trkpt>
<trkpt lat="35.120071" lon="138.910607"><ele>32.5</ele></trkpt>
<trkpt lat="35.120094" lon="138.910642"><ele>32.2</ele></trkpt>
<trkpt lat="35.120203" lon="138.910785"><ele>32.0</ele></trkpt>
<trkpt lat="35.120252" lon="138.910864"><ele>32.0</ele></trkpt>
<trkpt lat="35.120269" lon="138.910919"><ele>32.0</ele></trkpt>
<trkpt lat="35.120280" lon="138.910989"><ele>32.0</ele></trkpt>
<trkpt lat="35.120323" lon="138.911615"><ele>32.0</ele></trkpt>
<trkpt lat="35.120324" lon="138.911627"><ele>32.0</ele></trkpt>
<trkpt lat="35.120326" lon="138.911677"><ele>32.0</ele></trkpt>
<trkpt lat="35.120331" lon="138.911700"><ele>32.0</ele></trkpt>
<trkpt lat="35.120343" lon="138.911725"><ele>32.0</ele></trkpt>
<trkpt lat="35.120359" lon="138.912048"><ele>32.2</ele></trkpt>
<trkpt lat="35.120908" lon="138.912138"><ele>31.8</ele></trkpt>
<trkpt lat="35.121051" lon="138.912130"><ele>31.5</ele></trkpt>
<trkpt lat="35.121851" lon="138.912013"><ele>31.5</ele></trkpt>
<trkpt lat="35.121894" lon="138.912007"><ele>31.5</ele></trkpt>
<trkpt lat="35.121907" lon="138.912078"><ele>31.5</ele></trkpt>
<trkpt lat="35.122020" lon="138.912478"><ele>30.8</ele></trkpt>
<trkpt lat="35.122051" lon="138.912594"><ele>30.8</ele></trkpt>
<trkpt lat="35.122056" lon="138.912613"><ele>30.8</ele></trkpt>
<trkpt lat="35.122168" lon="138.912994"><ele>31.2</ele></trkpt>
<trkpt lat="35.122227" lon="138.913195"><ele>31.2</ele></trkpt>
<trkpt lat="35.122466" lon="138.914008"><ele>32.0</ele></trkpt>
<trkpt lat="35.122670" lon="138.913983"><ele>32.5</ele></trkpt>
<trkpt lat="35.122686" lon="138.913981"><ele>32.8</ele></trkpt>
<trkpt lat="35.122734" lon="138.913975"><ele>33.0</ele></trkpt>
<trkpt lat="35.122725" lon="138.914443"><ele>31.8</ele></trkpt>
<trkpt lat="35.122710" lon="138.914601"><ele>31.2</ele></trkpt>
<trkpt lat="35.122690" lon="138.914680"><ele>31.0</ele></trkpt>
<trkpt lat="35.122666" lon="138.914740"><ele>31.0</ele></trkpt>
<trkpt lat="35.122582" lon="138.914911"><ele>30.2</ele></trkpt>
<trkpt lat="35.122326" lon="138.915391"><ele>29.8</ele></trkpt>
<trkpt lat="35.122237" lon="138.915305"><ele>29.8</ele></trkpt>
<trkpt lat="35.122162" lon="138.915209"><ele>30.0</ele></trkpt>
<trkpt lat="35.122116" lon="138.915129"><ele>30.0</ele></trkpt>
</trkseg></trk></gpx>
